UID,NAME,PROV,CITY,DIST,ADDRESS,TEL,LONG,LAT
338c23a26a1e9ee835b06c4a,华银天鹅湖金海岸,,,,河北省保定市涞水县张坊镇西行2公里(河北涞水县宋各庄乡北色树村天鹅湖旁),,115.622152,39.580339
d534ea243d0fed0484154122,天鹅湖HOLI公馆,,,,河北省保定市房山张坊镇西行2公里（河北涞水县宋各庄乡北色树村天鹅湖旁）,,115.621133,39.579803
d21b96e55fddb2497ec87628,华银天鹅湖酒店式公寓,,,,保定市涞水县宋各庄乡西天鹅湖,,115.624435,39.57604
33e8e9c756ab5c2f2e473327,天鹅湖西山廊桥,,,,天鹅湖生态旅游风景区北,,115.627032,39.586042
887bf83bf5a710632dfaa716,自然家园,河北省,保定市,涞水县,保定市涞水县野三坡大街野三坡漂流终点同路假日酒店旁,13831216400,115.4822,39.645457
53349ee3d57ad16e22026222,北山庄,河北省,保定市,涞水县,保定市涞水县,,115.608283,39.529446
6c8a86ad9ab01d7333621230,保定城钰山庄,,,,涞水保定涞水三坡镇下庄村,,115.444628,39.616118
fae1240d914f1166b8df8f37,桃源新都孔雀城,,,,涿州市东城坊镇涿州市翰仕文传纸制品公司东北侧300米,,115.821837,39.476571
50743d2b284e9f4a40ab9af7,京涞新城,河北省,保定市,涞水县,保野公路西50米,,115.728757,39.509242
75a0e282208ae0275b10935e,一渡龙湾,,,,东庄大街与232省道交叉口东北150米,,115.682845,39.581915
024b5351981e45b5a7c756f7,活佛山公寓,河北省,保定市,涞水县,河北省保定市涞水县宋各庄乡活佛山公寓,,115.666497,39.553653
450dc8f615a7962ff4e73b57,鸿盛凯旋门,,,,河北省保定市涿州市北二环（永济中路）爱民街9号,,116.013225,39.510503
925c550f644aebb25a3ac82d,名流枫景洋房,河北省,保定市,涿州市,保定市涿州市燕邑路127号,,116.027159,39.500342
84157160352c96779868b4af,燕赵花园,,,,河北省保定市涿州市涿州市鸣泽大街79号,,116.02851,39.498058
4eb3b533c6f9ea754302452d,仙颐园小区,河北省,保定市,涿州市,涿州市西客站南广场融信大厦606,,115.992462,39.48457
606ab0d0e941212a0e3dda2d,晨光小区,河北省,保定市,涿州市,河北省保定市涿州市晨光路60号,,116.013449,39.485273
a12baa40521f6855e856fa0e,宏远景园,河北省,保定市,涿州市,保定市涿州市冠云中路148号,,116.006766,39.482073
435d7aea66043f355abbbc32,联合小区六号院,河北省,保定市,涿州市,华阳路东门大街49号,,115.983604,39.502068
4404d560733c481e047ce8a1,名流枫景五期,河北省,保定市,涿州市,平安北街附近,,116.023477,39.505232
98dfacf27562547f2efaa7bd,东兴小区,河北省,保定市,涿州市,诚信路2号,,116.018279,39.48541
aee40d8d88619c8704026fe7,汇元新天地,河北省,保定市,涿州市,河北省保定市涿州市汇元新天地(南关街东),,115.97979,39.479515
9985051df98a0af8ad080f3c,涿州农大人才家园,,,,河北省保定市涿州市东城坊镇松兰路涿州人才家园,,115.85529,39.469406
b7021bf8c59623faf4e73b2d,光明小区,河北省,保定市,涿州市,东兴北街37号,,116.02059,39.501059
b4abfa6b3652f95ffd0eb0a4,涿郡东区,河北省,保定市,涿州市,平安大街与永济中路交汇处东路北,,116.028116,39.509322
2fd2beab6c4701527adbd22d,水乡园,河北省,保定市,涿州市,保定市涿州市朝阳路41号,,116.025675,39.496422
085d08c2b2b67b67d3ff23ad,新加坡花园,河北省,保定市,涿州市,保定市涿州市冠云中路209号,,116.006834,39.483657
0a3d1d10c803fab4aeb22a52,涿州三五四三社区,河北省,保定市,涿州市,范阳中路231号,,116.026586,39.49272
aabd9274c0d677e379b55c25,公园壹号,河北省,保定市,涿州市,冠云路与玫瑰大街交口西侧,,116.02833,39.483483
226c5330bbc5792a7ec87610,云景城,河北省,保定市,涿州市,河北省保定市涿州市长空路169号,,115.998792,39.480551
34f68ab0e750e2098f55ec0e,范阳小区,河北省,保定市,涿州市,范阳中路180号,,115.998906,39.489753
61ff9520eab965371b94c67a,京第银座,,,,河北省保定市涿州市华阳中路203号,,116.020041,39.502604
f757e6ee96616917260bd02d,天龙小区,河北省,保定市,涿州市,华阳中路76号,,116.007799,39.49759
04bdf4a3876d3731354aaedb,名流一品,河北省,保定市,涿州市,涿州市范阳中路文化广场西300米交通局东侧(原劳技校校址),,116.008898,39.490555
bf29b702844b8c9909b93a2d,国富嘉园,,,,保定市涿州市平安北街123号,,116.025522,39.501802
1020060f8b0802db1894c640,鹏润四季花园,河北省,保定市,涿州市,东兴南街59号(东兴南街),,116.018014,39.484395
d14b8e3bd4e972dfd22dd6dd,汇元国际,河北省,保定市,涿州市,平安北街109号,,116.024484,39.497755
92735f685255467d9a005035,物探局二号院,河北省,保定市,涿州市,河北省保定市涿州市范阳西路188号,,115.987605,39.490581
28e700f1d148d301095cb332,东安小区,河北省,保定市,涿州市,河北省保定市涿州市华阳西路318号,,115.997015,39.498705
22e114075e5d34b4d5b74e2d,中国水电五局小区,河北省,保定市,涿州市,河北省保定市涿州市甲秀路218号,,115.983747,39.505173
2848ffd646903a0c48cc4a0e,宏远二号院,河北省,保定市,涿州市,长空路108号,,115.995244,39.485078
fd3b71108b87ec7ab15c6a53,三利中和城-一期,河北省,保定市,涿州市,河北省北京市房山区东仙坡镇白庄京深路三利中和城一期,,116.021228,39.592254
be54cde9bc53405b78f7960e,同善园,河北省,保定市,涿州市,涿州市华阳东路207号,,116.020975,39.503214
373cf7575c5df86e4354d72d,欣欣庄园,河北省,保定市,涿州市,涿州市平安北街73号政法街,,116.024557,39.49463
1e96d781e873523c028972cf,水榭春天,,,,河北省保定市涿州市107国道拒马河滨湖公园北500米,,115.97776,39.526522
35debf2917b1cc44a6da392d,豪门庄园,河北省,保定市,涿州市,涿州市东兴北街17号,,116.020199,39.497052
881a28e717421047f942b232,东方家园,河北省,保定市,涿州市,清凉寺街道范阳中路244号,,116.001924,39.489808
a8f9d97d28c6d76f9f09f750,东方丽景,,,,河北省保定市涿州市清凉寺街道冠云中路东方丽景(金领郡旁),,115.994855,39.48252
08fc93df10700f919b68b432,华光小区,河北省,保定市,涿州市,华阳西路179号,,115.992969,39.500627
e6ee2fd206180c482b11d12d,唐人花园,河北省,保定市,涿州市,平安北街28号,,116.021851,39.49312
564ed45eb3c9311631f71dac,富力花园,河北省,保定市,涿州市,河北省保定市涿州市范阳中路85号,,116.009204,39.491979
d631f19c6ae9d2b34afc8d01,天保青花府,,,,双塔路,,115.981095,39.505274
5540043a3b5ee9ad0482c216,航校小区,,,,河北省保定市涿州市长空路,,115.995165,39.471086
d4034eb398803df6c036442d,新府阳光,河北省,保定市,涿州市,河北省保定市涿州市建设路2号,,115.999756,39.487772
060f5e5305a932d7081cc72d,金兴花园,河北省,保定市,涿州市,东兴南街162号,,116.014401,39.483292
ff25f0874801f03c2bd7abf2,县府小区,河北省,保定市,涿州市,保定市涿州市华阳西路51号,,115.98298,39.498496
f1c8736b7c923613b54f546f,清凉寺居民小区,河北省,保定市,涿州市,平安北街53,,116.024468,39.493376
160db58f6baea771ebe58217,联合小区四号院,河北省,保定市,涿州市,范阳中路62号,,115.996493,39.490221
001818bab442cb2ed12dd66b,研制厂小区,河北省,保定市,涿州市,范阳中路350号,,116.011117,39.489834
a92a8d12e861451f7af79647,华福佳缘,河北省,保定市,涿州市,涿州市华阳中路132号,,116.011688,39.498895
9ee392b8af41ab42bbbd630e,铁十八局三处小区,河北省,保定市,涿州市,南关大街259号,,115.982804,39.481847
75d0881a3054d74d3a04b132,东关新村小区,,,,河北省保定市涿州市华阳中路2号,,116.001442,39.496584
7909103dad98f97002294ff6,荣景公寓,河北省,保定市,涿州市,河北省北京市房山区荣景公寓(李白路南),,116.019328,39.589897
1bf85b2569f5dea4a1a9342d,工商局小区,河北省,保定市,涿州市,保定市涿州市涿州市40朝阳路管理委员会工商行政管理局41,,116.028808,39.496569
fc7675247ddca5f94e776e0e,中国石油物探小区,河北省,保定市,涿州市,保定市范阳西路188号,,115.989223,39.488936
c7f1ba07489cb182095cb3e9,名流城市尊邸,河北省,保定市,涿州市,"涿州涿州开发区市政广场南侧,平安北街与华阳路交叉处向东",,116.028415,39.502095
b0d056f24825247ecac3db2d,银都花园,河北省,保定市,涿州市,华阳中路211号,,116.022951,39.503466
7638fd0e60e9a7ac3f9a5e04,鸿盛望京,,,,河北省保定市涿州市东仙坡镇康节西路东仙坡镇政府东侧,,116.000218,39.568291
50fb64ff0d52f55de9f8532d,紫晨小区,河北省,保定市,涿州市,城南西路72号,,115.974316,39.478102
11859f8763d7f7b69d95de02,幸福小区,河北省,保定市,涿州市,保定市涿州市冠云西路128号,,115.983123,39.481848
f47025157d3a6273f4eafc34,永安小区,河北省,保定市,涿州市,河北省保定市涿州市甲秀路40号,,115.986543,39.496877
fa7da3e897afe26242d63e2d,槐林新村住宅小区,河北省,保定市,涿州市,河北省保定市涿州市朝阳路槐林新村住宅小区(欣欣庄园西北),,116.022163,39.495169
fcf4061ff0bd845e5cbe8600,挟河社区,河北省,保定市,涿州市,保定市涿州市挟河村北门东,,116.019648,39.585475
d82d66976f635fa6d518b732,宏远家园,河北省,保定市,涿州市,河北省保定市涿州市建设路35-8,,115.997415,39.489213
e56bf5e31b1d68440782c22d,金色家园,河北省,保定市,涿州市,涿州市朝阳路85号,,116.027286,39.496401
b5065e417546493cadcb6663,惠友橙园,河北省,保定市,涿州市,保定市涿州市东兴南街35号,,116.017235,39.486672
c16534053d04c57aab175a0e,六十七处-家属楼,河北省,保定市,涿州市,河北省保定市涿州市六十七处家属楼(城南东路南),,115.981532,39.4773
9f3dec1be50f896ab6265521,汇元尚品,河北省,保定市,涿州市,保定市涿州市冠云中路237号,,116.012183,39.482513
70b2096ebff7d2dc16a19061,联合小区二号院,河北省,保定市,涿州市,范阳中路73号,,116.002332,39.492671
d30b558a17818c8a1b94c64e,华泰豪庭,河北省,保定市,涿州市,河北省保定市涿州市朝阳路水乡园北侧,,116.026104,39.497231
465f7c59dcea0d0a6c3e1b9a,矿山局家属楼,河北省,保定市,涿州市,涿州市范阳西路122号矿山局南院10号楼4单元,,115.984016,39.490244
f9d1b21ffa2cbe532bd7ab6e,一七三小区,,,,河北省保定市涿州市建设路286,,116.008333,39.488345
8376230331a440e61df74d78,双馨佳园,河北省,保定市,涿州市,河北省保定市涿州市双馨佳园(永济西路南),,115.990125,39.509749
b533ea4a167a69414f6d462d,温馨小区,河北省,保定市,涿州市,河北省保定市涿州市建设路72,,115.998156,39.487314
a905e659e94dce3a3717dc48,团结小区,,,,保定市涿州市团结路6号,,115.983243,39.523173
ea8de074bfd7d6884251c029,三利中和城-二期,河北省,保定市,涿州市,河北省保定市涿州市东仙坡镇挟河村京深路三利中和城二期,,116.022301,39.591532
1020060ff5e078a61894c62d,金正小区,河北省,保定市,涿州市,河北省保定市涿州市建设路430号,,116.021526,39.487046
b3aa435d5c59940b1576432d,绿茵家园,河北省,保定市,涿州市,河北省保定市涿州市复兴路邱庄居民小区,,115.998958,39.494775
086374e2feeb1deaab175ac7,农大涿园小区,河北省,保定市,涿州市,河北省保定市涿州市东城坊村正阳街农大涿园小区,,115.860233,39.47617
fdc3e8819d37e8ab36b06c16,鼓楼新城,,,,保定市涿州市范阳西路67号,,115.976732,39.491329
a8689dcda4497868a8175a3f,鸿盛凯旋门三期,河北省,保定市,涿州市,河北省保定市涿州市华夏路与北环路交叉口东北角,(0312)3650222,116.012681,39.510244
93df0dc3c49eb12b882fb532,华北铝业生活小区,河北省,保定市,涿州市,保定市涿州市南关街136号,,115.977669,39.484882
1c255c5145191dd44d554769,汇元京品,河北省,保定市,涿州市,河北省北京市房山区琉璃河镇京深路汇元京品,,116.021088,39.59174
c7fb04bde010ea15fa0cad32,地质总局南院,河北省,保定市,涿州市,范阳西路26号,,115.973114,39.489978
ea4a3dc9944e652e4e55472d,文昌祠社区,河北省,保定市,涿州市,文昌祠路91号,,115.983935,39.493319
336672c7424f1e70c16c145a,金隅地质嘉园,河北省,保定市,涿州市,范阳西路5号,(0312)3661222,115.972776,39.492087
8406c33f7267c9bd5fbe864e,华阳小区,,,,河北省保定市涿州市华阳中路66号,,116.006701,39.497904
daa9ea64a15f74beabf0cd6e,兴泰花园,河北省,保定市,涿州市,河北省保定市涿州市兴泰花园(东兴北街西90米),,116.018426,39.506593
81d6a50931baa53d6e20b95c,怡安小区,河北省,保定市,涿州市,文林街1号,,115.980792,39.493007
fef83173941620123586f493,辛源中央公馆,河北省,保定市,涿州市,保定市涿州市范阳中路474号,,116.021295,39.490104
81d6a5095b49df406e20b932,嘉和小区,河北省,保定市,涿州市,冠云中路109号,,115.996957,39.48441
7aea43b7cc3a70f87c29bd32,金冠家园,河北省,保定市,涿州市,冠云西路203号,,115.986189,39.484184
f4460918c7e53a6ab11e362d,方正馨园,河北省,保定市,涿州市,保定市涿州市清凉寺街道173队建设路246号,,116.007752,39.487836
2ad32cc30b5b218f9d95de2d,涿州市农行生活小区,河北省,保定市,涿州市,涿州市平安北街25号,,116.024205,39.492577
c79a8b34a7bef565b1077d9e,化肥厂小区,河北省,保定市,涿州市,河北省保定市涿州市建设路113,,116.007164,39.489371
5e53af1a4cd8225f4151c02d,金穗嘉园,河北省,保定市,涿州市,河北省保定市涿州市平安北街21号,,116.024136,39.491944
d385e7491505caba14c8f6e3,军怡家园,河北省,保定市,涿州市,军怡家园位于其他京石高速诼州出口,,116.01212,39.514087
b1c556e8014ecd71b42655eb,烟草小区,河北省,保定市,涿州市,涿州市东兴北街7号,,116.019332,39.493285
1176b5a59bd62d70c3f1cf60,康乐小区,河北省,保定市,涿州市,保定市涿州市长空路20号,,115.994603,39.487481
7ec85e5ff27e346926d2bb7d,物资小区,,,,河北省保定市涿州市范阳中路11号,,115.997635,39.490966
dbf4d6ee32975a2a6fa3cc2d,青旅花园,河北省,保定市,涿州市,河北省保定市涿州市平安北街8号,,116.021839,39.491771
e889a744a36572b58605bf32,交通小区,河北省,保定市,涿州市,范阳中路280号,,116.007192,39.489786
fc56a7da3611e2e99e82ea02,涿州香邑溪谷原墅北区,河北省,保定市,涿州市,西顺街东100米,,116.016519,39.512526
56f2f6964e71e0800aa8d42d,怡海嘉园,河北省,保定市,涿州市,河北省保定市涿州市平安北街72号,,116.022011,39.493982
2a14b7133665fd3826e0a0ec,乐亨小区,,,,河北省保定市涿州市城西北街136号,,115.971473,39.498943
9730ef032cdaa97f2fb96dc4,建厂局设计院家属楼,河北省,保定市,涿州市,河北省保定市涿州市范阳中路75号,,116.002985,39.492984
43b7e88984f7566a58f6be32,金地小区,河北省,保定市,涿州市,河北省保定市涿州市教军场街金地小区(东关新村小区东),,116.002728,39.496298
2cc3c8e83480b7d64d2fdf2d,涿州市国税局金税小区,河北省,保定市,涿州市,河北省保定市涿州市朝阳路3,,116.020435,39.496641
f633606a9352224d0b69d91c,新星小区,河北省,保定市,涿州市,东后南街28号,,115.985181,39.48489
9b663b07756e778ccd04ef62,康丽小区,,,,河北省保定市涿州市南关街236,,115.977333,39.478537
c8783b2f840bfe0a9ff7794b,卓悦城,,,,保定市涿州市育才路,,115.993959,39.504106
5428dfe33404a6c971455bd8,锦绣范阳,河北省,保定市,涿州市,河北省保定市涿州市教军场街2,,116.003603,39.489731
55f6b94bd8af5e906118097f,长天小区,河北省,保定市,涿州市,河北省保定市涿州市航空路53号,,115.998197,39.481758
765dbaaee037e6f5b54f5438,粮食局东关小区,河北省,保定市,涿州市,甲秀路148号,,115.985887,39.501711
850815e1b2ca519843e1920e,世纪嘉园,河北省,保定市,涿州市,东兴北街35号,,116.020206,39.499142
b249876b9ed333adeee4a583,金品时代,,,,河北省保定市涿州市建设路联合小区二号院东(速8酒店东北),,116.004855,39.492434
a74481d684baac46f503b832,交警家园,河北省,保定市,涿州市,教军场街66号,,116.004272,39.496258
f3c2373c4ce43152d22dd62d,兴泰小区,河北省,保定市,涿州市,范阳中路466号,,116.019867,39.490174
f44f40361ae0f4cca8f729e2,宝林苑小区,,,,河北省保定市涿州市大宝林院,,115.976234,39.496765
8eec5a69e268a7f4e5e965d9,新府阳光二号院,河北省,保定市,涿州市,河北省保定市涿州市辛庄大街附近,,116.001771,39.487939
a9388b76c499ff09fe0eb095,汇元上城,河北省,保定市,涿州市,保定市涿州市东兴南街77号,,116.015052,39.482621
576fa41b3d2fd1dfb04c49cc,供电公司小区,河北省,保定市,涿州市,涿州市朝阳路5号,,116.019486,39.493969
6ee01020aabc89ef52e5c52d,九州小区,河北省,保定市,涿州市,东兴南街20号,,116.015897,39.489722
3f826ed36eae2145d1f49e0e,邮政小区,河北省,保定市,涿州市,东兴北街9号,,116.0196,39.495249
04bdf4a32e1ad04f354aae32,长安社区,河北省,保定市,涿州市,河北省保定市涿州市长安社区(中国劳动关系学院东),,115.923648,39.477187
dca220fe42a93d3d4351c02a,龙马家园7号楼,,,,河北省保定市涿州市长空路育翔幼儿园附近(龙马家园附近),,115.99938,39.476165
410d2d13e6b1c1700bf5ebb5,颐和公馆,河北省,保定市,涿州市,东城坊镇旅游大道1号京都颐和城,,115.884956,39.493793
50fb64ffa272565ee9f8530e,华阳温馨,河北省,保定市,涿州市,保定市涿州市华阳中路18号,,116.00348,39.495872
a5097bfa174f4463f03cba32,华欣小区,河北省,保定市,涿州市,复兴路53号,,116.006399,39.495324
d634b55498f584dae956fabf,金域中央(建设中),,,,河北省保定市涿州市东大街与永安街交叉口,,115.982213,39.495962
ed38edf048f94f66e315f90b,仁和社区,河北省,保定市,涿州市,保定市涿州市东后南街22号,,115.985482,39.486325
8d96925ce7bc0245c1f1cf2d,名流公寓,河北省,保定市,涿州市,河北省保定市涿州市范阳中路366号,,116.011084,39.489727
b292b3aa64eead56be48422d,邱庄居民小区,河北省,保定市,涿州市,保定市涿州市振兴街37号,,115.997036,39.493403
5fe2f59d6fbd7f46f60e771a,涿州中心城,河北省,保定市,涿州市,河北省保定市涿州市华阳中路国富酒店东行50米,,116.028578,39.504074
4fc3161a49467eaa3a13fd0e,汇元时代,河北省,保定市,涿州市,冠云东路南侧(汇元大酒店南侧),,116.014509,39.481371
f55b4236667845aec4f0254e,龙马家园3号楼,,,,河北省保定市涿州市清凉寺街道西河村长空路龙马家园,,115.99912,39.475245
70caa2b722a8ea1c43ab9a2a,建行华阳小区,,,,华阳中路189号,,116.017539,39.501998
46e86fdd114efd6fd13ce32d,涿州银都小区,河北省,保定市,涿州市,范阳中路452号,,116.019312,39.490752
6c663ccc9ac90b78afee7a0f,名流涿郡(东区),河北省,保定市,涿州市,河北省保定市涿州市华阳中路,,116.026927,39.508489
61f83ee65395135cc3364452,法院家属小区,河北省,保定市,涿州市,育英街103,,116.022728,39.499376
6deee30819fb286a29fc482d,永安-南区,河北省,保定市,涿州市,甲秀路4号物探,,115.986489,39.494356
641f6b91df8ee0df343a7111,地质总局北院5号楼,河北省,保定市,涿州市,河北省保定市涿州市双塔街道尚公街河北大学涿州教学中心,,115.972959,39.492862
53349ee3382b726d2202620e,铁十八局一处小区,河北省,保定市,涿州市,南关大街259号,,115.983015,39.481645
455ec2afd12da2889868b4fb,农业局小区,河北省,保定市,涿州市,河北省保定市涿州市华阳中路24号,,116.005857,39.497724
4e5922b4247c2b93a1d230d9,和谐佳居,河北省,保定市,涿州市,华阳中路18号,,116.005425,39.495736
fd3df5c7053195d7593ac891,公安局家属院2号楼,河北省,保定市,涿州市,保定市涿州市华阳路322号,,116.022558,39.501648
db617c88b204a0d0aeb22a2d,涿州市财政局家属院,河北省,保定市,涿州市,河北省保定市涿州市建设路263号,,116.021144,39.488853
9218d64536f6620fd2f49eaf,造纸厂小区,河北省,保定市,涿州市,河北省保定市涿州市迎宾路41,,115.991579,39.489292
e13d2fa52d4023843617dc4e,双塔中学住宅小区,河北省,保定市,涿州市,双塔路南50米,,115.979986,39.505928
b939134962402db02bb97c57,军怡公馆,河北省,保定市,涿州市,幸福大街2号,,116.01891,39.510577
64ff3be1a41592c690114ceb,新兴化工厂家属院,河北省,保定市,涿州市,范阳路安康街3号,,115.998464,39.493193
bb6b5114a7b185c02a02e13f,煤田总局173队家属楼,河北省,保定市,涿州市,辛庄东街和和平路的交叉口附近,,116.005412,39.488268
704ed911267694645bf6be28,同善园-银座,河北省,保定市,涿州市,保定市涿州市华阳中路207号,,116.020109,39.502549
f9fd6062386e3a1c0f0e6b0e,燕赵家园,河北省,保定市,涿州市,体育场路18号,,115.98464,39.495952
25ec69fc71b23c00c26c1472,银城小区,河北省,保定市,涿州市,清凉寺街道建设路119号,,116.012449,39.489249
c8e8f6338b061d11ab0dd873,豪门庄园-东区,河北省,保定市,涿州市,保定市涿州市东兴北街17号,,116.022183,39.49779
844a750e65f640ba6268580e,南关小区,河北省,保定市,涿州市,保定市涿州市育红胡同1号,,115.982349,39.486412
3c853fcbed4d2c10f603b850,铁道部建厂局小区,,,,保定市涿州市范阳西路86号,,115.980941,39.489235
351ccb63db5ac4df306212d7,建设局住宅小区,河北省,保定市,涿州市,城南西路78,,115.976189,39.477733
9f97b1c5f67bf805b64f540e,蓝天厂生活区,河北省,保定市,涿州市,保定市涿州市机场街7号,,116.001057,39.472223
5806b7dd52414b55223bf2a7,铁道部建厂局家属楼,河北省,保定市,涿州市,健康路14号,,116.000396,39.48502
2848ffd6fbb0990f48cc4a2d,永安小区北区,河北省,保定市,涿州市,甲秀路38号物探局,,115.986573,39.496895
de7a5f2c40f6fe3aa1a93402,宏远宜居园,河北省,保定市,涿州市,冠云中路与东兴南街交叉口西侧（汇源大酒店附近）,,116.012169,39.481594
341c35de1e9a60bee607382d,华阳公寓小区,河北省,保定市,涿州市,东兴北街40号,,116.018563,39.501311
0cda66b5b3547adda8175a11,电梯厂小区,河北省,保定市,涿州市,东后南街23,,115.986264,39.485157
407ea75bb712ddefe507384d,涿州铁路住宅小区,河北省,保定市,涿州市,河北省保定市涿州市迎宾路49号,,115.991542,39.488274
4247c4b6309d573130621292,水乡园-1号楼,河北省,保定市,涿州市,河北省保定市涿州市水乡园1号楼,,116.025206,39.4962
f696f3c28b8f20eb1b11d52d,燕赵花园-3期,河北省,保定市,涿州市,河北省保定市涿州市知味坊街燕赵花园,,116.028565,39.498119
5b25f44695ab8bea1029352d,方正园,河北省,保定市,涿州市,河北省保定市涿州市建设路221号,,116.019619,39.489059
be76566cb3e163d29868b43d,怡安小区-二期,河北省,保定市,涿州市,河北省保定市涿州市文昌祠路附近怡安小区二期,,115.980845,39.493576
3ac1e7cd8da467267fc8767d,云景城小区-H座住宅楼,河北省,保定市,涿州市,河北省保定市涿州市云景城小区H座住宅楼(东河路南),,115.99958,39.480697
63dfa2e802bfd6ccc17da236,六十七处,,,,河北省保定市涿州市城南东路106号,,115.981357,39.478383
94e2d119de153d94dd1e5240,建安阳光,河北省,保定市,涿州市,京深路飞达集团附近,,115.978928,39.526316
083a55fa075d7b04246e984a,金都住宅小区,河北省,保定市,涿州市,城西南街123,,115.970604,39.485726
daa4ee0e46f2bc43d518b7c0,名流家和小区,河北省,保定市,涿州市,河北省保定市涿州市名流家和小区(兴福路南80米),,116.024102,39.507251
f5e3bcae194b2dc15e17c32d,金慧苑,河北省,保定市,涿州市,"河北省保定市涿州市建设路257,259号",,116.019844,39.48904
100b306473f31c27e8e5820f,涿州鹏渤御苑住宅小区,河北省,保定市,涿州市,河北省保定市涿州市东大街鹏渤・范阳1号鹏渤御苑,,115.979872,39.491373
799710992e1b8ab64d776eb9,财达证券小区,河北省,保定市,涿州市,河北省保定市涿州市朝阳路2,,116.020719,39.495627
db99febf02ea4567471a3249,同善园-2号楼,河北省,保定市,涿州市,保定市涿州市华阳中路207号,,116.021286,39.502923
853da420c9f5b24aabf72908,审计局小区,河北省,保定市,涿州市,平安北街26号,,116.02226,39.492457
697e33c065b44465a11de9f1,检察院小区,,,,华阳中路与育英街交叉口南200米,,116.021998,39.50078
52a5850fa8d48440fe0eb0da,双塔中学住宅小区-1号楼,河北省,保定市,涿州市,河北省保定市涿州市双塔中学住宅小区1号楼,,115.979837,39.505084
89e519cfbaae2c624afd3fc1,晨光小区-8号楼,河北省,保定市,涿州市,河北省保定市涿州市晨光小区8号楼,,116.013259,39.486332
d1cf6c6a5456dad0afee7ab4,合美家园,,,,保定市涿州市福安街8号,,116.014109,39.493905
15b2bc488935d2bfdc1e5235,金兴花园-7号楼,,,,保定市涿州市东兴南街162号,,116.013728,39.482734
7a2f1e72b8a35c479cec2b21,茂都枫情水岸,,,,河北省保定市涿州市城西北街58号,,115.971466,39.497281
34244fe86c5910b002294f2e,公安局家属院1号楼,河北省,保定市,涿州市,华阳中路与育英街交叉口东南50米,,116.022592,39.502032
befdb2929b1994e18715412d,邱庄社区,河北省,保定市,涿州市,安康街与范阳西路交叉口西北100米,,115.999372,39.491125
441f84dd90513e628a36eeee,矿山局家属楼-8号楼,河北省,保定市,涿州市,河北省保定市涿州市矿山局家属楼8号楼,,115.982793,39.487677
2a34cdba29ba76bc16a1903f,华铝住宅楼301号楼,,,,河北省保定市涿州市仁和路279号附近,,115.978206,39.481423
8997e97cf90c6effa21de9f3,联合小区,河北省,保定市,涿州市,周边华阳路西华阳桥西行50米路南,,115.996505,39.49807
0b861912ec25464e0ab93a54,名流5期8号楼,,,,名流枫景小区5期8号楼,,116.023262,39.505851
b1a640a09c871268210220cd,粮食局桥头小区,河北省,保定市,涿州市,范阳中路7,,115.996721,39.49111
0783488b2f143a5087330473,双塔中学住宅小区-2号楼,河北省,保定市,涿州市,河北省保定市涿州市双塔中学住宅小区2号楼,,115.979767,39.505433
c6fb79149ace4bcf7adbd218,名流枫景5期-7号楼,河北省,保定市,涿州市,河北省保定市涿州市名流枫景小区5期7号楼,,116.024588,39.50598
9960126031268893b54f54c9,邮电局住宅楼,河北省,保定市,涿州市,范阳中路附近,,116.027842,39.489813
167f2a9b16434149a1046440,水乡园-6号楼,河北省,保定市,涿州市,河北省保定市涿州市水乡园6号楼,,116.025637,39.496799
2956d526aa0177bb7f29bd88,就业局小区,河北省,保定市,涿州市,河北省保定市涿州市冠云西路48号,,115.975685,39.482251
24576acef74c3773441a32f2,天龙小区-二期,,,,涿州市涿州市华阳中路76号物探学校西邻华阳路路,,116.007776,39.49634
a00c6eaad7497be52de67b4d,金属器件厂住宅小区,河北省,保定市,涿州市,团结胡同与新兴北街交叉口南100米,,115.974015,39.487698
17d3c72228aded1c7c29bd16,永安小区-151号,河北省,保定市,涿州市,保定市涿州市甲秀路38号,,115.986986,39.496045
f1f33d63855353ce41ab9a67,永安小区-155号楼,,,,河北省保定市涿州市永安小区155号楼,,115.985771,39.496615
d84e5908f067415ca8f729c0,尚公街社区,河北省,保定市,涿州市,尚公街附近,,115.975837,39.495348
bbdc2cc40b575c1fb45f1eaf,范阳小区-2号楼,河北省,保定市,涿州市,保定市涿州市范阳中路180号,,115.99839,39.489951
74debf041d10412f47e27496,桃园新村社区,,,,城南东路15号附近,,115.980872,39.47865
c69805bc0137e73294ca07b7,鹏渤・范阳1号,河北省,保定市,涿州市,范阳西路76号附近,,115.980112,39.49132
e49e4485fe7bbc793904b14e,东安小区-137号,河北省,保定市,涿州市,保定市涿州市甲秀路39号,,115.98823,39.497835
43c276ff81af4fd4b35c6a18,康隆小区,河北省,保定市,涿州市,东兴南街1号附近,,116.01771,39.489932
5b6e1c822d832fff2dfaa763,京都商务主题公园花园小区,,,,河北省保定市涿州市京都旅游大道1号,,115.889268,39.493665
d0da8711efaf2f3b2b201aac,仙颐园-8号楼,河北省,保定市,涿州市,保定市涿州市冠云中路甲35号,,115.991726,39.48502
76e8ea492f4749f7ae0457e7,六十七处家属楼-6号楼,,,,河北省保定市涿州市六十七处家属楼6号楼,,115.980829,39.4779
0a5330a6b4dff51a17c8f62c,水岸花城-G6号楼,,,,河北省保定市涿州市107国道大石桥北50米大北京城上城鹏渤・水岸花城G6幢,,115.971092,39.52089
03a032c56d4674f41b11d501,范阳小区-1号楼,河北省,保定市,涿州市,清凉寺街道范阳东路180号,,115.998558,39.490207
4ebacbdd2a393f7b4054d7cc,华铝住宅楼108号楼,,,,仁和路与南关拐弯胡同交叉口西50米,,115.977656,39.484326
0a00e6cb41fe9b71260bd0de,鹏渤城上城,河北省,保定市,涿州市,河北省保定市涿州市清凉寺街道东兴北街兴泰花园,,116.019608,39.506812
e8d7ecb1755ec99921f017fc,汇元酒店式公寓,,,,河北省保定市涿州市建设路54号,,115.997535,39.488239
8b4b9f2b64c80d14b15c6a70,金属器件厂住宅小区-2号楼,河北省,保定市,涿州市,河北省保定市涿州市金属器件厂住宅小区2号楼,,115.974005,39.487878
66e5998925ed5f31e215f94e,国富嘉园-14号楼,河北省,保定市,涿州市,河北省保定市涿州市国富嘉园14号楼,,116.027198,39.501514
231446fb04f12ce6932ca322,同善园-4号楼,河北省,保定市,涿州市,保定市涿州市华阳路207号,,116.021327,39.503278
76f5afc11acdf6c9b4265511,联合小区6号院8号楼,,,,联合小区6号院8号楼,,115.983857,39.501143
33e682ce887f8f75364aae78,晨光小区-1号楼,河北省,保定市,涿州市,保定市涿州市晨光路60号,,116.014172,39.48616
9b64f43804890a052bb97c08,双塔中学住宅小区-3号楼,河北省,保定市,涿州市,河北省保定市涿州市双塔中学住宅小区3号楼,,115.979715,39.505773
cf2d150a6155f4d32dfaa753,联合小区壹号院南区,河北省,保定市,涿州市,河北省保定市涿州市联合小区壹号院南区(市场路南),,115.994811,39.497754
b1259fd288da1156f7b9168a,地质总局南院-10号,河北省,保定市,涿州市,地质总局南院10号楼,,115.972145,39.489388
1139915749e2cd81d5b74ee3,黎明居民小区第16楼,河北省,保定市,涿州市,黎明胡同附近,,115.974317,39.480167
466b95b016de2894d0ff23eb,兴隆社区,河北省,保定市,涿州市,河北省保定市涿州市建设路269号,,116.021105,39.48815
278ac75e85f5a4c52cb908fb,怡海社区,河北省,保定市,涿州市,平安北街70号,,116.022932,39.494052
b1c556e813293f0fb426550e,中化社区-南院小区,河北省,保定市,涿州市,范阳西路122号,,115.983994,39.489338
94aa032e24aa1b0dfb2d618b,新府-阳光3号楼,河北省,保定市,涿州市,河北省保定市涿州市清凉寺街道建设路新府阳光,,115.999195,39.487645
04e8b2b8bfa0a481704b87b5,北京公馆,河北省,保定市,涿州市,东兴北街北口,,116.018879,39.508899
460c3c031a3e7484f50e779f,惠友水晶公寓,河北省,保定市,涿州市,涿州市南关大街与冠云路交汇处南行100米路东,,115.979054,39.480315
968f2d16e9468a193be4a623,名流枫景小区5期1号楼,河北省,保定市,涿州市,河北省保定市涿州市名流枫景小区5期1号楼,,116.024266,39.50489
34690743a7ee135301294f40,国富嘉园-10号楼,河北省,保定市,涿州市,河北省保定市涿州市国富嘉园10号楼,,116.024339,39.501007
a07c62d12f44b11d31f71db6,黎明居民小区第33楼,河北省,保定市,涿州市,利民胡同88号附近,,115.974499,39.479595
fc17ebbe5bdf073113293504,华阳别墅,河北省,保定市,涿州市,兴福路16,,116.02247,39.507017
57b25cca713ce834130daac6,金属器件厂住宅小区-1号楼,河北省,保定市,涿州市,河北省保定市涿州市金属器件厂住宅小区1号楼,,115.973982,39.487633
74a79359cd5681e4a1046429,汇元五号院,河北省,保定市,涿州市,长空路18号,,115.997591,39.484986
37b6eafa6649ce252cb96d8a,铁道部建厂局家属楼-3号楼,,,,健康路14号,,116.00008,39.484362
62a015ce7f9c8052ce04effb,中铁建厂局家属楼-10号,河北省,保定市,涿州市,中铁建厂局家属楼10号楼,,115.997491,39.485242
a6908af48abe196d30169bc1,中铁建厂局家属楼-13号,河北省,保定市,涿州市,中铁建厂局家属楼13号楼,,115.997548,39.486622
57c6c889cbbea54dad31e530,中铁建厂局家属楼-12号,河北省,保定市,涿州市,保定市涿州市健康路1号,,115.997538,39.486274
2dc7b85cddbc1dbe882fb52f,矿山局家属楼-12号,河北省,保定市,涿州市,范阳西路122号,,115.984036,39.488038
37a46e5211275f7e7dc8768b,桃园办小区,,,,东后南街21号,,115.985884,39.485415
1c73f695dbdd6068d92f2895,华光小区-6号楼,河北省,保定市,涿州市,华阳西路179号,,115.992234,39.500555
7932cdb2cf5f95e4b54f546e,华光小区-1号楼,河北省,保定市,涿州市,华阳西路179号,,115.993203,39.50033
aea8236ce8855934b5f42f0e,工商局小区(永康大楼东南),河北省,保定市,涿州市,中心街与冠云西路交叉口东北150米,,115.974572,39.483468
6519c1d48beca7fd2f47335f,双塔中学住宅小区-5号楼,河北省,保定市,涿州市,河北省保定市涿州市双塔中学住宅小区5号楼,,115.979649,39.506422
810b506e76dcfe5ceb12e456,水乡园-8号楼,河北省,保定市,涿州市,河北省保定市涿州市水乡园8号楼,,116.02635,39.496766
bfd880a5f94f5c83abf72931,华光小区-5号楼,河北省,保定市,涿州市,河北省保定市涿州市华光小区5号楼,,115.992265,39.500868
cbaf13b4594047191288240e,晨光小区-11号楼,,,,河北省保定市涿州市晨光小区11号楼,,116.012712,39.485071
bf1c5a83399ac336c27da2ab,名流枫景5期-3号楼,河北省,保定市,涿州市,河北省保定市涿州市名流枫景小区5期3号楼,,116.024302,39.505246
454a279dc0dba60f750269eb,联合小区6号院别墅1号楼,河北省,保定市,涿州市,涿州市联合小区6号院别墅1号楼,,115.982727,39.502848
196fa722f031649a9d9d68fb,国富嘉园-13号楼,河北省,保定市,涿州市,保定市涿州市平安北街123号,,116.026314,39.501451
ad842b81853eff660a5cb329,水乡园-3号楼,河北省,保定市,涿州市,河北省保定市涿州市水乡园3号楼,,116.025579,39.496478
9ceec2a286ccc0ddc9e33cdc,国富嘉园-17号楼,河北省,保定市,涿州市,河北省保定市涿州市国富嘉园17号楼,,116.027199,39.501226
90ffd5986e9815cd3be4a6a9,国富嘉园-16号楼,河北省,保定市,涿州市,保定市涿州市平安北街123号,,116.026042,39.501093
e3c1b8a12f68d55ed42ce26e,同善园-3号楼,河北省,保定市,涿州市,保定市涿州市华阳中路207号,,116.020584,39.503201
48b443091cab5b3dd518b787,国富嘉园-6号楼,河北省,保定市,涿州市,河北省保定市涿州市国富嘉园6号楼,,116.027146,39.502085
a1ec18fc4c95f6b79222e004,国富嘉园-4号楼,河北省,保定市,涿州市,河北省保定市涿州市国富嘉园4号楼,,116.026165,39.502277
a5fd2fcd28c843ccc71b752b,国富嘉园-9号楼,河北省,保定市,涿州市,河北省保定市涿州市国富嘉园9号楼,,116.027173,39.501791
050fe5fdb0656e0a8bdb737e,东安小区-133号,河北省,保定市,涿州市,东安小区133号楼,,115.988325,39.497282
09895a15271469cddbd8914e,研制厂小区-9号楼,,,,保定市涿州市范阳中路350号,,116.011452,39.490633
0d4c1c83fe2bfe361fe9998e,永安小区-156号,河北省,保定市,涿州市,永安小区156号楼,,115.986668,39.496719
9c9f7d5765d8aee025d2bb61,永安小区-28号,河北省,保定市,涿州市,永安小区28号楼,,115.98574,39.498846
5e8a136e1e75d27e43e192ca,东安小区南区,,,,甲秀路39号,,115.989889,39.496536
542c43c9727410d728201a5e,矿山局家属楼-17号楼,河北省,保定市,涿州市,范阳西路122号,,115.983979,39.489166
d8a54e8eb48acfe43062129f,黎明居民小区第20楼,河北省,保定市,涿州市,黎明胡同182号附近,,115.974303,39.480301
e9d5a0cab6b40d4e4107c1f5,矿山局家属楼-6号楼,河北省,保定市,涿州市,保定市涿州市范阳西路122号,,115.982632,39.488653
c87ca641558c18f7c4f50d29,研制厂小区-4号楼,,,,河北省保定市涿州市范阳中路342号附近,,116.011058,39.490399
2dcd9f23362a5643dbecedb7,黎明居民小区第39楼,河北省,保定市,涿州市,黎明胡同99号附近,,115.974965,39.479746
6034f2639a71573854bfff53,涿州冰洁绣苑,河北省,保定市,涿州市,涿州市东大街180号,,115.981148,39.49714
6826c62cfab148f417948eef,金兴花园-6号楼,,,,保定市涿州市东兴南街162号,,116.014424,39.483012
f4a551a4ce75112df603b8fa,永安小区-12号楼,,,,河北省保定市涿州市永安小区12号楼,,115.986798,39.493288
5af4f07075e596d3f1193724,地质总局南院-5号楼,河北省,保定市,涿州市,保定市涿州市范阳西路26号,,115.972328,39.489701
e5ad5b2c4bcaab6c1811d506,铁道部建厂局家属楼-4号楼,河北省,保定市,涿州市,健康路14号,,116.000173,39.484056
7bf07b094fe65c35e5073896,涿州铁路住宅小区-4号楼,,,,河北省保定市涿州市铁路住宅小区4号楼,,115.991701,39.488093
32e54705292680a1c9e33cb3,研制厂小区-11号楼,,,,河北省保定市涿州市槐荫街与范阳中路交叉口西南150米,,116.010143,39.489952
90e713bd65b51e7ae0110340,粮食局东关小区-3号楼,河北省,保定市,涿州市,河北省保定市涿州市粮食局东关小区3号楼,,115.986112,39.501745
d79d4d154a2bddeda1a934a4,晨光小区-9号楼,河北省,保定市,涿州市,河北省保定市涿州市晨光小区9号楼,,116.012798,39.485622
81b607c87a9e5376902ca394,涿州铁路住宅小区-1号楼,,,,河北省保定市涿州市铁路住宅小区1号楼,,115.991408,39.488509
478c3042be550e7d744ff16f,双塔中学住宅小区-4号楼,河北省,保定市,涿州市,河北省保定市涿州市双塔中学住宅小区4号楼,,115.979667,39.50611
153fb84d36408a2fc27da295,矿山局家属楼-4号楼,河北省,保定市,涿州市,保定市涿州市范阳西路122号,,115.982558,39.489312
5379b9e89e3dc1d178f79602,涿州铁路住宅小区-3号楼,,,,河北省保定市涿州市铁路住宅小区3号楼,,115.991553,39.487885
7ac04c6dc5ed8e9de115f96a,永安小区-148号,河北省,保定市,涿州市,永安小区148号楼,,115.985732,39.495714
15d90a87bea2d0341ce999e6,六十七处家属楼-4号楼,,,,河北省保定市涿州市六十七处家属楼4号楼,,115.980691,39.477214
2ee5d621004b60523d9a5e87,研制厂小区-1号楼,,,,河北省保定市涿州市槐荫街与范阳中路交叉口南200米,,116.01104,39.489601
b971f2ce4d979b1bdbd8914a,地质总局南院-12号,河北省,保定市,涿州市,保定市涿州市范阳西路26号,,115.972119,39.48882
e2506866e1ce528540024557,地质总局南院-16号,河北省,保定市,涿州市,保定市涿州市范阳西路26号,,115.973923,39.489124
fd69ae3bab1df2bceee4a547,乐学家园,,,,河北省保定市涿州市华阳西路74,,115.977312,39.498799
c5b15b22167e9575f90cadfe,中化社区,河北省,保定市,涿州市,保定市涿州市范阳西路122号,,115.983046,39.490295
8e76d57f2527e397c42ba121,同善园-7号楼,河北省,保定市,涿州市,河北省保定市涿州市同善园小区7号楼,,116.020619,39.503914
f58aabb49740c353ede4a5d3,同善园-8号楼,河北省,保定市,涿州市,保定市涿州市华阳中路207号,,116.021313,39.503991
e4b0c00e7f14e89bcafa5f12,水乡园-5号楼,河北省,保定市,涿州市,河北省保定市涿州市水乡园5号楼,,116.026298,39.496458
09288919b0c2435b1c38944c,同善园-5号楼,河北省,保定市,涿州市,保定市涿州市华阳中路207号,,116.020625,39.503568
0f8974446a094da44d554720,鹏渤・城上城,河北省,保定市,涿州市,河北省保定市涿州市107国道大石桥北50米,,115.974004,39.521714
8df06b3b8f9714dffea778da,永安小区-147号,河北省,保定市,涿州市,永安小区147号楼,,115.986935,39.495305
0bde0f82f56c6fdd250bd071,涿州铁路住宅小区-2号楼,,,,河北省保定市涿州市铁路住宅小区2号楼,,115.991154,39.488207
b834ab60ab6b13e60782c29b,研制厂小区-3号楼,,,,河北省保定市涿州市范阳中路312号研制厂小区3号楼,,116.011034,39.490132
6aa88387d788bb4f6ca3cc16,研制厂小区-12号楼,,,,范阳中路350号,,116.010143,39.48961
96643d50cc217eef16c90593,矿山局家属楼-13号楼,河北省,保定市,涿州市,河北省保定市涿州市矿山局家属楼13号楼,,115.983272,39.488467
2aff296187fc8c9375e5b665,六十七处家属楼-1号楼,,,,河北省保定市涿州市六十七处家属楼1号楼,,115.980962,39.476458
a11bd7defb3ae9c395f08cd2,研制厂小区-10号楼,,,,范阳中路366号,,116.011806,39.488928
ae5415f0715877fbc72ba120,永安小区-157号,河北省,保定市,涿州市,永安小区157号楼,,115.987237,39.496677
c1e74968f1c07ed5e115f970,永安小区-146号,河北省,保定市,涿州市,保定市涿州市甲秀路4号,,115.985742,39.495285
c8b74779b106185340ab9a0b,铁道部建厂局家属楼-1号楼,,,,健康路14号,,116.000106,39.484934
b055fa8ea59171769f09f753,地质总局南院-11号,河北省,保定市,涿州市,保定市涿州市范阳西路26号,,115.972124,39.489104
f9687d057bb8b4fcb05c6ae9,研制厂小区-8号楼,,,,保定市涿州市范阳中路350号,,116.010225,39.490685
476f84c688ec85bef4eafc6a,黎明居民小区第22楼,河北省,保定市,涿州市,黎明胡同172号附近,,115.97431,39.480442
e0bb960b288dfd51d42ce296,矿山局家属楼-16号楼,河北省,保定市,涿州市,河北省保定市涿州市矿山局家属楼16号楼,,115.983972,39.488804
6c92eb5185904cc7471a329e,中铁建厂局家属楼-9号楼,河北省,保定市,涿州市,河北省保定市涿州市中铁建厂局家属楼9号楼,,115.997487,39.485567
d8b5e666547c1c8b9c09f7a2,联合小区6号院别墅5号楼,河北省,保定市,涿州市,涿州市联合小区6号院别墅5号楼,,115.983124,39.503082
9ac010e0067db29cb75f1ef0,矿山局家属楼-5号楼,河北省,保定市,涿州市,河北省保定市涿州市矿山局家属楼5号楼,,115.98259,39.488987
495532df24b8b366cc06a4de,国富嘉园-2号楼,河北省,保定市,涿州市,保定市涿州市平安北街123号,,116.027112,39.502696
d105ad2d365bfb6cc4f50d0c,豪霆酒店式公寓,河北省,保定市,涿州市,东兴南街14号附近,3938888,116.016762,39.489666
fe3213140a6e72dc5cd4fec7,同善园-1号楼,河北省,保定市,涿州市,保定市涿州市华阳中路207号,,116.020621,39.50284
296748bfd1d80363a2a9340f,公园郡,河北省,保定市,涿州市,河北省保定市涿州市永济西路（涿州中学向北1200米）,,115.993536,39.51594
21dbdbbd777914cf59f6beaa,东安小区-47号楼,河北省,保定市,涿州市,河北省保定市涿州市东安小区47号楼,,115.991031,39.496316
f00bc1f4e481cec83010afa8,铁道部建厂局家属楼-6号楼,河北省,保定市,涿州市,河北省保定市涿州市铁道部建厂局家属楼6号楼,,116.000387,39.485243
73feb1a8a1886c6ad3ff23c0,范阳小区-6号楼,河北省,保定市,涿州市,清凉寺街道范阳东路180号,,115.998319,39.488846
0a4fba74924cf4d3a9f7299b,六十七处家属楼-7号楼,,,,城南东路南100米,,115.981568,39.477902
de4229352598b339774ff1de,永安小区10号楼,,,,体育场街与文昌祠路交叉口东50米,,115.985448,39.493127
84c50b896ca8602d33621213,粮食局东关小区-2号楼,河北省,保定市,涿州市,河北省保定市涿州市粮食局东关小区2号楼,,115.985781,39.501579
ad5debd8083f46d1c1f1cff5,东安小区-48号楼,,,,河北省保定市涿州市东安小区48号楼,,115.991663,39.496241
e5c4d030d817e3d3bea24087,地质总局南院B栋,,,,地质总局南院B栋,,115.9747,39.489498
8d44b9f1a0869e529d9d68dd,中铁建厂局家属楼-11号,河北省,保定市,涿州市,保定市涿州市健康路1号,,115.997489,39.485937
a655467493438dabeee4a573,铁道部建厂局家属楼-2号楼,,,,健康路14号,,116.000104,39.484612
b2e55df9caa6afd0b21e3626,绿茵家园-2号楼,河北省,保定市,涿州市,河北省保定市涿州市绿茵家园2号楼,,115.998745,39.495058
cc201eae368a76f009b93aa0,铁道部建厂局家属楼-7号楼,,,,保定市涿州市健康路14号,,116.000379,39.485606
5c9ceee5a258fe196d20b9e2,六十七处家属楼-9号楼,,,,河北省保定市涿州市六十七处家属楼9号楼,,115.981871,39.476953
2c061f13b4ca25c605fef51d,永安小区-143号,河北省,保定市,涿州市,永安小区143号楼,,115.985691,39.494954
62f853108b07fbb928b97ced,矿山局家属楼-15号,河北省,保定市,涿州市,范阳西路122号,,115.983161,39.489172
78268459373458424d2fdf9b,地质总局南院-1号楼,河北省,保定市,涿州市,河北省保定市涿州市地质总局南院1号楼,,115.973007,39.489718
dfdee719fc9c74a1ddee8b10,天寿小区,河北省,保定市,涿州市,诚信路二号东兴新区附近,,116.020285,39.485386
2527be1e515dbfb34afc8d32,保定第二中心医院-住宅小区,河北省,保定市,涿州市,河北省保定市涿州市范阳路57号保定市第二中心医院,,116.001019,39.494626
db715c5b05ee74ffcf06a4da,三处家属院,,,,冠云西路104号附近,,115.981612,39.4826
719b08c1c867debe33621299,家百利家园,,,,城西大街西50米,,115.970695,39.492735
a3f21eee5806e1392fb17e5f,诚信大厦-员工公寓,河北省,保定市,涿州市,河北省保定市涿州市建设路235号附近,,116.019044,39.487886
7bfa08fc8d6cda7f25d2bb32,华铝小区南院,河北省,保定市,涿州市,南关街142号,,115.978029,39.482036
a2040f46ce7502b77369d3cd,公园壹号2幢,,,,河北省保定市涿州市壹号2幢,,116.027935,39.482687
3eaf14db8b23380e734b878b,列电厂家属院,河北省,保定市,涿州市,冠云中路65号,,115.994229,39.482378
df86e250b744a0490a5cb3ea,东安小区-134号,河北省,保定市,涿州市,保定市涿州市甲秀路39号,,115.98921,39.497305
d14af310b5b6544002897275,水木锦棠,,,,范阳西路旺角大厦3层扶梯正对面,,115.991014,39.490254
ee05da53b6e74e5ba7c756ec,公园壹号10幢,,,,河北省保定市涿州市壹号10幢,,116.028446,39.484761
d014bc1c699e9d85d8eced88,汇元财富广场小区,河北省,保定市,涿州市,第二中心医院对面建设路60号,,115.997943,39.488341
4903de2ad3c013bbe50738ea,联合小区四号院3号楼,河北省,保定市,涿州市,涿州市联合小区四号院3号楼,,115.996871,39.490362
e10e03162ad73d22f6c59c44,双塔中学住宅小区-南门,,,,天桥街与棉花营街交叉口东北150米,,115.980227,39.505016
6120867430e9641ba104645d,永安小区-139号,河北省,保定市,涿州市,永安小区139号楼,,115.987039,39.494052
fd1edd66703ac01c2fe67b29,永安小区-142号,河北省,保定市,涿州市,永安小区142号楼,,115.986972,39.494687
9fe6fefd73e183e6e4e965f5,槐林社区,河北省,保定市,涿州市,河北省保定市涿州市范阳中路155号,,116.011339,39.491578
1656200337478d0b60180945,联合小区四号院4号楼,河北省,保定市,涿州市,河北省保定市涿州市联合小区四号院4号楼,,115.997007,39.490028
591467f3443568903904b1bc,东安小区-135号,河北省,保定市,涿州市,保定市涿州市甲秀路39号,,115.988266,39.497579
fa628bd453b40ac9f82d6142,东安小区-131号,河北省,保定市,涿州市,保定市涿州市甲秀路39号,,115.988362,39.496989
8b6d578e47af7bf9cf06a44e,鹏渤・水岸花城G4幢,河北省,保定市,涿州市,河北省保定市涿州市鹏渤・水岸花城G4幢,,115.971474,39.521852
c66e6001d8785b22ca1b9519,联合小区四号院5号楼,河北省,保定市,涿州市,河北省保定市涿州市联合小区四号院5号楼,,115.995529,39.490358
7d13196daf4da9ee9cec2be2,华铝住宅楼210号,河北省,保定市,涿州市,仁和路与桃园路交叉口西南150米,,115.977725,39.485853
e51f096e637a6d93f50e77e0,华铝住宅楼304号,河北省,保定市,涿州市,南关街142号,,115.97762,39.482457
53dd9eafc3656b78132935d0,东安小区-132号,河北省,保定市,涿州市,东安小区132号楼,,115.989215,39.497027
716430b57c35432032f71dd0,桃园新村,河北省,保定市,涿州市,仁和路与桃园路交叉口西50米,,115.978248,39.486826
1332a410419287f3a204642c,华铝住宅楼107号,河北省,保定市,涿州市,仁和路与南关拐弯胡同交叉口西南50米,,115.977664,39.484028
cc216a2f00f363098c55ec32,槐林新村住宅小区-南门,,,,平安北街72号附近,,116.022051,39.494519
fd4201fbf0a5c7c55e0d02b5,双塔中学住宅小区-北门,,,,双塔路14号附近,,115.980065,39.506604
c286566cc07c79448e1a89b6,明城驾校・西坛,河北省,保定市,涿州市,河北省保定市涿州市桃园街道西后村范阳桥西路明城驾校,15933469233,115.966735,39.490827
6e47011e3972bc7cd2f49e3c,东安小区-45号楼,河北省,保定市,涿州市,涿州市东安小区45号楼,,115.990834,39.495771
9d719888864528c23786f446,新府阳光8号楼,河北省,保定市,涿州市,河北省保定市涿州市新府阳光8号楼,,116.00029,39.487961
50d83ef14e9a24f089b988d6,文昌祠社区-2号楼,,,,河北省保定市涿州市联合小区五号院(文昌祠路北),,115.983945,39.49341
1cfde2ef0d81608da11de9c0,华铝住宅楼307号,河北省,保定市,涿州市,河北省保定市涿州市气象胡同华北铝业南院生活小区,,115.978129,39.481924
8603c09ad50690b5a11de9c5,鹏渤・水岸花城G5幢,河北省,保定市,涿州市,河北省保定市涿州市鹏渤・水岸花城G5幢,,115.972834,39.52134
f89bf50a9f3b65cd5d0d020e,永安小区-13号,河北省,保定市,涿州市,永安小区13号楼,,115.986755,39.4937
624054683bd1cd2309b93a59,文昌祠社区-7号楼,,,,河北省保定市涿州市联合小区五号院(体育场街西),,115.984925,39.494426
85cf684091110acf38e4a63f,永安小区-141号,河北省,保定市,涿州市,永安小区141号楼,,115.985688,39.494634
e56933e94e2359add12dd665,黎明居民小区第18楼,河北省,保定市,涿州市,黎明胡同182号附近,,115.974248,39.479934
b45eb4ffce358122f6c59c4b,华铝住宅楼305号,河北省,保定市,涿州市,南关街142号,,115.978245,39.4822
f53d321224692dd4b6147f08,商贸城北楼,河北省,保定市,涿州市,保定市涿州市游福街6号,,115.976891,39.493062
ee2ab08e5b1aa12200ec0103,永安小区-159号,河北省,保定市,涿州市,永安小区159号楼,,115.986901,39.497032
2be8681edf4a572530169bd6,永安小区-161号,河北省,保定市,涿州市,保定市涿州市甲秀路38号,,115.986964,39.497373
7bd712c80dcb80928605bffe,永安小区-34号,河北省,保定市,涿州市,永安小区34号楼,,115.985344,39.498139
8ff02725a334daa12811d154,永安小区-149号,河北省,保定市,涿州市,永安小区149号楼,,115.98697,39.495733
f5fa1ec1cc8e9e7f9e82ea45,华铝住宅楼211号,河北省,保定市,涿州市,南关街136号,,115.977732,39.486145
4f5bf8fad48942ab79f7969d,保定第二中心医院住宅小区9号楼,,,,保定市涿州市保定第二中心医院住宅小区9号楼,,116.000494,39.494821
88dd2b3bf656086e72455bc2,永安小区-27号,河北省,保定市,涿州市,永安小区27号楼,,115.986627,39.497691
5e07e307d424074038e4a600,永安小区-25号,河北省,保定市,涿州市,永安小区25号楼,,115.986501,39.498346
e421497984f3cf63d8131886,永安小区-144号,河北省,保定市,涿州市,永安小区144号楼,,115.986959,39.49501
31054af171c24b630c0a70eb,新府-阳光9号楼,河北省,保定市,涿州市,河北省保定市涿州市新府阳光9号楼,,116.000269,39.487641
ac8c71489499a32161685870,永安小区-26号,河北省,保定市,涿州市,永安小区26号楼,,115.986496,39.497963
df9114fafdf9499efd0eb0d0,鹏渤・水岸花城G3幢,河北省,保定市,涿州市,河北省保定市涿州市鹏渤・水岸花城G3幢,,115.972694,39.521888
51fffb2a80362564744ff133,东安小区-138号,河北省,保定市,涿州市,保定市涿州市甲秀路39号,,115.989151,39.497844
2fda0b5b70bccfc54d776efe,东安小区-42号楼,河北省,保定市,涿州市,涿州市东安小区42号楼,,115.990021,39.49588
a9181ed0b7d85c3f32f71d1a,永安小区-153号,河北省,保定市,涿州市,保定市涿州市甲秀路38号,,115.985677,39.496301
f3b29db4d1926836c17da294,新村路,河北省,保定市,涿州市,新村路17号附近,,115.997786,39.492423
d8700e08f544396382a12e78,华铝住宅楼207号,河北省,保定市,涿州市,南关街136号,,115.97768,39.48497
b1ebb42b525fbd1ac6effbe9,永安小区-152号,河北省,保定市,涿州市,永安小区152号楼,,115.987455,39.496041
ff2bb809d7712f65f5b9160f,永安小区-154号,河北省,保定市,涿州市,保定市涿州市甲秀路38号,,115.987042,39.496361
c48ad7e6c9915577c61b7530,永安小区-160号,河北省,保定市,涿州市,永安小区160号楼,,115.985541,39.497158
3fe9480af88bbcd1a2046491,永安小区-35号,河北省,保定市,涿州市,永安小区35号楼,,115.98536,39.497867
e2d2084373d6acb238221c9f,东安小区-40号楼,河北省,保定市,涿州市,涿州市东安小区40号楼,,115.991559,39.495897
05855494df4c8117a21de962,东安小区-50号楼,河北省,保定市,涿州市,涿州市东安小区50号楼,,115.991707,39.496511
621c22c81dd1f9aa3904b16d,寿衣花园,,,,石牌楼北街与育才路交叉口南100米,,115.994047,39.500799
7e34051ced4d8be89900508e,华铝住宅楼205号,河北省,保定市,涿州市,桃园路南100米,,115.976918,39.486166
ea0fa140d5191db5ae31e5cb,华铝住宅楼306号,河北省,保定市,涿州市,仁和路与冠云西路交叉口东南100米,,115.978333,39.482469
90337099e651eddf3686f4a9,华铝住宅楼105号,河北省,保定市,涿州市,仁和路与冠云西路交叉口西北100米,,115.977641,39.483436
df77d87fd97e6c7eb8bd63d1,华铝住宅楼204号,河北省,保定市,涿州市,桃园路南150米,,115.976877,39.485885
50ef66a64d0434ac1ce9999c,新府阳光7号楼,河北省,保定市,涿州市,河北省保定市涿州市新府阳光7号楼,,116.000326,39.488322
09692000d3344d7b5810933d,鸿坤理想湾,河北省,保定市,涿州市,河北省保定市涿州市刁窝乡鸿坤・理想湾南区,,116.05259,39.469098
880d85f02ff6468303ec014a,联合・七号院,河北省,保定市,涿州市,河北省保定市涿州市华阳中路与京港澳告诉交汇处西南侧,,116.046177,39.503168
81d6a509bc63383e6e20b906,金竹花园,河北省,保定市,涿州市,天下第一州南口,(0312)3697777,116.040521,39.489217
5f6e26e8b33195699222e0d1,平安D区,河北省,保定市,涿州市,河北省保定市涿州市平安D区(京港澳高速公路西),,116.047691,39.499622
385c0af4e3b4a483f92213ad,名流美域翡翠城二季,河北省,保定市,涿州市,自强街5号,,116.046197,39.48975
53ae621b3589caa326e0a0cd,君临天下御景园,河北省,保定市,涿州市,河北省保定市涿州市范阳中路590号,,116.038134,39.489308
81958afeab2fee43100daa43,高铁新干线,,,,河北省保定市涿州市涿豆路(狮子城南区南侧850米),,116.050939,39.460188
a7c56ee0bd93d1b3a3acc42d,军欣家园,河北省,保定市,涿州市,知味坊街30号,,116.031449,39.497242
497c44eebe67f89a85420e83,中胶人才家园,河北省,保定市,涿州市,河北省保定市涿州市中胶人才家园(华阳东路南50米),,116.062985,39.505497
0523a1419ce82260b23c8140,平安小区-9号院,河北省,保定市,涿州市,保定市管理委员会朝阳路183号物探局,,116.039261,39.496936
81ead4c85a7045c8d1f49e5d,平安小区,河北省,保定市,涿州市,范阳中路309号,,116.039187,39.496984
161a0ed24c81b3535cd4fe0e,惠友康庭,河北省,保定市,涿州市,保定市涿州市亨通南街65号,,116.034358,39.486314
3810c879c7959d889c09f70e,广安B区,河北省,保定市,涿州市,涿州市朝阳路物探局,,116.045426,39.497023
51d3900849cea4eaa4c756c2,天保绿城,,,,河北省保定市涿州市冠云东路与腾飞大街交叉口,,116.059313,39.48008
5a3d43a230129bf5db131890,惠友荷园,河北省,保定市,涿州市,开发区玫瑰南街与范阳路交叉口南150米路西(大吴村附近),,116.032231,39.488672
b9c324bd17295d51fa42b2e8,宏远裕隆,河北省,保定市,涿州市,保定市涿州市范阳中路313号,,116.043012,39.491981
550fd5f98cbd7079931fc92d,玫瑰嘉园,河北省,保定市,涿州市,亨通北街31号,,116.034774,39.492722
d5f93c0e0876b95ceddfca2d,玫瑰假日,河北省,保定市,涿州市,保定市涿州市亨通南街60号,,116.031208,39.485544
12c2c7d7061e20f0adcb660e,平安小区-6号院,河北省,保定市,涿州市,开发区管理委员会范阳路,,116.039114,39.493785
df58fe358509a7015bf6be92,物探十号院,,,,河北省保定市涿州市火炬街附近,,116.043463,39.497218
39b08d254b0450578b2fb562,鸿坤・理想湾北区,河北省,保定市,涿州市,河北省保定市涿州市刁窝乡润禾街鸿坤・理想湾北区,,116.053994,39.471598
c9ea39c1e8244fd417c8f61a,惠友万悦城,河北省,保定市,涿州市,涿州玫瑰大街与诚信路交叉口东100米路南,,116.033595,39.484242
22a1d8c118b04fd540e192f6,阳光社区,河北省,保定市,涿州市,保定市涿州市华阳中路,,116.032235,39.502686
8fde79cc7f0bd8c294ca07a2,广安C区,河北省,保定市,涿州市,开发区管理委员会朝阳东路广安C区,,116.046437,39.494265
0d0d01191d081d0d471a327c,GAV高尔夫会员别墅,河北省,保定市,涿州市,"河北省保定市涿州市北京周边南郊涿州京都旅游大道2号,东京...",,116.115537,39.545021
11c0b2b012b8df49cac3db50,新府百合,河北省,保定市,涿州市,开发区管理委员会亨通北街3号,,116.034684,39.491572
754a583c87a654d74c3a59df,联合七号院二期,河北省,保定市,涿州市,华阳东路与华阳中路交叉口东南100米,,116.046171,39.503197
802abebb20677ffc220262d8,印象城・牛津花园,,,,火炬北街与范阳中路交叉口东150米,,116.042787,39.491433
0e930e932416a693f8dc851f,鸿坤理想湾-3号楼,河北省,保定市,涿州市,涿州市鸿坤理想湾,,116.054267,39.469039
d9b4fad6b2891355ede4a521,华阳凤凰城,河北省,保定市,涿州市,涿州市腾飞大街与华阳东路交汇处,,116.065662,39.510622
52984256c943555f40ab9a1f,向阳之光,河北省,保定市,涿州市,向阳商业街88号附近,,116.059603,39.549092
de95974feb97fbef6f3e1b72,鸿坤理想湾-2号楼,河北省,保定市,涿州市,涿州市鸿坤理想湾,,116.054596,39.469618
ab288da17610afa043afe630,和顺家园,,,,河北省保定市涿州市豆庄乡润禾街和顺家园,,116.048951,39.465747
4f957e9bd64db4e929fc4809,翡翠城第二季第二期,,,,河北省保定市涿州市范阳东路南侧(京石高速涿州出口30米路南),,116.046046,39.4905
1b88b65babfa9892901fc928,平安小区8号院,,,,河北省保定市涿州市火炬北街11号,,116.042273,39.492632
da86b0991c8e4cfe4054d74b,澜溪庄园,,,,京石高速CCTV涿州影视城对面,,116.130421,39.552318
66909caa00888b2297031939,GAV高尔夫会员别墅-二期,河北省,保定市,涿州市,东京都高尔夫俱乐部附近,,116.115176,39.544667
5756b33832b26d8fe115f999,联合七号院一期,河北省,保定市,涿州市,华阳东路与华阳中路交叉口西南150米,,116.044807,39.503662
c6c63b226a90b91179dbd25f,金海月苑,河北省,保定市,涿州市,康庄路与自强街交叉口西100米,,116.043899,39.482735
abe91366e2080809d5b74e0f,涿州开发区朝阳社区,河北省,保定市,涿州市,亨通大街与朝阳路交叉口西南100米,,116.033733,39.495102
81227eeefd8d5fd71fe99911,广安,河北省,保定市,涿州市,朝阳路,,116.046494,39.494274
0176f125e7cdaa502811d1c6,玫瑰嘉园-3号楼,,,,保定市涿州市亨通北街31号,,116.034961,39.492582
672f7b8df04c802e79dbd2c1,鑫昊汇元鸭业养殖小区,河北省,保定市,涿州市,河北省保定市涿州市义和庄镇柳南路南,,116.15834,39.520845
eb9b5daed56b1b39f603b820,新怡佳园小区4号楼,河北省,保定市,涿州市,保定市涿州市新怡佳园小区4号楼,,116.031563,39.502489
65517975a8fc0fcd8f1a8984,青岛啤酒花园,,,,朝阳路167号朝阳市场院内,,116.035945,39.495978
ee4b2db9b5d436f0cd04ef4c,军欣家园11号楼,河北省,保定市,涿州市,河北省保定市涿州市军欣家园11号楼,,116.030995,39.497646
36750b74e9f04785acee7a4c,军欣家园-15号,河北省,保定市,涿州市,军欣家园15号楼,,116.031,39.498254
30311670f042a8434c3a592c,军欣家园13号楼,河北省,保定市,涿州市,河北省保定市涿州市军欣家园13号楼,,116.03102,39.497953
9cbbe6e7282ff74fc056acb9,军欣家园17号楼,河北省,保定市,涿州市,保定市涿州市泽鸣大街30号,,116.030989,39.498568
da0ff2f1b0d21cd2fb2d6126,慢城・26岛,河北省,保定市,涿州市,影视城路北侧中央电视台影视城基地对面,,116.130433,39.551567
65fda5df758cbe861d580000,众美城,北京市,北京市,大兴区,北京市大兴区隆丰大街1号院,,116.329255,39.638079
8059931b2754f6329de321e8,御园(A区),北京市,北京市,大兴区,北京市大兴区幸福路8号,,116.326557,39.637933
9987ca5c0dc4d55083a00c5c,富力华庭苑,,,,北京市大兴区团结路19号,,116.31674,39.637563
297e88983db73d37d72ce289,国基创新园,北京市,北京市,大兴区,北京市大兴区庞各庄镇河南村瓜乡路国基・创新园,,116.317199,39.626167
350409b22948e42aabf0cd8b,龙熙顺景,北京市,北京市,大兴区,庞各庄瓜乡路100号,,116.319749,39.627033
ef5fbef7b6e5ad1de01103fd,龙景湾乙区,,,,北京市大兴区庞各庄镇瓜香桥富力丹麦小镇,,116.322502,39.632502
ba6a431150a0e28fad31e55f,御园(E区),北京市,北京市,大兴区,北京市大兴区庞各庄桥向南100米红绿灯向西200米,,116.329428,39.632252
5bbe4bc32684298db426557e,沿海丽水佳园-F49号楼,北京市,北京市,大兴区,北京市大兴区丽水佳园(薛北路北70米),,116.339447,39.61316
befdb2921a0315e287154134,天堂河,北京市,北京市,大兴区,廊坊市广阳区,,116.325575,39.577996
6a50575d0e85697dcbe33c6e,御园(D区),北京市,北京市,大兴区,北京市大兴区民生路1号院,,116.329414,39.633523
71d7d6b40665f3dd9868b471,团结路21号院3号楼,北京市,北京市,大兴区,团结路21号院3号楼,,116.316412,39.637593
7155668a586de9419868b444,榆顺路2号院2号楼,北京市,北京市,大兴区,北京市大兴区榆顺路2号院2号楼(榆昌路北),,116.328028,39.508859
5afaadda6e932aa8e856fa9b,富力童话时光A3栋,,,,北京市大兴区幸福路,,116.31881,39.637961
8e609e6f52197d9116c9059e,椿蓉园三里-乙37号楼,北京市,北京市,大兴区,椿蓉园三里乙37号楼,,116.325083,39.517013
536641b5a735a4f1d7851f03,龙景湾乙81号楼,北京市,北京市,大兴区,北京市大兴区庞各庄镇瓜乡路富力・丹麦小镇小区,,116.32427,39.62789
c6b0c57c44715f013617dc0e,富力童话时光A16栋,,,,北京市大兴区幸福路,,116.320137,39.637747
d9f49448bcb393aeb5147f08,隆盛西园-5号楼,北京市,北京市,大兴区,北京市大兴区隆盛园小区(西区),,116.327431,39.627671
6f1c3809e3edd0e7c7f025ba,枫荷园-2号楼,北京市,北京市,大兴区,枫荷园2号楼,,116.322298,39.518866
4fcd245ce7d9a9cbc7f50dd6,椿蓉园-三里乙21号楼,北京市,北京市,大兴区,北京市大兴区榆垡镇榆垡路椿蓉园南50米,,116.326589,39.516662
2fa789522be24e27c336449b,龙景湾五区13号楼,北京市,北京市,大兴区,龙景湾五区13,,116.319937,39.633948
cdef4edfbe562a4e28d7abf8,榆垡小城镇,北京市,北京市,大兴区,北京市大兴区榆垡镇榆垡法庭北500米路东,,116.324697,39.523294
7d1a5070d15e4664db131800,沿海丽水佳园-D01号楼,北京市,北京市,大兴区,北京市大兴区丽水佳园(薛北路北260米),,116.338178,39.614439
657173ecf62b607da80dd835,枫荷园-3号楼,北京市,北京市,大兴区,枫荷园3号楼,,116.322273,39.518484
7fb7db31cef0ffcb2cb908f3,椿蓉园-29号楼,北京市,北京市,大兴区,椿蓉园29号楼,,116.327232,39.516902
48c0f161ce986793f8dc85b8,龙景湾二区1号楼,北京市,北京市,大兴区,北京市大兴区,,116.318073,39.632274
fd575ec6b697bbbbe9f853ea,富力童话时光A8栋,,,,北京市大兴区团结路21号院,,116.318001,39.637154
5a0b3662c9bb0db1b33c8136,富力飞常,北京市,北京市,大兴区,北京市大兴区庞各庄镇民生路富力・丹麦小镇小区,,116.318746,39.632882
dfdfc5b6f5ba2cbafb0cad06,龙景湾乙35号楼,北京市,北京市,大兴区,北京市大兴区庞各庄镇民生路富力・丹麦小镇小区,,116.322943,39.631084
c706a1ec9725957e6c4760fa,龙熙顺景公寓,,,,庞各庄瓜乡路100号,,116.313744,39.632614
3930c94cbbf54de58bf15da6,隆盛西园10号楼,北京市,北京市,大兴区,北京市大兴区隆盛园小区(西区),,116.325789,39.628657
97dd6adb39cca1ceebe582da,富力童话时光-A12栋,,,,北京市大兴区幸福路,,116.321266,39.638283
fe3b4d3fb0b7cbac09b93a74,龙景湾甲33号楼,北京市,北京市,大兴区,北京市大兴区庞各庄镇瓜乡路富力・丹麦小镇小区,,116.313911,39.627733
7394477cd2c3380ef7e73b17,龙景湾-乙43号楼,北京市,北京市,大兴区,北京市大兴区龙景湾(乙区),,116.323399,39.630629
2acb81a9dcf9d0eab35c6a16,龙景湾甲-6号楼,北京市,北京市,大兴区,北京市大兴区庞各庄镇瓜乡路富力・丹麦小镇小区,,116.318064,39.627201
f07d3040779b75904207c117,富力童话时光A15栋,,,,北京市大兴区幸福路,,116.32252,39.638329
6cb18c030826c5f38afc060b,民生路2号院2号楼,北京市,北京市,大兴区,北京市大兴区御园e区,,116.328813,39.632171
97de6e5d35623abcb8bd6348,隆盛西园-6号楼,北京市,北京市,大兴区,北京市大兴区隆盛园小区(西区),,116.326026,39.627683
6017ee77e3f17647b24c4996,龙景湾1区,北京市,北京市,大兴区,富力・丹麦小镇B区(隆兴大街东),,116.320416,39.629872
2d249db1932fc468a8175a01,绿茵花园别墅冬青区18号楼,北京市,北京市,大兴区,北京市大兴区,,116.428697,39.61521
fc3180b1cb485964343a71fa,沿海丽水佳园-D02号楼,北京市,北京市,大兴区,北京市大兴区丽水佳园(薛北路北280米),,116.338399,39.614442
691568a4e3ecf7a688fc06c4,富力童话时光A11栋,,,,北京市大兴区幸福路,,116.320138,39.638308
71acd5a117a39172b75f1ecb,隆盛东园-6号楼,北京市,北京市,大兴区,北京市大兴区隆盛园小区(东区),,116.329147,39.62917
8349b629f2a113be157643f0,龙景湾-乙10号楼,北京市,北京市,大兴区,北京市大兴区庞各庄镇团结路富力・丹麦小镇小区,,116.323298,39.632197
9aad1d6de0ad044686420e42,沿海丽水佳园海星园86号楼,,,,北京市大兴区丽水佳园(薛北路北120米),,116.339989,39.613575
d11dc1e2a87a10c6ae0457c1,众美城-1号楼,北京市,北京市,大兴区,北京市大兴区隆丰大街1号院,,116.329809,39.638839
ff15f3944917f9502e473330,众美城-3号楼,北京市,北京市,大兴区,北京市大兴区隆丰大街1号院,,116.329807,39.637809
9d59de4c8308178bfd0eb0b4,众美城-2号楼,北京市,北京市,大兴区,北京市大兴区隆丰大街1号院,,116.329729,39.638367
aea830fc945f2d3bd12dd655,隆盛东园-3号楼,北京市,北京市,大兴区,北京市大兴区庞各庄镇瓜乡路隆盛园小区(东区),,116.329809,39.628384
d9e8b2dfbed1648feb56fa7f,沿海丽水佳园-F31号楼,北京市,北京市,大兴区,北京市大兴区丽水佳园(薛北路北100米),,116.340636,39.613186
3eba3b95687fcf6de9f8538a,椿蓉园三里-9号楼,北京市,北京市,大兴区,椿蓉园三里9号楼,,116.323712,39.5188
2a6b43239fed551c734b878b,龙景湾乙55号楼,北京市,北京市,大兴区,北京市大兴区庞各庄镇民生路富力・丹麦小镇小区,,116.324289,39.629842
8a0b79d682fc8652da2f285a,龙景湾-甲23号楼,北京市,北京市,大兴区,北京市大兴区,,116.316026,39.627726
f7ccdde34cc1b21dbca82253,沿海丽水佳园-F25号楼,北京市,北京市,大兴区,北京市大兴区丽水佳园(薛北路北),,116.340107,39.612843
dcf62f0e866a796dee74f868,沿海丽水佳园-D51号楼,北京市,北京市,大兴区,北京市大兴区丽水佳园(大广高速公路东450米),,116.338782,39.616345
cc70a3f57e78de12c0364403,富力童话时光-A2栋,,,,北京市大兴区幸福路,,116.317741,39.638013
b9c1b926ba3c3f6c7369d30a,龙景湾-乙137号楼,北京市,北京市,大兴区,北京市大兴区庞各庄镇河南村瓜乡路龙景湾乙区,,116.321062,39.627169
5816f1ba24c049ea3e9a5e0e,龙景湾-甲7号楼,北京市,北京市,大兴区,北京市大兴区庞各庄镇瓜乡路富力・丹麦小镇小区,,116.318545,39.627094
cac8e1f7e9f50a5e373a71c3,沿海丽水佳园-A38号楼,北京市,北京市,大兴区,北京市大兴区丽水佳园(京开东500米),,116.339374,39.617047
357f802c7d39f95f1fe9992a,隆盛西园-11号楼,北京市,北京市,大兴区,北京市大兴区瓜乡路,,116.326085,39.629107
b5059e916d73ab6e42e192a9,沿海丽水佳园海星园106号楼,,,,北京市大兴区庞各庄镇西义堂村薛北路丽水佳园,,116.339799,39.613536
00beadd384072fd7cf06a49f,富力童话时光A6栋,,,,北京市大兴区幸福路,,116.317391,39.637565
077290ecde1168e548fc8d72,隆盛东园-7号楼,北京市,北京市,大兴区,北京市大兴区隆盛园小区(东区),,116.329165,39.628955
655eb772c848b589f4b9162d,隆盛东园-5号楼,北京市,北京市,大兴区,北京市大兴区瓜乡路,,116.329873,39.629139
cbdae508b59d58fbe115f9fb,众美城-9号楼,北京市,北京市,大兴区,北京市大兴区隆丰大街1号院,,116.328624,39.637276
bec7a5aa19129c52f7eafc05,富力童话时光A7栋,,,,北京市大兴区幸福路,,116.318752,39.637475
c35ebda1e189fbba5bbbbc9d,众美城-8号楼,,,,北京市大兴区隆盛大街与团结路交叉口东北处众美城,,116.32883,39.637828
3503e8861ed545bdb64f5440,龙景湾乙77号楼,北京市,北京市,大兴区,北京市大兴区庞各庄镇瓜乡路富力・丹麦小镇小区,,116.322213,39.62796
f04522e38a6ffdb59e82eab5,绿茵花园别墅花香区2号楼,北京市,北京市,大兴区,北京市大兴区绿茵花园别墅西区(张佟路西),,116.429519,39.615026
9f560f34e2b617596140a95b,隆盛西园-4号楼,北京市,北京市,大兴区,北京市大兴区隆盛园小区(西区),,116.327729,39.628064
b570731d9da2945233870a0c,赵村社区,北京市,北京市,大兴区,北京市大兴区东赵路,,116.253525,39.597771
3989faf7b862b904b64f54c7,众美城-5号楼,北京市,北京市,大兴区,北京市大兴区隆盛大街与团结路交叉口东北处众美城,,116.329867,39.637285
99e94c6ecc91b1e4df1e5286,北京黄埔大学大学生公寓3号楼,北京市,北京市,大兴区,北京市大兴区榆垡镇榆祥路北京黄埔大学南校区,,116.31941,39.523246
86e88afc207961ceafee7af8,龙景湾-乙87号楼,北京市,北京市,大兴区,北京市大兴区庞各庄镇瓜乡路富力・丹麦小镇小区,,116.321828,39.627974
85a7412181d4c61dca1b9563,隆盛东园-2号楼,北京市,北京市,大兴区,北京市大兴区隆盛园小区(东区),,116.329815,39.628006
d1ad0f1fd92f74a483a00cc6,隆盛西园-9号楼,北京市,北京市,大兴区,北京市大兴区隆盛园小区(西区),,116.326345,39.628443
67f6952e9eff8a233b13fd90,龙景湾四区-63号楼,,,,北京市大兴区团结路,,116.315414,39.634793
90def95d307d6c016140a9db,绿茵花园别墅秋月区33A号楼,北京市,北京市,大兴区,北京市大兴区魏善庄镇张家场村张佟路绿茵花园别墅,,116.428932,39.616661
19421d1f5f7bb4f6725e8057,沿海丽水佳园-E12号楼,北京市,北京市,大兴区,北京市大兴区丽水佳园(薛北路北160米),,116.33921,39.613956
7b66864086fdd7ded5b74ee4,沿海丽水佳园-F41号楼,北京市,北京市,大兴区,北京市大兴区丽水佳园(薛北路北100米),,116.339098,39.61331
61f7ce2f07035555ab175abe,沿海丽水佳园-C09号楼,北京市,北京市,大兴区,北京市大兴区,,116.337915,39.614741
a79363e8f306bea081288a1b,沿海丽水佳园-D50号楼,北京市,北京市,大兴区,北京市大兴区,,116.3389,39.616141
d9ef116c59f9f4ffa6da3926,沿海丽水佳园-C06号楼,北京市,北京市,大兴区,北京市大兴区,,116.337384,39.614397
72a90a1086fdd6f1fb2d6116,绿茵花园别墅秋月区53号楼,北京市,北京市,大兴区,北京市大兴区,,116.430038,39.615968
d6af577624edfc7b90114c2c,沿海丽水佳园-C03号楼,北京市,北京市,大兴区,北京市大兴区丽水佳园(薛北路北180米),,116.337339,39.614024
24bb9c51a79894a614c8f681,沿海丽水佳园-E21号楼,北京市,北京市,大兴区,北京市大兴区丽水佳园(薛北路北270米),,116.340276,39.614952
9b9a25d2421dfb2aa8059d20,龙景湾-乙48号楼,北京市,北京市,大兴区,北京市大兴区,,116.323414,39.63035
8e0350d828644f3bf90cadea,沿海丽水佳园-C41号楼,北京市,北京市,大兴区,北京市大兴区丽水佳园(大广高速公路东380米),,116.337964,39.616086
54c05114e00bfb20343a7145,沿海丽水佳园B16号楼,北京市,北京市,大兴区,北京市大兴区丽水佳园(西义堂中路北320米),,116.343129,39.617684
616a21f9e93e3c7da5da391b,沿海丽水佳园-D23号楼,北京市,北京市,大兴区,北京市大兴区,,116.340023,39.615443
fe85dbd1d50b82b3d8eced7c,龙景湾-甲37号楼,北京市,北京市,大兴区,北京市大兴区庞各庄镇隆平大街富力・丹麦小镇小区,,116.313183,39.627742
d8f876e50aed5525c62ba158,龙景湾甲-4号楼,北京市,北京市,大兴区,北京市大兴区,,116.31666,39.627145
4700486e72ddaa650a69d980,沿海丽水佳园-D10号楼,北京市,北京市,大兴区,北京市大兴区丽水佳园(薛北路北290米),,116.339765,39.615135
5ff7aeca858ef102e215f909,沿海丽水佳园A21号楼,北京市,北京市,大兴区,北京市大兴区丽水佳园,,116.340095,39.617286
0f55f86dc938540276e5b60a,沿海丽水佳园B11号楼,北京市,北京市,大兴区,北京市大兴区丽水佳园(西义堂中路西370米),,116.34232,39.61763
8dfa772363ca868e80a00cce,龙景湾-乙50号楼,北京市,北京市,大兴区,北京市大兴区庞各庄镇瓜乡路富力・丹麦小镇小区,,116.322493,39.630335
2288efb071c24ccd0bccdd5d,龙景湾-甲5号楼,北京市,北京市,大兴区,北京市大兴区庞各庄镇瓜乡路富力・丹麦小镇小区,,116.317338,39.627248
17a58c843e1b0ad6c51e511e,沿海丽水佳园-F21号楼,北京市,北京市,大兴区,北京市大兴区庞各庄镇西义堂村薛北路丽水佳园,,116.339705,39.61286
cac30904bdd1a309a5da394d,龙景湾乙-9号楼,北京市,北京市,大兴区,北京市大兴区龙景湾(乙区),,116.323829,39.632228
f5dc746045c9b1cc220262a0,龙景湾乙135号楼,北京市,北京市,大兴区,北京市大兴区庞各庄镇河南村瓜乡路龙景湾乙区,,116.320322,39.62719
017f0f8085d5e6e340e19275,龙景湾-甲2号楼,北京市,北京市,大兴区,北京市大兴区庞各庄镇瓜乡路富力・丹麦小镇小区,,116.315657,39.627167
d573313cdcbe5bedf942b2f7,绿茵花园别墅四季区48号楼,北京市,北京市,大兴区,北京市大兴区魏善庄镇张家场村张佟路绿茵花园别墅,,116.430636,39.615073
4ddaa0005f31c17c03897200,龙景湾-甲21号楼,北京市,北京市,大兴区,北京市大兴区庞各庄镇瓜乡路富力・丹麦小镇小区,,116.316584,39.627714
a2dbe77c301b6744d8131829,富力童话时光A10栋,,,,北京市大兴区幸福路,,116.318186,39.636617
1b08e783daa63ba454bfff17,富力童话时光-B8栋,,,,北京市大兴区幸福路,,116.319943,39.637435
f0586df6dd1193e7f942b20d,隆盛东园-4号楼,北京市,北京市,大兴区,北京市大兴区瓜乡路,,116.329864,39.628769
385ae64a8528171c04fef56f,绿茵花园别墅桃园31号楼,北京市,北京市,大兴区,北京市大兴区魏善庄镇张家场村张佟路绿茵花园别墅,,116.429779,39.61661
260076c2cfa1f0b64251c016,沿海丽水佳园A22号楼,北京市,北京市,大兴区,北京市大兴区庞各庄镇丽水佳园,,116.3399,39.61725
b8455e3dc2aa7f7546e27426,沿海丽水佳园圆月园117号楼,,,,北京市大兴区,,116.343581,39.615704
3b178809140237edd618b7fe,沿海丽水佳园A12号楼,北京市,北京市,大兴区,北京市大兴区庞各庄镇丽水佳园,,116.339541,39.617575
41082a0e65deb501d23ce3f4,龙景湾-乙65甲号楼,北京市,北京市,大兴区,北京市大兴区庞各庄镇隆源大街富力・丹麦小镇小区,,116.323901,39.628593
485bae30399a59128bf15dd5,新桥东街小区,北京市,北京市,大兴区,北京市大兴区头沟电影院后面,,116.330245,39.544424
ae37fbbee201be7528201a89,隆盛西园-8号楼,北京市,北京市,大兴区,北京市大兴区瓜乡路,,116.32696,39.628679
d0fdc24b38833fd6a0acc43d,椿蓉园-三里乙16号楼,北京市,北京市,大兴区,椿蓉园三里乙16号楼,,116.325826,39.516435
f81867371eaaccffcafa5f4a,椿蓉园-三里乙23号楼,北京市,北京市,大兴区,椿蓉园三里乙23号楼,,116.326802,39.516614
769cda5e479988303310af7b,椿蓉园-三里乙2号楼,北京市,北京市,大兴区,椿蓉园三里乙2号楼,,116.324212,39.517108
e50f93b5d6420b3e46e274cc,龙景湾-乙47号楼,北京市,北京市,大兴区,北京市大兴区庞各庄镇民生路富力・丹麦小镇小区,,116.323834,39.630327
6f408939360c7891c929152f,椿蓉园-三里乙6号楼,北京市,北京市,大兴区,椿蓉园三里乙6号楼,,116.324952,39.516771
eb66fd989ddced5f223bf284,龙景湾-甲3号楼,北京市,北京市,大兴区,北京市大兴区庞各庄镇瓜乡路富力・丹麦小镇小区,,116.316111,39.627151
9b2a6737fb3675e475e5b684,富力童话时光C6栋,,,,北京市大兴区幸福路,,116.323527,39.638514
a9bb621fe0986ee1cafa5f36,富力童话时光A1栋,,,,北京市大兴区幸福路,,116.316635,39.638067
0b31b86ef51bf8b515764399,圆月园103号楼,,,,北京市大兴区丽水佳园(西义堂中路西220米),,116.343167,39.615358
6fafd9bcb42912589f09f741,沿海丽水佳园A29号楼,北京市,北京市,大兴区,北京市大兴区庞各庄镇大广高速公路丽水佳园,,116.338111,39.617272
d91df0a122cf3e94fa0cadf1,龙景湾-甲39号楼,北京市,北京市,大兴区,北京市大兴区龙景湾甲区(隆平大街东60米),,116.312866,39.628239
b9826400a9dc52d68a36ee64,椿蓉园-三里乙4号楼,北京市,北京市,大兴区,北京市大兴区今荣街,,116.324496,39.517054
96eed11965305787d92f28b9,沿海丽水佳园-C53号楼,北京市,北京市,大兴区,北京市大兴区庞各庄镇西义堂村薛北路丽水佳园,,116.337599,39.616627
a26fee89312b173cb6147fca,沿海丽水佳园-E23号楼,北京市,北京市,大兴区,北京市大兴区,,116.340702,39.614698
2d6af267c1697a70c6effb29,沿海丽水佳园A01号楼,北京市,北京市,大兴区,北京市大兴区丽水佳园(大广高速公路东350米),,116.337423,39.617019
3a502b66fba40bdc97031973,绿茵花园别墅花香区3号楼,北京市,北京市,大兴区,北京市大兴区魏善庄镇张家场村张佟路绿茵花园别墅,,116.429825,39.615001
17bd515df46853fb79b55cbe,沿海丽水佳园-F11号楼,北京市,北京市,大兴区,北京市大兴区,,116.338305,39.612876
c260a2178c8d904d46572632,富力童话时光B16栋,,,,北京市大兴区幸福路,,116.323559,39.637691
095d961a250549c7d23ce3d7,北京黄埔大学大学生公寓2号楼,北京市,北京市,大兴区,北京市大兴区榆垡镇榆祥路北京黄埔大学南校区,,116.319914,39.523228
d253f4bd2ace2cce9fec2b4d,沿海丽水佳园A33号楼,北京市,北京市,大兴区,北京市大兴区庞各庄镇大广高速公路丽水佳园,,116.338257,39.617248
4e17c74f067e0ff2fb2d6138,龙景湾乙57号楼,北京市,北京市,大兴区,北京市大兴区庞各庄镇民生路富力・丹麦小镇小区,,116.323909,39.629203
cbe54d19196ae7439b68b4aa,沿海丽水佳园B27号楼,北京市,北京市,大兴区,北京市大兴区丽水佳园(西义堂中路西310米),,116.342577,39.616802
f2f6cbfae85c3bad9f09f73c,绿茵花园别墅冬青区1号楼,北京市,北京市,大兴区,北京市大兴区魏善庄镇张家场村张佟路绿茵花园别墅,,116.430064,39.615703
6b080ea35cba8780471a323f,绿茵花园别墅冬青区9号楼,北京市,北京市,大兴区,北京市大兴区魏善庄镇张家场村张佟路绿茵花园别墅,,116.429811,39.615501
39c15dd103b93caedbd8911a,绿茵花园别墅冬青区17号楼,北京市,北京市,大兴区,北京市大兴区,,116.430123,39.615256
21347729f0821ec040ab9a48,绿茵花园别墅花香区5号楼,北京市,北京市,大兴区,北京市大兴区魏善庄镇张家场村张佟路绿茵花园别墅,,116.429216,39.614672
b2be1564d55a43a38c1a8971,绿茵花园别墅秋月区8号楼,北京市,北京市,大兴区,北京市大兴区魏善庄镇张家场村张佟路绿茵花园别墅,,116.428695,39.617401
7ae4b32cdfdab33a8f55ec05,绿茵花园别墅冬青区22号楼,北京市,北京市,大兴区,北京市大兴区绿茵花园别墅西区(张佟路西),,116.428682,39.614714
241558579bc3154ceee4a5ad,绿茵花园别墅冬青区3号楼,北京市,北京市,大兴区,北京市大兴区魏善庄镇张家场村张佟路绿茵花园别墅,,116.429525,39.615712
e43075829415a485220220c2,绿茵花园别墅秋月区48号楼,北京市,北京市,大兴区,北京市大兴区,,116.428648,39.615934
e4ecfa977760ba7614c8f603,绿茵花园别墅夏荫区18号楼,北京市,北京市,大兴区,北京市大兴区,,116.43061,39.616153
8641fd4a7f8b49931d580065,绿茵花园别墅冬青区21号楼,北京市,北京市,大兴区,北京市大兴区,,116.42903,39.614952
b36efe9ae70ce272465726fb,绿茵花园别墅秋月区52号楼,北京市,北京市,大兴区,北京市大兴区,,116.429752,39.615973
a4c49d1999f8bcdc59bbbc6f,绿茵花园别墅夏荫区36号楼,北京市,北京市,大兴区,北京市大兴区魏善庄镇张家场村张佟路绿茵花园别墅,,116.428722,39.616391
70728c23904e7cf2eee4a54d,绿茵花园别墅秋月区50号楼,北京市,北京市,大兴区,北京市大兴区,,116.429164,39.615971
f32f4977f586e1668e7727c8,绿茵花园别墅冬青区6号楼,北京市,北京市,大兴区,北京市大兴区,,116.428716,39.615668
6b8ee4dff6ca2660aecb665e,绿茵花园别墅春风区30号楼,北京市,北京市,大兴区,北京市大兴区魏善庄镇张家场村张佟路绿茵花园别墅,,116.429925,39.616549
73e6e07d2dc4a0b6f60e775c,绿茵花园别墅秋月区32号楼,北京市,北京市,大兴区,北京市大兴区,,116.42953,39.616584
4c0a85a896a77e621c389485,绿茵花园别墅冬青区5号楼,北京市,北京市,大兴区,北京市大兴区魏善庄镇张家场村张佟路绿茵花园别墅,,116.429031,39.615687
69af5291f42c190f00ec01b3,沿海丽水佳园-D11号楼,北京市,北京市,大兴区,北京市大兴区,,116.339201,39.615093
9416b3db9c8479aa9cec2bc0,沿海丽水佳园-D64号楼,北京市,北京市,大兴区,北京市大兴区,,116.340233,39.616658
34c08def2013764033621285,沿海丽水佳园A11号楼,北京市,北京市,大兴区,北京市大兴区庞各庄镇西义堂村京开路丽水佳园,,116.339283,39.617552
e9a64870f26be138b13c816d,沿海丽水佳园-F19号楼,北京市,北京市,大兴区,北京市大兴区丽水佳园(薛北路北),,116.339427,39.61286
1ba8265ba4033592c7f025f0,龙景湾-乙16号楼,北京市,北京市,大兴区,北京市大兴区,,116.323828,39.632076
98b3d245648509ccf02d835a,沿海丽水佳园-F43号楼,北京市,北京市,大兴区,北京市大兴区丽水佳园(薛北路北90米),,116.338765,39.613333
25c359bbe140329680a00cfc,沿海丽水佳园-F08号楼,北京市,北京市,大兴区,北京市大兴区,,116.337953,39.613311
0effb2041310b954240bd009,沿海丽水佳园-A39号楼,北京市,北京市,大兴区,北京市大兴区庞各庄镇西义堂村薛北路丽水佳园,,116.341163,39.615401
ab3c18b5d4039f4f1776433c,沿海丽水佳园A06号楼,北京市,北京市,大兴区,北京市大兴区,,116.337928,39.617583
6d512127a325af6e3c9a5ebf,沿海丽水佳园A32号楼,北京市,北京市,大兴区,北京市大兴区庞各庄镇西义堂村京开路丽水佳园,,116.337879,39.617042
20d0c07c1720d404d52ce256,沿海丽水佳园-C20号楼,北京市,北京市,大兴区,北京市大兴区,,116.338291,39.615293
7350aa92c1d85033047ce808,沿海丽水佳园-C58号楼,北京市,北京市,大兴区,北京市大兴区庞各庄镇大广高速公路丽水佳园,,116.338666,39.616701
bb51178f283c0960ca1b95fd,沿海丽水佳园-C07号楼,北京市,北京市,大兴区,北京市大兴区,,116.337603,39.614419
b06731c06a8d8d6edf1e52c0,沿海丽水佳园-E20号楼,北京市,北京市,大兴区,北京市大兴区庞各庄镇薛北路丽水佳园,,116.340213,39.614701
abd5acebf0960d6e593ac860,沿海丽水佳园B02号楼,北京市,北京市,大兴区,北京市大兴区,,116.34153,39.616853
8998ae51c3896a2d14948ea4,龙景湾-乙8号楼,北京市,北京市,大兴区,北京市大兴区庞各庄镇民生路富力・丹麦小镇小区,,116.324081,39.632234
86e59bbceea412d741e19269,龙景湾-乙85甲号楼,北京市,北京市,大兴区,北京市大兴区庞各庄镇瓜乡路富力・丹麦小镇小区,,116.323276,39.627482
c0718a6b80b1f13ed23ce3d7,沿海丽水佳园-E03号楼,北京市,北京市,大兴区,北京市大兴区丽水佳园(薛北路北200米),,116.338977,39.614219
276b089bcfbd660021f01738,沿海丽水佳园A02号楼,北京市,北京市,大兴区,北京市大兴区,,116.337314,39.617179
e9e05af71c2c4879e81e972e,沿海丽水佳园-F27号楼,北京市,北京市,大兴区,北京市大兴区丽水佳园(薛北路北),,116.34023,39.612812
e25a6e241e6c3dffadb22aba,圆月园131号楼,,,,北京市大兴区庞各庄镇西义堂村薛北路丽水佳园,,116.341819,39.61569
6694a31a348e668b3586f48f,沿海丽水佳园-C51号楼,北京市,北京市,大兴区,北京市大兴区,,116.337491,39.616326
69282e5b725c7836e812e49f,沿海丽水佳园-F33号楼,北京市,北京市,大兴区,北京市大兴区,,116.34076,39.613462
69e9e27af81110d9b35c6adc,沿海丽水佳园B26号楼,北京市,北京市,大兴区,北京市大兴区丽水佳园(西义堂中路西290米),,116.342776,39.616793
3afa2e20f6a3296f5e17c34b,沿海丽水佳园-F05号楼,北京市,北京市,大兴区,北京市大兴区丽水佳园(薛北路北120米),,116.338413,39.613661
0726024f2b8e7d4283a00c06,沿海丽水佳园-D27号楼,北京市,北京市,大兴区,北京市大兴区,,116.340667,39.615472
e46f1b334bc3e4e4eee4a5c6,龙景湾-乙37号楼,北京市,北京市,大兴区,北京市大兴区庞各庄镇民生路富力・丹麦小镇小区,,116.323811,39.63088
1d1e11254e5a1dcff03cbaf0,沿海丽水佳园A17号楼,北京市,北京市,大兴区,北京市大兴区庞各庄镇丽水佳园,,116.340332,39.617612
54f65d5f3dbcfff1fea77838,沿海丽水佳园A37号楼,北京市,北京市,大兴区,北京市大兴区丽水佳园(大广高速公路东460米),,116.338802,39.617208
b8074f026d663a746f4760a6,沿海丽水佳园B43号楼,北京市,北京市,大兴区,北京市大兴区丽水佳园(西义堂中路西290米),,116.343061,39.617102
b9dc8c3d299b0f487d29bdbd,沿海丽水佳园-C23号楼,北京市,北京市,大兴区,北京市大兴区,,116.337727,39.615232
10df647c2d501c3fa8059dcc,沿海丽水佳园B08号楼,北京市,北京市,大兴区,北京市大兴区庞各庄镇西义堂中路丽水佳园,,116.341546,39.61763
068ea786d43a9328213bf2d2,沿海丽水佳园A10号楼,北京市,北京市,大兴区,北京市大兴区庞各庄镇西义堂村京开路丽水佳园,,116.339009,39.617562
82171a31d351fa4badcb6623,沿海丽水佳园B36号楼,北京市,北京市,大兴区,北京市大兴区丽水佳园(西义堂中路西380米),,116.341895,39.617297
2369aa6d2a4aaf0a1d1d115a,沿海丽水佳园-C40号楼,北京市,北京市,大兴区,北京市大兴区,,116.337844,39.616125
f60ff0b22b8cf84b246e98ce,龙景湾-乙69号楼,北京市,北京市,大兴区,北京市大兴区庞各庄镇瓜乡路富力・丹麦小镇小区,,116.323864,39.628236
a87647e3c9dcff3b48cc4a81,沿海丽水佳园B10号楼,北京市,北京市,大兴区,北京市大兴区,,116.342046,39.617611
4da7101e478195695bf6be71,沿海丽水佳园-C29号楼,北京市,北京市,大兴区,北京市大兴区,,116.338147,39.615527
f9d0a67a80238d5b3a04b192,沿海丽水佳园-F47号楼,北京市,北京市,大兴区,北京市大兴区丽水佳园(薛北路北70米),,116.338567,39.613164
35e32470180b6ac98f1a89eb,沿海丽水佳园-F52号楼,北京市,北京市,大兴区,北京市大兴区,,116.340073,39.61315
b64a1204350e0e21091cc7a1,沿海丽水佳园A19号楼,北京市,北京市,大兴区,北京市大兴区丽水佳园(西义堂中路西480米),,116.340563,39.61737
f4ba27396ddfda04dc1e5216,富力童话时光B12栋,,,,北京市大兴区幸福路,,116.323564,39.638
9cf8d74ebc5c0f55eee4a57e,沿海丽水佳园A41号楼,北京市,北京市,大兴区,北京市大兴区丽水佳园,,116.339971,39.617072
d6da4a9300776217138824b9,沿海丽水佳园-E17号楼,北京市,北京市,大兴区,北京市大兴区,,116.340207,39.614111
489ece5612005b915c17c306,沿海丽水佳园-C12号楼,北京市,北京市,大兴区,北京市大兴区丽水佳园(薛北路北280米),,116.337526,39.614982
ad4b11d7f1fb58b6f842b284,沿海丽水佳园-D55号楼,北京市,北京市,大兴区,北京市大兴区丽水佳园(京开路东480米),,116.339401,39.616406
43906244dd837e86901fc973,沿海丽水佳园B46号楼,北京市,北京市,大兴区,北京市大兴区,,116.342502,39.617142
7f9414229d96eacce9f853af,沿海丽水佳园B22号楼,北京市,北京市,大兴区,北京市大兴区丽水佳园(西义堂中路西220米),,116.343507,39.616542
c42cae9bf6a98ef797ec8413,沿海丽水佳园-E25号楼,北京市,北京市,大兴区,北京市大兴区,,116.340707,39.614508
ccf2e110a914bb992cb908bc,沿海丽水佳园B25号楼,北京市,北京市,大兴区,北京市大兴区,,116.343012,39.616698
d946100b7a76844895ca07b1,沿海丽水佳园-F32号楼,北京市,北京市,大兴区,北京市大兴区,,116.340779,39.613288
0c0834baf1907b2cf50e7717,沿海丽水佳园-D31号楼,北京市,北京市,大兴区,北京市大兴区,,116.33969,39.615673
32c6508d99b645439f09f7ab,沿海丽水佳园-F50号楼,北京市,北京市,大兴区,北京市大兴区庞各庄镇西义堂村薛北路丽水佳园,,116.339653,39.613145
620faf2528d54561bda240ef,沿海丽水佳园-F58号楼,北京市,北京市,大兴区,北京市大兴区丽水佳园(薛北路北110米),,116.339797,39.613412
d0d7d1b3b6c372daa11de98c,沿海丽水佳园B38号楼,北京市,北京市,大兴区,北京市大兴区,,116.342422,39.617328
8199de109b14b4a51b11d5a1,龙景湾-乙80号楼,北京市,北京市,大兴区,北京市大兴区,,116.323756,39.627967
8a279ce3c8980996f32d83e1,沿海丽水佳园-D06号楼,北京市,北京市,大兴区,北京市大兴区丽水佳园(薛北路东340米),,116.339012,39.614714
34e8060d368062542a02e128,沿海丽水佳园B41号楼,北京市,北京市,大兴区,北京市大兴区,,116.343185,39.617276
302652d24be992b34251c04c,沿海丽水佳园-D59号楼,北京市,北京市,大兴区,北京市大兴区,,116.340267,39.616053
85e905817758245129fc4877,沿海丽水佳园-F28号楼,北京市,北京市,大兴区,北京市大兴区丽水佳园(薛北路北),,116.340503,39.612803
86e238ad2cbcf4a96e20b929,沿海丽水佳园-F06号楼,北京市,北京市,大兴区,北京市大兴区,,116.338211,39.613694
437a6379daf8c892f603b815,圆月园135号楼,,,,北京市大兴区庞各庄镇西义堂村薛北路丽水佳园,,116.341749,39.616413
7f7e7693f15c759cf5c59c8b,沿海丽水佳园-E09号楼,北京市,北京市,大兴区,北京市大兴区,,116.339931,39.614083
8c72e960a75e3a1808ccdd8c,沿海丽水佳园-D21号楼,北京市,北京市,大兴区,北京市大兴区,,116.33955,39.61533
87dc91eb577acb1f84330437,沿海丽水佳园-D30号楼,北京市,北京市,大兴区,北京市大兴区,,116.339916,39.615729
2c2849c158162b1194ec840e,沿海丽水佳园B33号楼,北京市,北京市,大兴区,北京市大兴区,,116.341201,39.617012
c1357795930f5aebadcb66b0,沿海丽水佳园-D42号楼,北京市,北京市,大兴区,北京市大兴区庞各庄镇西义堂村薛北路丽水佳园,,116.339803,39.615905
d3e24161e538a46b38221c2a,龙景湾-乙7号楼,北京市,北京市,大兴区,北京市大兴区庞各庄镇隆兴大街富力・丹麦小镇小区,,116.323991,39.632493
5bc06db88498357ca9059dbd,沿海丽水佳园-C25号楼,北京市,北京市,大兴区,北京市大兴区,,116.337512,39.615214
9bde1aee855cb58802294fb2,沿海丽水佳园-D18号楼,北京市,北京市,大兴区,北京市大兴区,,116.338962,39.615211
3d9a0fcefbb01f8a0aa8d4b4,沿海丽水佳园-D16号楼,北京市,北京市,大兴区,北京市大兴区,,116.338609,39.614895
8c6fee17d3c2a0f9adcb6681,沿海丽水佳园-C38号楼,北京市,北京市,大兴区,北京市大兴区,,116.33729,39.616108
6bcb11115a27316a8bfc0696,隆盛东园-9号楼,北京市,北京市,大兴区,北京市大兴区隆盛园小区(东区),,116.328649,39.627696
06fe9e33f282c7e852e5c526,沿海丽水佳园-D68号楼,北京市,北京市,大兴区,北京市大兴区丽水佳园(京开路东490米),,116.33952,39.61667
aea9b62336a2872ffb2213c4,沿海丽水佳园B15号楼,北京市,北京市,大兴区,北京市大兴区丽水佳园(西义堂中路北340米),,116.342863,39.617661
89dd1899395ae960b020a800,沿海丽水佳园-D43号楼,北京市,北京市,大兴区,北京市大兴区丽水佳园(薛北路北490米),,116.339916,39.616022
2912e510f5800afe7cc87699,沿海丽水佳园-D36号楼,北京市,北京市,大兴区,北京市大兴区庞各庄镇西义堂村京开路丽水佳园,,116.338879,39.61547
04816a20c613e9781fe99938,沿海丽水佳园-C28号楼,北京市,北京市,大兴区,北京市大兴区,,116.337959,39.615536
7e5d60f3be5d565125d2bb97,沿海丽水佳园-D69号楼,北京市,北京市,大兴区,北京市大兴区,,116.339245,39.616759
81831788aed5a7e140e19218,沿海丽水佳园-D60号楼,北京市,北京市,大兴区,北京市大兴区,,116.340506,39.616017
8ba12f144876c1978bfc06a2,沿海丽水佳园-D66号楼,北京市,北京市,大兴区,北京市大兴区丽水佳园(薛北路北460米),,116.339949,39.616742
c5943c7e1ced3917cae33c0c,沿海丽水佳园-D62号楼,北京市,北京市,大兴区,北京市大兴区,,116.340774,39.616499
f5fbd15c196dc9c83c9a5e4e,龙景湾-乙22号楼,北京市,北京市,大兴区,北京市大兴区龙景湾(乙区),,116.324123,39.631822
37f4f4f3d609c7c303ec0109,沿海丽水佳园-D37号楼,北京市,北京市,大兴区,北京市大兴区庞各庄镇西义堂村薛北路丽水佳园,,116.338905,39.615864
b570c258a8f61cf4b42655ab,沿海丽水佳园-C16号楼,北京市,北京市,大兴区,北京市大兴区庞各庄镇薛营村大广高速公路丽水佳园,,116.337963,39.614987
66f1e9df11b9fab4abf729d7,龙景湾-乙25甲号楼,北京市,北京市,大兴区,北京市大兴区龙景湾乙25甲号楼(民生路南),,116.323641,39.631586
3838c67d102882269e9d6872,沿海丽水佳园B05号楼,北京市,北京市,大兴区,北京市大兴区丽水佳园(西义堂中路西450米),,116.341003,39.61731
0e4cf0ec3ec4d67e25d2bbfd,龙景湾-甲8号楼,北京市,北京市,大兴区,北京市大兴区庞各庄镇瓜乡路富力・丹麦小镇小区,,116.319124,39.6271
9a169605028f3e1abadf8f5f,龙景湾-甲22号楼,北京市,北京市,大兴区,北京市大兴区,,116.316572,39.628192
edfc5785c7617bc560180914,龙景湾-乙66号楼,北京市,北京市,大兴区,北京市大兴区龙景湾(乙区),,116.322407,39.628276
a9dfb136d5bc18798bfc060d,龙景湾-乙20号楼,北京市,北京市,大兴区,北京市大兴区龙景湾(乙区),,116.32322,39.631858
14f565feb2a241514107c19b,龙景湾-乙11号楼,北京市,北京市,大兴区,北京市大兴区龙景湾(乙区),,116.322868,39.632217
8517d2427f093d973b221c63,龙景湾-乙19号楼,北京市,北京市,大兴区,北京市大兴区龙景湾(乙区),,116.32297,39.631877
eff95afcc8f9287be812e4d3,龙景湾-乙89号楼,北京市,北京市,大兴区,北京市大兴区龙景湾东区(瓜乡路北),,116.321318,39.627713
7b58cfe9781089d329fc48a8,龙景湾四区-70号楼,,,,北京市大兴区团结路,,116.316248,39.634527
1f39d8be2df5e54f246e9892,龙景湾四区-65号楼,,,,北京市大兴区团结路,,116.315103,39.634812
8322b1b0b1336249f32d83b6,龙景湾四区-80号楼,,,,北京市大兴区庞各庄镇民生路龙景湾四区80号楼,,116.317394,39.634281
a357d66ca540dcd471210b43,龙景湾-乙18号楼,北京市,北京市,大兴区,北京市大兴区,,116.322456,39.63188
2d6af31d6b06ba852bd7ab24,龙景湾-甲24号楼,北京市,北京市,大兴区,北京市大兴区,,116.316017,39.62821
8679203cc2188836f8f0cbdd,龙景湾五区1号楼,,,,北京市大兴区龙景湾丙区(团结路南110米),,116.321268,39.634881
c6ea0d0037e8dd628f55ec93,龙景湾-乙26号楼,北京市,北京市,大兴区,北京市大兴区,,116.322843,39.631587
5ff2222c6e93a02ee81e97f9,龙景湾乙67号楼,北京市,北京市,大兴区,北京市大兴区,,116.322847,39.628283
6bcd70cd70a4de1d9a005049,龙景湾-甲26号楼,北京市,北京市,大兴区,北京市大兴区,,116.315467,39.628205
89b93130df4d4330901fc9e7,龙景湾-甲15号楼,北京市,北京市,大兴区,北京市大兴区,,116.318234,39.627665
7e0e41356c146bb5be4842b8,龙景湾四区-60号楼,,,,北京市大兴区团结路,,116.316248,39.634766
87d43aa256c757914f3a5931,龙景湾-乙28号楼,北京市,北京市,大兴区,北京市大兴区庞各庄镇隆源大街富力・丹麦小镇小区,,116.322432,39.631295
6b7675d06766024a940319ec,龙景湾-甲12号楼,北京市,北京市,大兴区,北京市大兴区庞各庄镇瓜乡路富力・丹麦小镇小区,,116.319292,39.62806
45ca061669d33b605fd4feba,富力童话时光B17栋,,,,北京市大兴区幸福路,,116.322674,39.637379
188b53f068bd24d8fa0cad10,龙景湾-甲38号楼,北京市,北京市,大兴区,北京市大兴区龙景湾甲区(隆平大街东90米),,116.313183,39.628236
bf8baa865b8866c20d3dda5b,龙景湾-甲14号楼,北京市,北京市,大兴区,北京市大兴区龙景湾甲区(隆兴大街西90米),,116.318767,39.628081
1a8e8dabf90802ca6f4760c4,龙景湾-乙76号楼,北京市,北京市,大兴区,北京市大兴区庞各庄镇瓜乡路富力・丹麦小镇小区,,116.321851,39.628282
e5a3151cd499369fca09f052,龙景湾-乙60号楼,北京市,北京市,大兴区,北京市大兴区龙景湾(乙区),,116.322452,39.629303
b6f00be07a83316e25d2bb6d,龙景湾甲-27号楼,北京市,北京市,大兴区,北京市大兴区庞各庄镇瓜乡路富力・丹麦小镇小区,,116.315045,39.627705
b21524a5d386fa537069d3b2,龙景湾乙61号楼,北京市,北京市,大兴区,北京市大兴区庞各庄镇瓜乡路富力・丹麦小镇小区,,116.322348,39.628728
2487fa375f5debddfb2d61e4,龙景湾-甲19号楼,北京市,北京市,大兴区,北京市大兴区,,116.317102,39.6277
86dc4ddc35c94089593ac856,富力童话时光A5栋,,,,北京市大兴区幸福路,,116.316502,39.637579
755c8ea5f333e2442cb17e71,龙景湾三区-9号楼,,,,北京市大兴区龙景湾三区(民生路南),,116.314908,39.631696
a32a9b21e86d0f9346e274f9,龙景湾四区-66号楼,,,,北京市大兴区团结路,,116.315098,39.634551
81e7e55a89b875794afd3f50,龙景湾-乙42号楼,北京市,北京市,大兴区,北京市大兴区庞各庄镇隆兴大街富力・丹麦小镇小区,,116.322941,39.630607
4a14a131b8aa17993f9a5e88,椿蓉园三里-乙30号楼,北京市,北京市,大兴区,椿蓉园三里乙30号楼,,116.326979,39.516946
b051ed91a9101bab9ef77925,椿蓉园-三里乙5号楼,北京市,北京市,大兴区,北京市大兴区今荣街,,116.325079,39.51705
ab5a9025b2a41b63e0110366,椿蓉园三里-10号楼,北京市,北京市,大兴区,椿蓉园三里10号楼,,116.323722,39.518372
b58b91148805b5922fb9084f,椿蓉园三里-乙34号楼,北京市,北京市,大兴区,椿蓉园三里乙34号楼,,116.326201,39.516896
08851ff5dd7ad0489f9d687b,椿蓉园-三里乙15号楼,北京市,北京市,大兴区,椿蓉园三里乙15号楼,,116.324933,39.516507
5de424bd464356756cc02c83,椿蓉园三里-乙32号楼,北京市,北京市,大兴区,椿蓉园三里乙32号楼,,116.326444,39.516989
e3942cd35f9832bf283a9f1b,椿蓉园三里-11号楼,北京市,北京市,大兴区,椿蓉园三里11号楼,,116.32376,39.517953
47dd2e02d82266c73686f4fc,椿蓉园三里-8号楼,北京市,北京市,大兴区,椿蓉园三里8号楼,,116.32475,39.518852
64547943a5d7e3f42fb96d2b,椿蓉园三里乙27号楼,北京市,北京市,大兴区,椿蓉园三里乙27号楼,,116.328249,39.516958
3ac51a1ad0b5526126d2bb6c,椿蓉园三里乙31号楼,北京市,北京市,大兴区,椿蓉园三里乙31号楼,,116.326743,39.51682
1592e1a1deed4937d42ce25a,椿蓉园三里-乙36号楼,北京市,北京市,大兴区,北京市大兴区,,116.325678,39.516814
e37b70cfc940bb2c82288a92,椿蓉园三里-乙39号楼,北京市,北京市,大兴区,椿蓉园三里乙39号楼,,116.325678,39.517033
59b7ef32a431f23ead0457dd,绿茵花园别墅花香区1号楼,北京市,北京市,大兴区,北京市大兴区魏善庄镇张家场村张佟路绿茵花园别墅,,116.429206,39.61504
2a3e24698fb038c0f01937b0,绿茵花园别墅冬青区12号楼,北京市,北京市,大兴区,北京市大兴区绿茵花园别墅西区(张佟路西),,116.429023,39.615439
57cceb84f57f1dd5cac3dbc9,绿茵花园别墅花香区8号楼,北京市,北京市,大兴区,北京市大兴区魏善庄镇张家场村张佟路绿茵花园别墅,,116.430094,39.614633
445f53a91f70c7835d17c316,绿茵花园别墅秋月区40号楼,北京市,北京市,大兴区,北京市大兴区绿茵花园别墅西区(张佟路西),,116.4298,39.616336
f42d6a9498221a48f60e7759,绿茵花园别墅冬青区23号楼,北京市,北京市,大兴区,北京市大兴区魏善庄镇张家场村张佟路绿茵花园别墅,,116.429021,39.614708
b51a2ddbdda624cbeb1e974b,绿茵花园别墅夏荫区30号楼,北京市,北京市,大兴区,北京市大兴区绿茵花园别墅西区(张佟路西),,116.430626,39.615619
4d92569cb4a12c897069d3c2,绿茵花园别墅秋月区33号楼,北京市,北京市,大兴区,北京市大兴区魏善庄镇张家场村张佟路绿茵花园别墅,,116.42922,39.616573
c52a0789322990f61b11d5e3,绿茵花园别墅秋月区12B号楼,北京市,北京市,大兴区,北京市大兴区绿茵花园别墅西区(张佟路西),,116.43012,39.617343
e98e4abde666e4ca6b49f3f5,绿茵花园别墅秋月区39号楼,北京市,北京市,大兴区,北京市大兴区绿茵花园别墅西区(张佟路西),,116.42952,39.616337
73c7a43e5e7ac43f081cc7b6,绿茵花园别墅秋月区49号楼,北京市,北京市,大兴区,北京市大兴区,,116.429032,39.615926
aad8c2f16837221a2b3a9fe8,绿茵花园别墅冬青区20号楼,北京市,北京市,大兴区,北京市大兴区,,116.428839,39.614938
61be4da3a7389a766fa3ccc9,绿茵花园别墅四季区43号楼,北京市,北京市,大兴区,北京市大兴区,,116.429752,39.616139
eff489af4b35caf67369d335,绿茵花园别墅冬青区15号楼,北京市,北京市,大兴区,北京市大兴区绿茵花园别墅西区(张佟路西),,116.429735,39.615254
f0db67ffdf780dca30169bc4,绿茵花园别墅冬青区3A号楼,北京市,北京市,大兴区,北京市大兴区,,116.429266,39.615721
97ea41259bfbf28290114c26,绿茵花园别墅冬青区7号楼,北京市,北京市,大兴区,北京市大兴区魏善庄镇张家场村张佟路绿茵花园别墅,,116.429303,39.615526
b71591581c47ffb9c5f50d60,绿茵花园别墅秋月区47号楼,北京市,北京市,大兴区,北京市大兴区绿茵花园别墅西区(张佟路西),,116.428921,39.616173
9f03db1c18c129ee6240a9a4,绿茵花园别墅花香区7号楼,北京市,北京市,大兴区,北京市大兴区魏善庄镇张家场村张佟路绿茵花园别墅,,116.429815,39.614637
36dd46b86c066e7688db7363,沿海丽水佳园-C39号楼,北京市,北京市,大兴区,北京市大兴区,,116.337648,39.616135
dba467c6718745be15a19029,沿海丽水佳园-C31号楼,北京市,北京市,大兴区,北京市大兴区,,116.338781,39.615555
2719d1dee401d27909a8d461,沿海丽水佳园-C55号楼,北京市,北京市,大兴区,北京市大兴区,,116.33796,39.616654
0aaf70b5083b15c298005095,龙景湾乙65号楼,北京市,北京市,大兴区,庞各庄镇瓜乡路,,116.324357,39.628582
6a40cff57691dd6f07fef5c3,沿海丽水佳园B07号楼,北京市,北京市,大兴区,北京市大兴区丽水佳园(西义堂中路西450米),,116.341278,39.61761
955b58aaa42e9cf9ca213d7b,沿海丽水佳园-E18号楼,北京市,北京市,大兴区,北京市大兴区,,116.340232,39.614235
2e648ea2f5fb53b62902e146,沿海丽水佳园-D40号楼,北京市,北京市,大兴区,北京市大兴区丽水佳园(薛北路北450米),,116.339395,39.615873
f90e5cb54db0c53e3b221c9f,沿海丽水佳园-F17号楼,北京市,北京市,大兴区,北京市大兴区丽水佳园(薛北路北),,116.339183,39.612821
3a1cc7aaf0769970bca82292,沿海丽水佳园-C42号楼,北京市,北京市,大兴区,北京市大兴区庞各庄镇西义堂村薛北路丽水佳园,,116.338237,39.616096
5d0a5296dbaf8b23734b87d2,沿海丽水佳园-F46号楼,北京市,北京市,大兴区,北京市大兴区,,116.3384,39.613236
997c752e00e5411196ca0737,隆盛西园-7号楼,北京市,北京市,大兴区,北京市大兴区隆盛园小区(西区),,116.326376,39.628159
45906f5f4b2f40c4a3acc4b2,沿海丽水佳园A26号楼,北京市,北京市,大兴区,北京市大兴区,,116.338912,39.617232
e702b00cc71a912a95ca07ae,沿海丽水佳园-D07号楼,北京市,北京市,大兴区,北京市大兴区丽水佳园(薛北路东350米),,116.339213,39.614763
c9a13319e53938ccadcb66d5,沿海丽水佳园-C21号楼,北京市,北京市,大兴区,北京市大兴区,,116.338136,39.615221
90444361eed086c52811d157,沿海丽水佳园-E22号楼,北京市,北京市,大兴区,北京市大兴区,,116.340561,39.615022
8ece6dad10ee6cedb35c6a69,沿海丽水佳园-C46号楼,北京市,北京市,大兴区,北京市大兴区丽水佳园(大广高速公路东410米),,116.338276,39.616307
dfb01de18b8fd287e215f95f,沿海丽水佳园-C45号楼,北京市,北京市,大兴区,北京市大兴区庞各庄镇西义堂村京开路丽水佳园,,116.338456,39.616345
f595e2064b4e940b9fec2b5f,沿海丽水佳园-F48号楼,北京市,北京市,大兴区,北京市大兴区丽水佳园(薛北路北70米),,116.339236,39.613142
8fef589a7905b7d238221ce0,沿海丽水佳园-D52号楼,北京市,北京市,大兴区,北京市大兴区,,116.338976,39.616372
55f5b36a39d8c7a93517dc68,沿海丽水佳园-C57号楼,北京市,北京市,大兴区,北京市大兴区,,116.338399,39.616672
8466a15f8d38ee1a22f017e2,龙景湾乙70号楼,北京市,北京市,大兴区,北京市大兴区庞各庄镇瓜乡路富力・丹麦小镇小区,,116.324345,39.628203
795ce7ccefcb1d2bc4f02556,沿海丽水佳园-D63号楼,北京市,北京市,大兴区,北京市大兴区,,116.340422,39.616743
885d192b0dc98765c8213dca,沿海丽水佳园B45号楼,北京市,北京市,大兴区,北京市大兴区丽水佳园(西义堂中路西310米),,116.342792,39.617132
12ad7551145600a26fa3cc9d,沿海丽水佳园-E16号楼,北京市,北京市,大兴区,北京市大兴区庞各庄镇西义堂村薛北路丽水佳园,,116.340114,39.614058
0f90b75b8282720acac3db9a,龙景湾-乙21号楼,北京市,北京市,大兴区,北京市大兴区庞各庄镇民生路富力・丹麦小镇小区,,116.323887,39.631862
45f65f96dea065b0fd0eb0e5,沿海丽水佳园-C32号楼,北京市,北京市,大兴区,北京市大兴区丽水佳园(大广高速公路东420米),,116.338443,39.615787
1ecb67e04aaff8c10869d96b,沿海丽水佳园-D38号楼,北京市,北京市,大兴区,北京市大兴区丽水佳园(大广高速公路东470米),,116.339046,39.615907
f3b40b61de4107ee38221c96,沿海丽水佳园A28号楼,北京市,北京市,大兴区,北京市大兴区庞各庄镇京开路丽水佳园,,116.338374,39.617269
b3cc3ffa1d4de0f778f79617,沿海丽水佳园-D09号楼,北京市,北京市,大兴区,北京市大兴区,,116.339598,39.614917
3fb0d95aaebefa4ee01103b1,沿海丽水佳园-E02号楼,北京市,北京市,大兴区,北京市大兴区,,116.338769,39.614116
b9652dc58979d64e0c0e6bec,沿海丽水佳园B03号楼,北京市,北京市,大兴区,北京市大兴区,,116.341282,39.61692
0786f15ce0e8db0d4acc4a5f,沿海丽水佳园A05号楼,北京市,北京市,大兴区,北京市大兴区,,116.337605,39.617573
85defad1a03e1c6785420e42,龙景湾-乙23号楼,北京市,北京市,大兴区,北京市大兴区龙景湾(乙区),,116.323962,39.631564
283160abded4b3e70c0e6b59,沿海丽水佳园B30号楼,北京市,北京市,大兴区,北京市大兴区,,116.34196,39.617078
0968a10b56849eff8505bf24,沿海丽水佳园-D28号楼,北京市,北京市,大兴区,北京市大兴区丽水佳园(薛北路北310米),,116.3405,39.615267
c2ac09a920fd140e7fc87664,沿海丽水佳园B31号楼,北京市,北京市,大兴区,北京市大兴区,,116.341733,39.617141
ffb5150c86d86812c2f1cf6a,圆月园109号楼,,,,北京市大兴区庞各庄镇西义堂村薛北路丽水佳园,,116.342281,39.615526
42f525682236dad2f7b91623,沿海丽水佳园-D29号楼,北京市,北京市,大兴区,北京市大兴区丽水佳园(薛北路北360米),,116.340389,39.615648
0b64eafc453e5a640a5cb372,沿海丽水佳园-E08号楼,北京市,北京市,大兴区,北京市大兴区,,116.339804,39.61442
a6f0c857cbad14f6a8f0cd2a,沿海丽水佳园-D57号楼,北京市,北京市,大兴区,北京市大兴区丽水佳园(薛北路北430米),,116.339873,39.616318
d65b2f27e3f6352a932ca33c,沿海丽水佳园A08号楼,北京市,北京市,大兴区,北京市大兴区庞各庄镇京开路丽水佳园,,116.338477,39.617587
9e2fcff0807eef4914948e51,沿海丽水佳园-E19号楼,北京市,北京市,大兴区,北京市大兴区丽水佳园(薛北路北230米),,116.340055,39.614579
1cef72ac3a026498db131801,龙景湾乙63号楼,北京市,北京市,大兴区,北京市大兴区庞各庄镇隆源大街富力・丹麦小镇小区,,116.323415,39.628657
9e6252a2667c932602294fc8,沿海丽水佳园-D45号楼,北京市,北京市,大兴区,北京市大兴区庞各庄镇西义堂村薛北路丽水佳园,,116.33983,39.616158
9e2c443f89f7db189868b447,沿海丽水佳园-D08号楼,北京市,北京市,大兴区,北京市大兴区丽水佳园(薛北路北260米),,116.339399,39.614835
a95ff9485d5edc10081cc771,沿海丽水佳园-C22号楼,北京市,北京市,大兴区,北京市大兴区丽水佳园(薛北路北320米),,116.337906,39.615169
13541c94b8b5307ca1d23069,沿海丽水佳园-E15号楼,北京市,北京市,大兴区,北京市大兴区,,116.339111,39.613893
d44192a7cd0ab89aab175a9e,沿海丽水佳园-D25号楼,北京市,北京市,大兴区,北京市大兴区,,116.340239,39.615491
a50062412c5609c4260bd0a7,龙景湾-乙25号楼,北京市,北京市,大兴区,北京市大兴区龙景湾(乙区),,116.323296,39.631577
2aaf38647caeae2a2cb17efe,沿海丽水佳园B17号楼,北京市,北京市,大兴区,北京市大兴区庞各庄镇西义堂中路丽水佳园,,116.343443,39.617664
8a7fce286b001e30c356acef,沿海丽水佳园-E06号楼,北京市,北京市,大兴区,北京市大兴区,,116.339329,39.61436
9bbba71a47edf74dfbdc85da,沿海丽水佳园-C35号楼,北京市,北京市,大兴区,北京市大兴区丽水佳园(大广高速公路东360米),,116.337787,39.615786
56f5aa88206cdaa5095cb361,龙景湾乙45号楼,北京市,北京市,大兴区,北京市大兴区龙景湾(乙区),,116.324214,39.630624
31f9726ea3df1b164251c094,沿海丽水佳园-C37号楼,北京市,北京市,大兴区,北京市大兴区丽水佳园(大广高速公路东330米),,116.337281,39.615778
06d817366cde4903a7c75658,沿海丽水佳园-C11号楼,北京市,北京市,大兴区,北京市大兴区,,116.337301,39.614612
2c73c11eaa94db6a4354d796,沿海丽水佳园-C02号楼,北京市,北京市,大兴区,北京市大兴区庞各庄镇薛营村京开路丽水佳园,,116.33772,39.613996
6303b8eedb39744b3f9a5e39,沿海丽水佳园A09号楼,北京市,北京市,大兴区,北京市大兴区庞各庄镇大广高速公路丽水佳园,,116.338751,39.617601
c538cf3e1d32e94822f017c7,沿海丽水佳园-C18号楼,北京市,北京市,大兴区,北京市大兴区,,116.338173,39.614968
8fbfbf748a63bb83c61b756b,沿海丽水佳园-C43号楼,北京市,北京市,大兴区,北京市大兴区,,116.338405,39.616102
8b3df73b8024a996e6e965c1,沿海丽水佳园B40号楼,北京市,北京市,大兴区,北京市大兴区庞各庄镇西义堂中路丽水佳园,,116.342932,39.617343
b821c6624da86c06a2d23008,沿海丽水佳园B37号楼,北京市,北京市,大兴区,北京市大兴区,,116.342159,39.617271
461d98e3c250a568f90cada4,沿海丽水佳园-D22号楼,北京市,北京市,大兴区,北京市大兴区丽水佳园(薛北路北320米),,116.33976,39.615362
b4769ad6a703c1748e7727ad,沿海丽水佳园-C15号楼,北京市,北京市,大兴区,北京市大兴区丽水佳园(薛北路北300米),,116.337697,39.615118
d27cac9d2e5b8cb5e9f853a4,沿海丽水佳园-E11号楼,北京市,北京市,大兴区,北京市大兴区,,116.339557,39.614048
2b827ab1c090175d3a13fd2a,沿海丽水佳园A31号楼,北京市,北京市,大兴区,北京市大兴区,,116.337788,39.617217
2c4bb3af18e14d509cec2b9b,沿海丽水佳园-C19号楼,北京市,北京市,大兴区,北京市大兴区,,116.338478,39.61522
4bfc308eeed348fe43024580,沿海丽水佳园-D35号楼,北京市,北京市,大兴区,北京市大兴区丽水佳园(薛北路北410米),,116.339255,39.615596
1e465cf9c3099c16400245be,沿海丽水佳园-D03号楼,北京市,北京市,大兴区,北京市大兴区,,116.338619,39.614494
80c621062d4306e707fef590,沿海丽水佳园-D39号楼,北京市,北京市,大兴区,北京市大兴区,,116.339147,39.615875
8ad09962ecad91afb64f5414,沿海丽水佳园-E05号楼,北京市,北京市,大兴区,北京市大兴区丽水佳园(薛北路北190米),,116.339168,39.61425
c456a238ae3589ed2b06ce31,沿海丽水佳园B20号楼,北京市,北京市,大兴区,北京市大兴区丽水佳园(西义堂中路西240米),,116.343517,39.616898
c0b52b12bf6bacc3c9c3db19,沿海丽水佳园-F53号楼,北京市,北京市,大兴区,北京市大兴区,,116.340303,39.613089
90576319bc93769fd22dd6ad,沿海丽水佳园-F56号楼,北京市,北京市,大兴区,北京市大兴区,,116.340246,39.613406
79a10f539d1bcb52d1f49e30,沿海丽水佳园-D67号楼,北京市,北京市,大兴区,北京市大兴区,,116.339681,39.616772
684364d0ab540ce21fe999c4,沿海丽水佳园-F36号楼,北京市,北京市,大兴区,北京市大兴区,,116.340285,39.613755
2997cb65047044a826d2bb7c,沿海丽水佳园-F10号楼,北京市,北京市,大兴区,北京市大兴区,,116.338112,39.612883
bf40ae9c16ab6081fda778e6,沿海丽水佳园-D53号楼,北京市,北京市,大兴区,北京市大兴区,,116.339195,39.616391
4637c45491c62ef0c3364491,沿海丽水佳园-C50号楼,北京市,北京市,大兴区,北京市大兴区丽水佳园(大广高速公路东360米),,116.33769,39.616324
3df43244943aa375c9e33ca6,沿海丽水佳园B18号楼,北京市,北京市,大兴区,北京市大兴区庞各庄镇西义堂中路丽水佳园,,116.343513,39.61739
f260cdc02a9e252c09b93a26,沿海丽水佳园A27号楼,北京市,北京市,大兴区,北京市大兴区丽水佳园(大广高速公路东450米),,116.338627,39.617251
a2786bef2689c6eb45e274cf,沿海丽水佳园-C26号楼,北京市,北京市,大兴区,北京市大兴区丽水佳园(大广高速公路东320米),,116.33727,39.615538
d12cc092ad05e2c9d518b7f2,沿海丽水佳园-F60号楼,北京市,北京市,大兴区,北京市大兴区,,116.339338,39.613372
8efd4ae985731e6691114ca2,沿海丽水佳园-F57号楼,北京市,北京市,大兴区,北京市大兴区,,116.340013,39.613435
597c30fc0f064712a2d2306d,沿海丽水佳园-F01号楼,北京市,北京市,大兴区,北京市大兴区,,116.339068,39.613574
6470abcec3f28fb290114cd5,沿海丽水佳园-E27号楼,北京市,北京市,大兴区,北京市大兴区丽水佳园(薛北路北190米),,116.340667,39.614203
339e05c80e05c5d36ea3cca5,沿海丽水佳园A15号楼,北京市,北京市,大兴区,北京市大兴区,,116.339805,39.617607
45ca5380443bc32fc51b75f5,沿海丽水佳园-D05号楼,北京市,北京市,大兴区,北京市大兴区,,116.338786,39.614588
5fa1833e7acb8480c4f025b1,沿海丽水佳园-F03号楼,北京市,北京市,大兴区,北京市大兴区,,116.338656,39.613625
36ee7254ca7a5d9357bfff91,龙景湾-乙138号楼,北京市,北京市,大兴区,北京市大兴区庞各庄镇瓜乡路富力・丹麦小镇小区,,116.32182,39.627117
b755b763961a768b97ec845f,龙景湾-乙49号楼,北京市,北京市,大兴区,北京市大兴区龙景湾(乙区),,116.322952,39.630335
ae73f533e2d1dcffa204643c,龙景湾五区17号楼,,,,北京市大兴区庞各庄镇民生路龙景湾五区17号楼,,116.32171,39.633053
c7227c87683013e40e3dda88,龙景湾五区19号楼,,,,北京市大兴区龙景湾丙区(民生路北),,116.320674,39.632942
d431bfad907ff6ff1f3894c1,龙景湾甲-9号楼,北京市,北京市,大兴区,北京市大兴区龙景湾甲区(隆兴大街),,116.319821,39.627672
980b22b8696b284007026f43,龙景湾-甲13号楼,北京市,北京市,大兴区,北京市大兴区龙景湾西区(隆兴大街西),,116.318794,39.62768
a617efb88d4a0d7e1e5800a2,龙景湾三区-36号楼,,,,北京市大兴区庞各庄镇隆平大街龙景湾(三区)旁,,116.312174,39.631055
0cc299da56057760bea240c8,龙景湾-甲31号楼,北京市,北京市,大兴区,北京市大兴区,,116.314242,39.627729
13d73d687f3b4e78990050c2,龙景湾四区-62号楼,,,,北京市大兴区团结路,,116.315669,39.634805
a52dd0b7fccb16f9f8221341,富力童话时光B9栋,,,,北京市大兴区幸福路,,116.320861,39.637423
48f7cad6fbe9f01b5bf6be44,龙景湾-乙41号楼,北京市,北京市,大兴区,北京市大兴区庞各庄镇瓜乡路富力・丹麦小镇小区,,116.322461,39.630594
dc10bedf2ddfdb199d95de1f,龙景湾-甲10号楼,北京市,北京市,大兴区,北京市大兴区庞各庄镇隆兴大街富力・丹麦小镇小区,,116.319781,39.628047
abed8ee094185bc3f6eafcde,龙景湾-乙59号楼,北京市,北京市,大兴区,北京市大兴区庞各庄镇隆源大街富力・丹麦小镇小区,,116.32295,39.629273
c7eca12b2d052049e115f95a,上城雅园,河北省,廊坊市,广阳区,河北省廊坊市广阳区凤仪道,,116.619008,39.585689
9fb00b19696f9653734b8757,万福小区,河北省,廊坊市,广阳区,河北省廊坊市广阳区万福小区(采万路西110米),,116.604472,39.585872
ed01cda5d24b3298c9e33cee,公园360°,河北省,廊坊市,广阳区,广阳区纬一路北侧万庄生态城,,116.623773,39.586767
5a71b8f38a8e69ba9122e057,万康小区,河北省,廊坊市,广阳区,西环路48号附近,,116.625183,39.578565
5557c901a22d1788c356ac01,雅园一区,河北省,廊坊市,广阳区,梧桐路21号,,116.618131,39.587013
f837d5a6e1845861df1e5234,万青小区,河北省,廊坊市,广阳区,万庄石油华兴,,116.629076,39.581146
73fc9963cb7d3cff54bfff57,先锋小区,河北省,廊坊市,广阳区,河北省廊坊市广阳区先锋小区(凤仪道南),,116.616849,39.583042
658941fca06765d2a11de9e0,雅园二区,河北省,廊坊市,广阳区,雅园二区,,116.618628,39.585682
305ace5d1fa4fbb725e0a006,华熙公馆小区,,,,万采路18号附近,,116.607413,39.588311
d728e08994d89e3b3010af38,雅园二区-7号楼,,,,河北省廊坊市广阳区雅园二区7号楼,,116.618142,39.585472
1d931ac2481bb56fc6effb89,金利苑,河北省,廊坊市,广阳区,河北省廊坊市广阳区九州镇九州二村采留线金利苑,,116.576394,39.512358
1c0a9507e7767fb9c06c1459,雅园二区-4号楼,,,,河北省廊坊市广阳区雅园二区(凤仪道北230米),,116.619412,39.585957
ab15e4bad36a1b786ca3cc2f,雅园二区-3号楼,,,,河北省廊坊市广阳区雅园二区3号楼,,116.618726,39.585896
9d3a7605113e709f09ccdd4f,华迪北勘东社区,,,,振兴街与文化路交叉口东南100米,,116.628131,39.57879
8ac11733478179aaadcb6601,综一矿区万青小区-11号楼,,,,河北省廊坊市广阳区万庄镇南大街万青小区,,116.630122,39.580382
b6d0b65e887f451c3310affd,综一矿区万康小区38号,河北省,廊坊市,广阳区,综一矿区万康小区38号楼,,116.625238,39.579947
fe293d412998a1c55d17c38f,万康小区-27号楼,河北省,廊坊市,广阳区,河北省廊坊市广阳区综一矿区万康小区27号楼,,116.624682,39.578412
b84e20b6b8958eab16764331,万城英郡-2号楼,,,,河北省廊坊市广阳区万城英郡2号楼,,116.600479,39.580654
7ab3a0f3fd969ed958f6be02,雅园二区-6号楼,,,,河北省廊坊市广阳区雅园二区6号楼,,116.617015,39.585249
f23e22e54ab46941b05c6a3f,雅园一区-2号楼,,,,河北省廊坊市广阳区雅园一区2号楼,,116.617739,39.587591
9b620eef5c5423d788b988cc,综一矿区万春小区-23号,河北省,廊坊市,广阳区,河北省廊坊市广阳区综一矿区万春小区23号楼,,116.623536,39.583731
a031d8be5777c6ec932ca3ba,综一矿区万青小区6号,河北省,廊坊市,广阳区,综一矿区万青小区6号楼,,116.63004,39.580857
520ebaab0416c57552e5c5e4,综一矿区万康小区-15号楼,,,,河北省廊坊市广阳区万庄镇南大街万康小区,,116.626932,39.578671
96ce929f9c8588e1e8f853a1,综一矿区万春小区-22号,河北省,廊坊市,广阳区,河北省廊坊市广阳区,,116.623593,39.583293
2b8828bc03bebb3e02897209,综一矿区万青小区2号,河北省,廊坊市,广阳区,综一矿区万青小区2号楼,,116.630202,39.579905
d7002c558e71340ff33cba4b,万康小区-16号楼,河北省,廊坊市,广阳区,河北省廊坊市广阳区综一矿区万康小区16号楼,,116.626434,39.578907
e64ca9f9b73cba53bda2406c,万康小区-48号楼,河北省,廊坊市,广阳区,河北省廊坊市广阳区综一矿区万康小区48号楼,,116.622697,39.579549
ed1eb90602a91761d12dd6f8,万青小区-20号楼,河北省,廊坊市,广阳区,河北省廊坊市广阳区综一矿区万青小区20号楼,,116.628107,39.579659
5f97d2285649a3a62fb17ec6,综一矿区,,,,河北省廊坊市广阳区万庄镇南大街万康小区,,116.627048,39.578921
de243e38fa0ab3319c82ea50,综一矿区万青小区-32号,河北省,廊坊市,广阳区,河北省廊坊市广阳区综一矿区万青小区32号楼,,116.628426,39.581264
4838e2490054a11c5cd4feb2,综一矿区万康小区1号,河北省,廊坊市,广阳区,综一矿区万康小区1号楼,,116.627505,39.577014
359e7515c4271640b2077d1b,万康小区-12号楼,河北省,廊坊市,广阳区,河北省廊坊市广阳区万庄镇南大街万康小区,,116.626613,39.577723
24581765c5f0320587330458,综一矿区万青小区1号,河北省,廊坊市,广阳区,综一矿区万青小区1号楼,,116.630239,39.57967
0c7a7d9ee2924053d8d891eb,综一矿区万康小区10号,河北省,廊坊市,广阳区,综一矿区万康小区10号楼,,116.626735,39.577201
9b8732b68097a6c244e2745d,综一矿区万春小区16号楼,,,,河北省廊坊市广阳区综一矿区万春小区16号楼,,116.624011,39.581661
a63398c819a26306b8bd63f1,综一矿区万春小区-1号,河北省,廊坊市,广阳区,河北省廊坊市广阳区,,116.624839,39.580891
a1e8da81bf1d438b30169b75,万康小区-18号楼,河北省,廊坊市,广阳区,河北省廊坊市广阳区万庄镇南大街万康小区,,116.62565,39.577136
7153fb6996f3cc5409a8d467,万康小区-14号楼,河北省,廊坊市,广阳区,河北省廊坊市广阳区综一矿区万康小区14号楼,,116.626514,39.578403
c57c65d0a4858497a80dd8f3,综一矿区万春小区-8号,河北省,廊坊市,广阳区,综一矿区万春小区8号楼,,116.624726,39.582968
32696a79489c3d858b2fb569,雅园二区-1号楼,,,,河北省廊坊市广阳区雅园二区1号楼,,116.616852,39.585666
790b2cd29f9e5d285b10933a,综一矿区万康小区32号,河北省,廊坊市,广阳区,综一矿区万康小区32号楼,,116.623454,39.577966
d0c6c66485f069851288248a,综一矿区万康小区20号,河北省,廊坊市,广阳区,振兴街与西环路交叉口西南100米,,116.625545,39.578469
4049b45e4e43a882e011036b,雅园二区-8号楼,,,,河北省廊坊市广阳区雅园二区8号楼,,116.619115,39.585584
96465d6958c97f38e01103b5,综一矿区万青小区22号,河北省,廊坊市,广阳区,综一矿区万青小区22号楼,,116.628023,39.580135
94a223779d3f50d09e9d6859,综一矿区万康小区26号,河北省,廊坊市,广阳区,综一矿区万康小区26号楼,,116.624731,39.578122
574c427017a6bb216849f361,综一矿区万春小区-21号,河北省,廊坊市,广阳区,河北省廊坊市广阳区综一矿区万春小区21号楼,,116.623618,39.583097
adea5b0b5e4ff1357c29bda9,万康小区-8号楼,河北省,廊坊市,广阳区,河北省廊坊市广阳区综一矿区万康小区8号楼,,116.627168,39.578995
5679d0fca5e7cf2432f71dac,雅园二区-2号楼,,,,河北省廊坊市广阳区雅园二区2号楼,,116.618046,39.585816
6bfd049d9b80ce93b6147f18,万城英郡-1号楼,,,,河北省廊坊市广阳区万城英郡1号楼,,116.601056,39.580444
2036686783f831ce931fc987,综一矿区万康小区22号,河北省,廊坊市,广阳区,综一矿区万康小区22号楼,,116.624978,39.576768
47ed0084bae0a54420f01720,综一矿区万青小区7号,河北省,廊坊市,广阳区,综一矿区万青小区7号楼,,116.630001,39.581088
93ea4b98e9f73c0786154187,万康小区-28号楼,河北省,廊坊市,广阳区,河北省廊坊市广阳区综一矿区万康小区28号楼,,116.624633,39.578699
09f5064b8d0c1e3f07fef539,万康小区-2号楼,河北省,廊坊市,广阳区,河北省廊坊市广阳区万庄镇南大街万康小区,,116.627468,39.577292
9e8cd99f6def8a819e09f77a,综一矿区万康小区46号,河北省,廊坊市,广阳区,综一矿区万康小区46号楼,,116.622862,39.578856
70959c982ff0b8bb43afe650,综一矿区万春小区-18号,河北省,廊坊市,广阳区,河北省廊坊市广阳区,,116.624355,39.582198
7b3573512e207fa90c0a7013,综一矿区万康小区31号,河北省,廊坊市,广阳区,综一矿区万康小区31号楼,,116.624088,39.578632
1049995a830441db92114c69,综一矿区万春小区-20号,河北省,廊坊市,广阳区,河北省廊坊市广阳区综一矿区万春小区20号楼,,116.623656,39.582795
d38729cdc05e425f9f09f749,综一矿区万春小区-2号,河北省,廊坊市,广阳区,综一矿区万春小区2号楼,,116.624783,39.581194
13e9f2c5397c6f4a6fa3cc23,综一矿区万康小区6号,河北省,廊坊市,广阳区,综一矿区万康小区6号楼,,116.627263,39.578497
45b8f41bc647b89da2d23080,万康小区-7号楼,河北省,廊坊市,广阳区,河北省廊坊市广阳区综一矿区万康小区7号楼,,116.627218,39.578758
022d96c9902faca9b2077d76,万康小区-23号楼,河北省,廊坊市,广阳区,河北省廊坊市广阳区万庄镇南大街万康小区,,116.624926,39.577048
eb98e13aabaf9ecdc72ba17c,综一矿区万青小区13号,河北省,廊坊市,广阳区,综一矿区万青小区13号楼,,116.629312,39.580773
ed2d8b1dc84e14df71210bda,万青小区-16号楼,河北省,廊坊市,广阳区,河北省廊坊市广阳区综一矿区万青小区16号楼,,116.628812,39.579745
72e57fd76e321facf9dc85bf,北胡其营,河北省,廊坊市,永清县,兴业道南150米,,116.566516,39.455499
414974ff3c6b9efa88fc069a,雅园三区39号楼,河北省,廊坊市,广阳区,河北省廊坊市广阳区雅园三区39号楼,,116.625618,39.58702
5db0081dd5eec85b6e20b96a,综一矿区万春小区61号楼,河北省,廊坊市,广阳区,河北省廊坊市广阳区综一矿区万春小区61号楼,,116.623094,39.585797
1a886a876b6c4eeba3acc4b8,综一矿区万康小区24号,河北省,廊坊市,广阳区,综一矿区万康小区24号楼,,116.624736,39.577551
8b6f017b6dfe84b99a0050d6,综一矿区万春小区-11号,河北省,廊坊市,广阳区,综一矿区万春小区11号楼,,116.624329,39.583825
f745a1fe91e59e15cafa5f45,综一矿区万春小区-38号,,,,河北省廊坊市广阳区万庄镇友好街万春小区,,116.622835,39.581653
b4a2dfa902709d704f3a5988,综一矿区万康小区34号,河北省,廊坊市,广阳区,综一矿区万康小区34号楼,,116.623359,39.578551
bb560a1c90169a15afee7a21,万春小区-54号楼,,,,河北省廊坊市广阳区北大街与西环路交叉口西北100米,,116.623902,39.585234
eab8bdfd1b7b70e1c1f1cf01,串串家园,河北省,廊坊市,广阳区,廊坊市广阳区,,116.625855,39.58136
74c04ee176527199714b8750,万康小区-4号楼,河北省,廊坊市,广阳区,河北省廊坊市广阳区综一矿区万康小区4号楼,,116.627412,39.577818
f17c18e570f4c1dc0f3ddac1,综一矿区万青小区-34号,河北省,廊坊市,广阳区,综一矿区万青小区34号楼,,116.628356,39.581796
7028eae55cec9de1b35c6a3e,综一矿区万春小区-39号,,,,廊坊市广阳区,,116.622753,39.581953
fc6fa4db34d71d90932ca31e,综一矿区万青小区-25号,,,,廊坊市广阳区,,116.629578,39.581944
1b7f4c3726c96072c9fa5fc7,综一矿区万康小区35号,河北省,廊坊市,广阳区,综一矿区万康小区35号楼,,116.625409,39.579159
c476ff2f2d33170538221c75,综一矿区万康小区43号,河北省,廊坊市,广阳区,综一矿区万康小区43号楼,,116.623434,39.579644
32cbacd687cdfd10b13c81f4,万康小区-41号楼,河北省,廊坊市,广阳区,河北省廊坊市广阳区综一矿区万康小区41号楼,,116.623552,39.578935
0cc4fba8c1267118a2d2308b,万春小区-52号楼,河北省,廊坊市,广阳区,河北省廊坊市广阳区综一矿区万春小区52号楼,,116.621263,39.580999
abc88eee74bd42bfca1b9538,综一矿区万春小区-17号,河北省,廊坊市,广阳区,河北省廊坊市广阳区综一矿区万春小区17号楼,,116.624414,39.581921
69288762b5cd5215601c672d,综一矿区万青小区4号,河北省,廊坊市,广阳区,综一矿区万青小区4号楼,,116.630122,39.580381
26c60c5bbafe78e2a4c756c7,综一矿区万康小区39号,河北省,廊坊市,广阳区,综一矿区万康小区39号楼,,116.625159,39.58019
dc4a81b2796b20a288f15da7,雅园三区40号楼,河北省,廊坊市,广阳区,河北省廊坊市广阳区雅园三区40号楼,,116.625658,39.586663
0ed5910aaaa6c351ddee8b51,综一矿区万春小区56号楼,河北省,廊坊市,广阳区,河北省廊坊市广阳区综一矿区万春小区56号楼,,116.624131,39.585661
3531e7348d4f3404724b87a4,综一矿区万康小区25号,河北省,廊坊市,广阳区,综一矿区万康小区25号楼,,116.624689,39.577839
a490179edbb4ebbea1d230e3,综一矿区万春小区57号楼,河北省,廊坊市,广阳区,河北省廊坊市广阳区综一矿区万春小区57号楼,,116.624091,39.585912
6fef0267be4fab002fb17ef4,万青小区-19号楼,河北省,廊坊市,广阳区,河北省廊坊市广阳区综一矿区万青小区19号楼,,116.628134,39.579427
816d0da28fee8366100daa6d,综一矿区万青小区-33号,河北省,廊坊市,广阳区,河北省廊坊市广阳区,,116.628392,39.58152
5191910dfc81ddcb16c9050e,万康小区-11号楼,河北省,廊坊市,广阳区,河北省廊坊市广阳区综一矿区万康小区11号楼,,116.626687,39.577456
da4a7d4473c14d24725e808f,综一矿区万青小区-37号,河北省,廊坊市,广阳区,综一矿区万青小区37号楼,,116.628253,39.582568
4235f5f633d93c110e3dda65,综一矿区万春小区-29号,河北省,廊坊市,广阳区,河北省廊坊市广阳区综一矿区万春小区29号楼,,116.623602,39.582493
ad0b066f022c6645c0364449,综一矿区万青小区-36号,河北省,廊坊市,广阳区,综一矿区万青小区36号楼,,116.628288,39.582296
be1f22dd9411dd0f88fc06df,综一矿区万春小区-30号,河北省,廊坊市,广阳区,河北省廊坊市广阳区综一矿区万春小区30号楼,,116.623565,39.582782
570f7cd376d6f28408f5eb2f,综一矿区万春小区55号楼,河北省,廊坊市,广阳区,河北省廊坊市广阳区综一矿区万春小区55号楼,,116.62418,39.585401
70ea3e76f9ec9c5696ca0742,综一矿区万春小区-31号,河北省,廊坊市,广阳区,河北省廊坊市广阳区综一矿区万春小区31号楼,,116.623527,39.583071
bf866620a921cdf1c42ba1b6,综一矿区万春小区-6号,河北省,廊坊市,广阳区,河北省廊坊市广阳区,,116.62458,39.582283
9393d4435f7dc3702bd7ab00,综一矿区万青小区-35号,河北省,廊坊市,广阳区,综一矿区万青小区35号楼,,116.628331,39.581991
9fcdc892446a5e355e17c31b,综一矿区万康小区33号,河北省,廊坊市,广阳区,综一矿区万康小区33号楼,,116.623407,39.578269
7508b0d64f2a0b8ee812e4c1,综一矿区万春小区-4号,河北省,廊坊市,广阳区,综一矿区万春小区4号楼,,116.624687,39.581709
5f42a4937999f98180a00c2c,万康小区-21号楼,河北省,廊坊市,广阳区,河北省廊坊市广阳区综一矿区万康小区21号楼,,116.625394,39.578796
98577e7fb4a6a05c2b3a9f23,综一矿区万春小区-32号,河北省,廊坊市,广阳区,河北省廊坊市广阳区综一矿区万春小区32号楼,,116.623485,39.583405
b7d26ea8a380a35c17b54b0e,综一矿区万青小区5号,河北省,廊坊市,广阳区,综一矿区万青小区5号楼,,116.630081,39.580621
033400effd1b1b111c3894ba,万春小区-59号楼,河北省,廊坊市,广阳区,河北省廊坊市广阳区综一矿区万春小区59号楼,,116.623169,39.58527
5b692e12fe74db55cf06a43b,综一矿区万青小区3号,河北省,廊坊市,广阳区,综一矿区万青小区3号楼,,116.630161,39.58014
54aac895c0dfde87223bf23f,综一矿区万康小区49号,河北省,廊坊市,广阳区,综一矿区万康小区49号楼,,116.622629,39.579902
c676443c22b85d94fe0eb0be,万春小区-1号楼,河北省,廊坊市,广阳区,河北省廊坊市广阳区综一矿区万春小区1号楼,,116.625107,39.580928
8bef892e3d045d3f32f71d09,综一矿区万春小区-43号,河北省,廊坊市,广阳区,河北省廊坊市广阳区综一矿区万春小区43号楼,,116.622584,39.583311
b8d29c5ea46d4ba5d7851f9d,综一矿区万康小区36号,河北省,廊坊市,广阳区,综一矿区万康小区36号楼,,116.625361,39.579433
2bb66843f75ed6e73ce231db,万青小区-15号楼,河北省,廊坊市,广阳区,河北省廊坊市广阳区综一矿区万青小区15号楼,,116.62885,39.57951
4c2d2addf8b84b7a5bf6beca,综一矿区万春小区60号楼,河北省,廊坊市,广阳区,河北省廊坊市广阳区综一矿区万春小区60号楼,,116.62312,39.585535
b585b468cf81daf59ee32101,万康小区-45号楼,河北省,廊坊市,广阳区,河北省廊坊市广阳区综一矿区万康小区45号楼,,116.623306,39.580352
6373b61c3d5c6e054c6d4678,综一矿区万康小区37号,河北省,廊坊市,广阳区,综一矿区万康小区37号楼,,116.625309,39.579697
6b9484f8970a83262bd7ab71,万康小区-19号楼,河北省,廊坊市,广阳区,河北省廊坊市广阳区综一矿区万康小区19号楼,,116.625599,39.577422
88a136053d59e5e7770269c2,万青小区-17号楼,河北省,廊坊市,广阳区,河北省廊坊市广阳区综一矿区万青小区17号楼,,116.628776,39.579979
1a5771c4684337f960180917,综一矿区万怡小区2号,河北省,廊坊市,广阳区,综一矿区万怡小区2号楼,,116.629931,39.576432
f6a36639ed9ef98f40ab9a10,综一矿区万春小区-7号,河北省,廊坊市,广阳区,友好街与西环路交叉口西50米,,116.624518,39.582736
ed33d8ba23c869151df74da4,综一矿区万康小区9号,河北省,廊坊市,广阳区,综一矿区万康小区9号楼,,116.626767,39.576925
19a056ed01a863b28c1a89fb,万春小区-58号楼,河北省,廊坊市,广阳区,河北省廊坊市广阳区综一矿区万春小区58号楼,,116.623213,39.585018
5f5e0112551e855beee4a5c6,综一矿区万春小区-33号,河北省,廊坊市,广阳区,河北省廊坊市广阳区综一矿区万春小区33号楼,,116.623447,39.583703
43a8360652a11e4d2b06ce00,综一矿区万康小区5号,河北省,廊坊市,广阳区,综一矿区万康小区5号楼,,116.627328,39.578243
219508b412b7a2b01ce9999f,综一矿区万春小区-19号,河北省,廊坊市,广阳区,河北省廊坊市广阳区综一矿区万春小区19号楼,,116.623693,39.582509
f13d2747bb868a97c51e5116,万春小区-46号楼,河北省,廊坊市,广阳区,河北省廊坊市广阳区综一矿区万春小区46号楼,,116.621254,39.581294
7eaa7d37d216dc480f0a703b,万康小区-44号楼,河北省,廊坊市,广阳区,河北省廊坊市广阳区综一矿区万康小区44号楼,,116.623366,39.580004
5e70292dfca65a7bd12dd617,万康小区-3号楼,河北省,廊坊市,广阳区,河北省廊坊市广阳区综一矿区万康小区3号楼,,116.627429,39.577551
8e9d5c0e0f5f6ffea7c7561c,万春小区-6号楼,河北省,廊坊市,广阳区,河北省廊坊市广阳区综一矿区万春小区6号楼,,116.624831,39.582324
4152f5d61785ffb988db738b,万春小区-3号楼,河北省,廊坊市,广阳区,河北省廊坊市广阳区综一矿区万春小区3号楼,,116.625005,39.581481
d73db4060521cfe640afe61c,综一矿区万春小区-44号,河北省,廊坊市,广阳区,河北省廊坊市广阳区综一矿区万春小区44号楼1,,116.622539,39.583607
f9c6ce31161acf2fb817e7a1,综一矿区万春小区-15号,河北省,廊坊市,广阳区,河北省廊坊市广阳区,,116.624527,39.581384
0c7d966f2cbd50a35fbe860a,综一矿区万春小区-3号,河北省,廊坊市,广阳区,河北省廊坊市广阳区,,116.624736,39.58145
ce382501a31bf1e3f02d83a2,综一矿区万春小区-13号,河北省,廊坊市,广阳区,河北省廊坊市广阳区,,116.624644,39.580831
2e6e4f1c3fee5baee115f9d3,综一矿区万春小区-14号,河北省,廊坊市,广阳区,河北省廊坊市广阳区,,116.624584,39.581114
cc184c3741dc28e1ea1e975e,综一矿区万青小区-40号,,,,廊坊市广阳区,,116.626976,39.583439
9d8f0713ae989463f8f0cb49,综一矿区万青小区-41号,,,,廊坊市广阳区,,116.626899,39.583797
db9e3c4105ae0889130daadc,综一矿区万青小区-39号,,,,廊坊市广阳区,,116.627026,39.583211
6d1c39be82d178eb00ff2dc6,综一矿区万青小区-28号,,,,河北省廊坊市广阳区万青小区(友好街南),,116.629455,39.582742
07c37ad2d7429d06b42655ad,综一矿区万春小区-36号,,,,廊坊市广阳区,,116.623008,39.581025
896acbeb3819b6be130daaf7,综一矿区万春小区-25号,,,,廊坊市广阳区,,116.623196,39.580654
5e2f939d87a0fa183904b1ea,综一矿区万春小区-37号,,,,廊坊市广阳区,,116.622924,39.581327
6eb787d4954f616fd13ce38a,综一矿区万青小区-30号,,,,廊坊市广阳区,,116.628369,39.582384
cc184c3741dc28e1ea1e975e,综一矿区万青小区-40号,,,,廊坊市广阳区,,116.626976,39.583439
b01502b1b44e8eac14948e07,综一矿区万康小区-42号楼,,,,河北省廊坊市广阳区万康小区(振兴街北),,116.623439,39.579244
6f47866312aecdae5a3ac8dc,综一矿区万青小区-12号楼,,,,河北省廊坊市广阳区万青小区(凤仪道南460米),,116.629782,39.580625
61adbad282ce655b130daa11,江南水郡,河北省,廊坊市,安次区,迎宾大道与西外环交叉口北侧,,116.669492,39.519616
4b4c9850ced2344f932ca331,旭辉十九城邦,河北省,廊坊市,广阳区,河北省廊坊经济技术开发区东方大学城四光道8号,,116.758242,39.619863
fd13a3f27d000dfab1077df6,金泰花园小区,河北省,廊坊市,广阳区,河北省廊坊市广阳区新源道188号,,116.740637,39.55539
6835e3a798fd7b4ee31103f6,锦绣家园,河北省,廊坊市,广阳区,河北省廊坊市广阳区新开路与广阳道交口处,,116.727297,39.543965
ff29fb1172acb3876140a946,紫云轩小区,河北省,廊坊市,广阳区,廊坊市广阳区光明东道56号,,116.730493,39.519615
2c3893fde033900e2ffaa70e,京华佳苑,河北省,廊坊市,广阳区,河北省廊坊市广阳区银河北路廊坊市南尖塔镇政府西300米,,116.703762,39.571962
c890ba857a8714f9f503b8e4,盛世嘉华小区,河北省,廊坊市,广阳区,河北省廊坊市广阳区南尖塔镇北凤道盛世嘉华,,116.695011,39.552448
0e03684065cf76d333169ba4,花语馨苑,河北省,廊坊市,广阳区,廊坊市祥云道与建设北路交汇北侧200米,,116.714682,39.56692
7477730c1c7021fc75e5b6b4,跃界花园,河北省,廊坊市,广阳区,河北省廊坊市广阳区凤鸣道与紫衫路交汇处西南侧,,116.658935,39.594411
789f724f360527860869d946,首开国风悦都,河北省,廊坊市,安次区,河北省廊坊市安次区首开・国风悦都(富余道北),,116.726033,39.48205
c40b5423628feccbf4eafc64,华为公寓,河北省,廊坊市,广阳区,凤鸣道与橙桔路交叉口西100米,,116.683331,39.596998
4b6f4703c16df47a2806ced5,金地小区,河北省,廊坊市,广阳区,河北省廊坊市广阳区建设北路181,,116.717284,39.554969
3be122e127e9b5521ef74df6,常青家园,河北省,廊坊市,安次区,金光道与银河路交口路西,,116.697482,39.523994
5ba46a5c197b76166268582e,臻丽家园,河北省,廊坊市,安次区,廊坊市安次区光明西道210号,,116.676656,39.51959
c21db9e59640b7fd00ff2de7,俪水嘉园,河北省,廊坊市,广阳区,东环路121号,,116.744776,39.526861
9fbfeef2dec6e945ede4a5f7,新奥世纪花园,河北省,廊坊市,广阳区,新开路227号,,116.72758,39.542251
5b6b3dab39614ba06d20b90a,蓝波御景,河北省,廊坊市,安次区,河北省廊坊市安次区永兴路蓝波御景小区(盛德花园北100米),(0316)2684888,116.693558,39.511426
92b806d29b139efe79b55cf6,管道局新六区,河北省,廊坊市,广阳区,解放道135号新六区院内东2楼,,116.734228,39.52121
913f892c06e5d849dbecedf3,港升美丽园,,,,河北省廊坊市广阳区金星道,,116.733418,39.514494
0b5c7f3eeab6c7e90c0a70eb,荣盛花语城,河北省,廊坊市,广阳区,廊坊市广阳区大学城1期,,116.760277,39.606339
4c529158af83acd7364aae64,恒基惜缘花城,河北省,廊坊市,广阳区,解放道188,,116.745878,39.525173
888108c6f8f88e05ddee8b4f,银河嘉苑,河北省,廊坊市,安次区,廊坊市安次区常青路k2,,116.70054,39.502789
2eab1cdfd3860951b1077d3a,康乐家园,河北省,廊坊市,广阳区,河北省廊坊市广阳区爱民东道康乐花园南门,,116.731036,39.536992
264b4855dadcfbe87dc87628,盛德金地,河北省,廊坊市,广阳区,河北省廊坊市广阳区阿尔卡迪亚北凤道紫金城(和平丽景西),,116.725356,39.556112
b1c556e8b754930cb42655f6,鼎兴公寓,河北省,廊坊市,广阳区,广阳道33号,,116.721325,39.544003
ea74aa318a6364d68a36ee9b,外宾公寓,河北省,廊坊市,广阳区,开发区汇源道与四海路交口,,116.769219,39.575254
4edf9fbfe21c0d94cc06a4f7,天域花园,河北省,廊坊市,广阳区,新开路118号,,116.725075,39.536411
0022de8ecac324551c1d114f,锦瑞尚城,河北省,廊坊市,广阳区,廊坊市广阳区解放道211号,,116.745339,39.523102
a09fb382073165cf8c1a8942,春和花园,河北省,廊坊市,广阳区,建设路180号,,116.719221,39.535776
d3db458b48ffdee6ee74f8ec,王寨小区,河北省,廊坊市,广阳区,廊坊市广阳区建国道420号,,116.741707,39.526758
c05c6f52a1427c76b5f42fe1,燕丰园,河北省,廊坊市,广阳区,廊坊市广阳道228号(燕青大厦附近),,116.693649,39.542593
2a7a25ec14100e636c3e1bf4,前锋小区,河北省,廊坊市,安次区,廊坊市安次区常甫路93号,,116.716818,39.505933
72aa2513f7171639077ce8fd,馨钻界,河北省,廊坊市,广阳区,建国道214号,,116.720074,39.524921
b3aa435d0cedc47614764394,旭景花园,河北省,廊坊市,广阳区,河北省廊坊市广阳区旭景花园(新世纪步行街第六大街北),,116.699682,39.540006
79cceb361dedb0891e5800f6,金元小区,河北省,廊坊市,广阳区,薛南路南侧与金桥小区交口,,116.73678,39.551468
d1b456a4c7b96b4a15c90540,万欣小区,河北省,廊坊市,广阳区,河北省廊坊市广阳区凤仪道与东环路交叉口西南侧,,116.636481,39.584684
1328204d1357069f3913fd0c,管道局五区,河北省,廊坊市,广阳区,广阳新开路与开平街交口南侧,,116.724893,39.52011
37d60a46abe1d2601e1d11f6,牡丹苑,河北省,廊坊市,广阳区,新世纪步行街第二大街38号,,116.730009,39.542507
b3fa89cf497f7af448fc8d67,万怡小区,河北省,廊坊市,广阳区,河北省廊坊市广阳区万怡小区(京廊路西60米),,116.631141,39.575641
1dace860832c9d5f7af79675,馨视界花城,河北省,廊坊市,安次区,河北省廊坊市安次区馨视界・花城(爱民西道南150米),,116.659981,39.525421
a3e8341c943067954afd3ff6,益民花园,河北省,廊坊市,广阳区,河北省廊坊市广阳区和平路11,,116.738186,39.508065
1296cb6e1813d0f4b320a8c3,宸阳岛小区,,,,河北省廊坊市广阳区东安路晨阳岛附近,,116.742594,39.540093
480b24d0d8e688f19cec2bf6,新城小区,河北省,廊坊市,广阳区,廊坊市广阳区银河北路39号,,116.706852,39.527074
866c33a352e5dfb50f3ddae9,春和花园-南区,河北省,廊坊市,广阳区,爱民东道79号,,116.717631,39.53282
207225c1aa014189c4f02545,汇源名居-西区,河北省,廊坊市,安次区,河北省廊坊市安次区永华明珠光明西道汇源名居西区,,116.700957,39.520884
8cba4bb070378184ad0457f6,德仁新苑,河北省,廊坊市,安次区,廊坊市安次区光明西道109号,,116.680958,39.516944
cdf1999228cb2dfa9e82ea5e,新新小镇,河北省,廊坊市,安次区,廊霸线附近,,116.694077,39.481569
5c56edd6d40fd45aa1d230f6,新源小区,河北省,廊坊市,广阳区,廊坊市广阳区新源道69号,,116.720315,39.549564
753c9405d1a279ce1d58009d,万和北区,河北省,廊坊市,广阳区,河北省廊坊市广阳区裕华路230号,,116.690132,39.546951
24d05508dca3b9af128824f6,新奥小区,,,,廊坊市广阳区广阳道6号,,116.735026,39.546697
a58ae63d3e97e2b2c4f50d1d,蓝多廊公寓,河北省,廊坊市,广阳区,河北省廊坊市广阳区友谊路33号,,116.767562,39.574886
fc4f75c654dd8dedbb17e71d,万和南区,河北省,廊坊市,广阳区,广阳道232号,,116.688735,39.544791
923ffd00ecb090b7d92f28f6,新华小区,河北省,廊坊市,广阳区,廊坊市广阳区新华路189号,,116.711704,39.543556
ae29791fef31585edc1e52d9,管道7区,,,,和平路30号附近,,116.73574,39.511076
1ee4cf5102c764f178f79623,香榭里舍小区,河北省,廊坊市,广阳区,廊坊市广阳区毕升路50号,,116.758877,39.615313
2a095946d7fb417d9a0050ff,廊坊规划建筑师之家,河北省,廊坊市,广阳区,经济技术开发区祥云道220号,,116.733004,39.565612
acaae2fe0341c01548cc4aa9,华夏名筑,河北省,廊坊市,广阳区,廊坊市广阳区广阳道105号,,116.688381,39.542207
09185c567438945df11937f6,新苑小区,河北省,廊坊市,安次区,永华道107号,,116.702733,39.508323
a3f21eeeb7a894442fb17ef6,今日家园,河北省,廊坊市,广阳区,和平路和安里9号,,116.736463,39.542858
ea248452371d2d20b817e76c,长富吉第,河北省,廊坊市,安次区,廊坊市安次区常甫路51号,,116.715572,39.508152
e962b774abdaced122022001,名人小区,河北省,廊坊市,广阳区,廊坊市广阳区永丰道235号,,116.732725,39.530501
a58963c30cb8d72b58109387,麻营小区,,,,河北省廊坊市广阳区G104(京福线),,116.70033,39.59636
da8602535f0da7a604fef53e,未来城,河北省,廊坊市,广阳区,廊坊市广阳区光明东道60号,(0316)2681234,116.741199,39.518494
5508504d5a53c7b5c7f0255f,康顺里小区,河北省,廊坊市,广阳区,廊坊市广阳区裕华路6号,,116.692457,39.53322
e40b5e136675ef04a5da39d8,管道局第三生活区,河北省,廊坊市,广阳区,金光道48号,,116.726824,39.52617
afe446797cf07d1759bbbc6f,尚都公馆,河北省,廊坊市,广阳区,解放道152号,,116.733507,39.52361
3dc9befdcb95346bbfa24094,建华里小区,河北省,廊坊市,广阳区,河北省廊坊市广阳区建华里小区(丰盛路东),,116.697918,39.539964
0d7aa02b41cac74bc356ace7,汇源锦城,河北省,廊坊市,广阳区,河北省廊坊市广阳区金光道40号,,116.719116,39.529063
fa7da3e896f2ed6242d63ef6,颖丽花园,河北省,廊坊市,广阳区,解放道127号,,116.732631,39.522081
3a0fbba8336ec03f9ee321f5,兴盛小区,河北省,廊坊市,安次区,河北省廊坊市安次区永兴路46号,,116.691601,39.525137
3bfcd36617d72cecc17da216,红星国际广场・东苑,河北省,廊坊市,安次区,河北省廊坊市安次区南环路,,116.722551,39.498385
6b88b02f673f07c314c8f637,憩园新区,河北省,廊坊市,广阳区,友谊路99号,,116.768131,39.570242
6deee30818a6276a29fc48f6,百殿园,河北省,廊坊市,广阳区,"银河北路106号,六大街北侧",,116.703251,39.540513
c3f10a1cbeba5835b42655f3,新世界家园三区,河北省,廊坊市,广阳区,河北省廊坊市广阳区新世界家园三区(艺术大道南),,116.699675,39.560113
5ee46007e4dd5c8ab64f54c0,孔雀汇景轩西区,河北省,廊坊市,广阳区,河北省廊坊市广阳区艺术大道与裕华路交口东南侧,,116.691741,39.559546
c3a81ba1ea5993c77069d3ae,圣泰花园,河北省,廊坊市,广阳区,河北省廊坊市广阳区和平路39号,,116.736472,39.520109
fe5169f3db2c3a25bd484203,祥泰别墅,河北省,廊坊市,广阳区,廊坊市华祥路79号,,116.780493,39.573731
a76b8aa3ebac19c016c905bb,韩营小区,河北省,廊坊市,广阳区,河北省廊坊市广阳区经济开发区韩营小区(北凤道北),,116.739855,39.559641
a7fc5827e9d5c187aecb66aa,翠林洲,河北省,廊坊市,广阳区,祥云道108,,116.774556,39.573157
b8482bdcc1a6b75ba8f0cd8b,博泰公寓,河北省,廊坊市,广阳区,廊坊市广阳区光明东道53号,,116.733276,39.517998
750ec1650beb472b4c3a59f6,芳泽园小区,河北省,廊坊市,广阳区,新开路181号,,116.726892,39.536371
15d7d4e26bbb043cf82d6128,长安小区,河北省,廊坊市,广阳区,河北省廊坊市广阳区长安小区(解放道北),,116.719336,39.522347
132eb8b20eaa9d1125e0a01b,尚都新苑西区・董家村,河北省,廊坊市,广阳区,新开路,,116.724406,39.547976
7df11a51cffcf8d0ab0dd84e,康庄小区-东区,河北省,廊坊市,广阳区,河北省廊坊市广阳区康庄道24号,,116.722687,39.537841
69fcd6dfea2fe72fca2915f6,锦盛园小区,河北省,廊坊市,广阳区,群安道87号,,116.698978,39.535933
137de154c8ad0f067069d381,4210小区,河北省,廊坊市,广阳区,河北省廊坊市广阳区新华路201号4210,,116.713449,39.552909
c5ddcc08c94ef2c6d81318f6,圣泰新苑,河北省,廊坊市,广阳区,解放道166号,,116.739753,39.526342
5b25f44692f684ea102935f6,新财小区,河北省,廊坊市,广阳区,河北省廊坊市广阳区新华路209甲,,116.713647,39.554157
6fcb15464cee61ae2cfaa710,富苑小区,河北省,廊坊市,广阳区,建国道54号,,116.720219,39.523558
de7956ae6d7018d0c72ba100,万众里小区,,,,河北省廊坊市广阳区建国道214号,,116.719768,39.523862
85e4c09e03226f8b45e27444,春华里,河北省,廊坊市,广阳区,河北省廊坊市广阳区曙光道30号,,116.696884,39.534876
d31398ed1a1b72a51b94c643,万达小区,,,,廊坊市广阳区万达广场北区,,116.711292,39.528605
de220b88b2b0ae4deb12e47d,华祥里,河北省,廊坊市,广阳区,河北省廊坊市广阳区华祥里(和安里北50米),,116.734865,39.544162
7e975137f861a2e740afe683,德源华通小区,河北省,廊坊市,广阳区,建国道,,116.739806,39.527039
6db5877c5e7169a89d82ea1d,华阳小区,河北省,廊坊市,广阳区,新华路4号(保龙仓北),,116.713809,39.518469
593850fb5211e35ddf1e52f6,创新里南小区,河北省,廊坊市,安次区,河北省廊坊市安次区银河南路创新里南小区(豪邸・坊西南),,116.706845,39.515532
f38bf2e35954e7739e82ea99,汇源名居东区,,,,河北省廊坊市安次区汇源名居东区(银河南路西170米),,116.703761,39.520327
6e6f1d429e5076f330621248,中融.广阳道1号,,,,广阳道与东安路交口北行50米路西,,116.739732,39.547362
7038278dfc1f79928e77272c,蓝水湾-B区,河北省,廊坊市,广阳区,和平路188号,,116.730217,39.549454
425df2a52847eb601ef74d8d,孔雀公馆北区,河北省,廊坊市,广阳区,河北省廊坊市广阳区永兴北路与艺术大道交口西南侧,,116.683211,39.559252
72aaf3762b0df281f82d617a,尚都国际,河北省,廊坊市,广阳区,廊坊市广阳区新开路,,116.724456,39.547032
14cd7f5fd3b9187b9d95de09,艾力枫社・国际广场,,,,河北省廊坊市广阳区金源道艾力枫社,,116.763478,39.578194
305811422a55246f8b2fb524,新民里-13号楼,河北省,廊坊市,广阳区,河北省廊坊市广阳区新民里13号楼,,116.717249,39.549615
17af0b1a5c044afcf4231063,采四小区-北区,,,,河北省廊坊市广阳区采四小区(廊涿线南),,116.636824,39.569325
3d5d459679b2750826d2bb17,清河街小区,河北省,廊坊市,广阳区,开平街与清河街交叉口西北100米,,116.723693,39.521122
718ca40482658fad4c6d4656,逸品龙湾,,,,廊坊市安次区,,116.685373,39.487029
07e11d1894141cc0c909f051,平旺里小区,河北省,廊坊市,广阳区,河北省廊坊市广阳区光明东道53号,,116.73312,39.518293
d2f7b496c774c97c72210b35,东方大学城一期公寓,河北省,廊坊市,广阳区,廊坊市广阳区张衡道,,116.762018,39.604524
59383f2a1aa815ef725e8024,菜豆庄社区,河北省,廊坊市,安次区,廊坊市安次区永兴别墅底商5号,,116.690359,39.521654
29decbb3eb23392fbe4842f7,光明东里,河北省,廊坊市,广阳区,廊坊市广阳区光明东道56号,,116.731961,39.517665
7d206530c63ba739adcb6668,解放道管道局宿舍楼,河北省,廊坊市,广阳区,廊坊市广阳区解放道,,116.730109,39.52178
d03add3ec56f5faae6e96509,万春园东区,河北省,廊坊市,广阳区,西环路附近,,116.632863,39.575281
8a98558bfc5ed1322fb17eef,宏图里社区,河北省,廊坊市,广阳区,金光道77号勘探所大门西侧,,116.738587,39.528762
59a5b8b4e353a323d22dd69c,尚北金街,河北省,廊坊市,广阳区,廊坊市广阳区新华路146号,,116.71094,39.553828
22717425e7d6dfe6260bd019,天泰人和小区二期,河北省,廊坊市,广阳区,河北省廊坊市广阳区解放道天泰人和小区二期(市政大楼附近),,116.723256,39.51948
17cf4ae512f2724ef2193703,荣盛.四季花语1期,河北省,廊坊市,安次区,辛庄道荣盛・四季花语(廊坊华祥中医医院南)附近,,116.719553,39.508254
c81e68dcb4f9a2a8f4eafc61,新华南小区,河北省,廊坊市,广阳区,新华路17号1,,116.716686,39.520495
35a9d2bad963b847f82d6190,惠民小区,,,,辛庄道,,116.720829,39.5044
d9c2bca8c0bb1b3bbea24041,兴华小区,河北省,廊坊市,安次区,河北省廊坊市安次区光明西道172号,,116.691711,39.51942
262afcb199de1571c9c3db67,迎春路邮电楼,河北省,廊坊市,广阳区,迎春路与金光道交叉口北150米,,116.70744,39.526914
1c62c311c2a660786fc02c02,新民小区C区,河北省,廊坊市,广阳区,河北省廊坊市广阳区新民道新民小区C区(新民小区B东南),,116.71967,39.547815
0775dd24021b6173f90cade6,东方大学城-教师公寓,河北省,廊坊市,广阳区,大学城教育发展大厦与叶圣陶路交,,116.760076,39.603881
649f5ce8da583a8b9b68b480,平安小区,河北省,廊坊市,安次区,河北省廊坊市安次区光明西道144,,116.695708,39.519872
6081cefa298320144d776eab,城建里社区,河北省,廊坊市,广阳区,廊坊市广阳区荣福道19号,,116.71481,39.534521
1bf85b2568a8d1a4a1a934f6,兴盛公寓,河北省,廊坊市,广阳区,河北省廊坊市广阳区解放道106号,,116.719792,39.522084
32370cf7cc58a3b42806ce68,荣盛四季花语-2期,河北省,廊坊市,安次区,辛庄道21,,116.722644,39.506605
81b7dbabba4b63b3a8059df2,廊坊新世界中心-C区,河北省,廊坊市,广阳区,建设路144附近,,116.720131,39.533396
ae359da9480dca7f081cc73c,第7大街,,,,新世纪步行街第七大街南100米,,116.695116,39.538342
2e7c9b9f9149de9916764331,居阳里,河北省,廊坊市,广阳区,光明东道70号,,116.732579,39.519134
441b0d70cd5159775cd4fede,董村小区-A区,河北省,廊坊市,广阳区,河北省廊坊市广阳区广阳道,,116.720706,39.545382
06ecda531b0415614107c1bb,艾力枫社东区别墅,河北省,廊坊市,广阳区,河北省廊坊市经济技术开发区金源道,,116.754465,39.575667
58ebfc2c0e2e2539e5073870,圣泰新苑北区,,,,建国道418号甲,,116.739864,39.526327
e4cf75e35eee0376f72310e9,金城里,河北省,廊坊市,广阳区,"迎春路与金光道交口,安次区法院",,116.707151,39.524964
6d69d681804c20fe9222e05b,旭辉十九城邦94号楼,,,,河北省廊坊市广阳区旭辉十九城邦(京沪高速公路南),,116.758347,39.620797
13c2f084f2e9b22ba1a934e3,津元里,河北省,廊坊市,广阳区,廊坊市广阳区光明东道25号,,116.727871,39.517309
7089988cc5c7a1b6223bf22c,外贸宿舍楼,河北省,廊坊市,广阳区,河北省廊坊市广阳区新源天街新开路保龙仓超市公交站,,116.73005,39.513936
6ee01020ade186ef52e5c5f6,中国石油天然气管道局第七生活区,河北省,廊坊市,广阳区,河北省廊坊市广阳区和平路,,116.735604,39.510882
1890da560a23f1c6b04c492e,解放888小区,河北省,廊坊市,广阳区,廊坊市广阳区解放道172号,,116.741894,39.523947
7054701ee4469f66c8fa5fea,嘉通名苑小区,河北省,廊坊市,广阳区,河北省廊坊市广阳区银河北路嘉通名苑小区(大中广场西),,116.701687,39.526028
e5cece810b02dc775cbe864d,五大街外贸楼,,,,广阳五大街西头,,116.732142,39.527411
d38816c1f529fdeac72ba1d2,廊坊市爱心家园,河北省,廊坊市,广阳区,银河北路,,116.701212,39.55762
91ab61d09eba939f87154131,孔雀公馆南区,河北省,廊坊市,广阳区,河北省廊坊市广阳区永兴北路与艺术大道交口西南侧,,116.683734,39.557078
48eb00583ce68aad2fe67bf6,金地小区-西区,河北省,廊坊市,广阳区,建设北路312号,,116.716253,39.555288
9ae89c529794dc1e7bf79698,林园里,河北省,廊坊市,广阳区,光明东道,,116.730676,39.527455
e8b438310bff967b52e5c523,馨平公寓,河北省,廊坊市,广阳区,开平街与清河街交叉口南50米,,116.725419,39.519988
177aff59a392d65b72455b05,弘德家园,,,,廊坊市广阳区大学城2期李4光道168号,,116.749252,39.616643
11f19995c46de14a95ca0773,中央风景小区,河北省,廊坊市,广阳区,廊坊市广阳区文丰路2号,,116.712851,39.531219
8789b0ae4ef9d7cf077ce81b,农兴里,,,,廊坊市广阳区新华路144号,,116.711195,39.550832
202026adb5ab51ef283a9f9d,东新里,河北省,廊坊市,广阳区,永建路199号,,116.737197,39.530394
feb3b7b944e534290f0e6b90,长青社区,河北省,廊坊市,安次区,廊坊市安次区金光道,,116.69756,39.524316
63569c42207dcf6526e0a092,新民里,河北省,廊坊市,广阳区,河北省廊坊市广阳区建设北路,,116.715734,39.54833
c6ec7161a2f652cc43024529,艾力枫社高尔夫别墅,,,,京津塘高速采育出口清华科技园对面,,116.762221,39.578965
0c1218bf74bf793a6ca3ccdc,春阳路宿舍楼,,,,新开路51号,,116.732358,39.526498
005861080eff0aa546e274f6,金地小区东区,河北省,廊坊市,广阳区,建设北路181号,,116.71789,39.554763
71d98e5e3ac51a58b05c6a1f,东方大学城二期教师公寓A区,河北省,廊坊市,广阳区,河北省廊坊市广阳区旭辉十九城邦东方大学城二期教师公寓,,116.756422,39.620018
bc70e678f6dcfbed7dc876d3,富春里-2号楼,,,,廊坊市广阳区裕华路11号,,116.693791,39.534665
58a7315c4863b6f7e115f93e,建工里,河北省,廊坊市,广阳区,河北省廊坊市广阳区曙光道丰盛路路口北20米,,116.698794,39.534242
d8163dce8b6761e88bfc0654,O园,河北省,廊坊市,广阳区,裕华路附近,,116.688943,39.547598
6ea3804f70acfbbd0e0e6ba0,金兰苑,河北省,廊坊市,广阳区,金桥花园,,116.734801,39.554839
cf42023bdf337d2e14c8f6cd,物产集团丰盛楼,河北省,廊坊市,广阳区,爱民东道街道丰盛路17号,,116.698664,39.534944
b388f9fd2e8c5141b35c6af6,华秋里小区东区,河北省,廊坊市,广阳区,新世纪步行街第四大街附近,,116.718583,39.541314
a4d01201dc17c12c07026f64,管道局四区三十二栋,河北省,廊坊市,广阳区,河北省廊坊市广阳区解放道126号万方街管道局宿舍楼四区三十二栋,,116.726231,39.5227
befdb292cbadc49c86154194,中国石油天然气管道局第四生活区,河北省,廊坊市,广阳区,建国道与清河街交叉口南150米,,116.723553,39.523128
d94ab00842f17afde5e96537,华夏幸福城润园-7号楼,,,,河北省廊坊市广阳区南尖塔镇西昌路华夏・幸福城,,116.680828,39.548928
3f74828fd1981fc558f6bee4,金域蓝山,河北省,廊坊市,安次区,瑞丰路与辛庄道交叉口东南150米,,116.727654,39.503267
e303eab1ae09634e3617dccf,安次区农行家属小区,河北省,廊坊市,广阳区,爱民东道18号,,116.702451,39.530691
1a3863083fd1c7ee40e1922e,丰华里,河北省,廊坊市,广阳区,银河路116号,,116.703339,39.542662
066a3160fea8b985d618b70b,格林郡府30号楼,河北省,廊坊市,广阳区,格林郡府30,,116.742757,39.520058
c47b046f9e44d5cd38221c86,新欣里,河北省,廊坊市,广阳区,河北省廊坊市广阳区阿尔卡迪亚新源道廊坊市公安特警支队,,116.715067,39.550439
d01aab741bfa06ed2b3a9fa3,国际花园北区,河北省,廊坊市,广阳区,河北省廊坊市广阳区文苑街,,116.7387,39.538968
ed614535ae5cb920f02d8319,东方名邸,河北省,廊坊市,广阳区,河北省廊坊市广阳区友谊路139号,,116.769672,39.570829
c8bb20d784ff5b6d705e8069,金光道金安楼,河北省,廊坊市,广阳区,廊坊市广阳区金光道80号,,116.738033,39.529395
ed75f85a7a40bb0a9e95de7f,广阳区小区,河北省,廊坊市,广阳区,廊坊市广阳区新源道8号,,116.714565,39.550957
024e6d8f6323dae1f403b8f7,华夏奥韵小区24号楼,河北省,廊坊市,广阳区,河北省廊坊市广阳区华夏奥韵小区24号楼,,116.67734,39.551819
8d6bf4e72b26d3115d17c341,财政局宿舍小区,河北省,廊坊市,广阳区,群安街,,116.693661,39.537488
db266b1391729a8f8b2fb51c,常甫家园小区,河北省,廊坊市,安次区,常甫路51号,,116.714602,39.508625
4ff518b8c810ab95a4c75650,新奥艾力枫舍,,,,河北省廊坊市广阳区管委会北,,116.759373,39.572451
90ed6afb250c14a8a20464fd,艾力枫社西区别墅,河北省,廊坊市,广阳区,河北省廊坊市广阳区金源道,,116.737871,39.572141
a1413b3104e0bd3bab175a93,金昌综合楼,河北省,廊坊市,广阳区,金光道89,,116.733132,39.526836
e64c92c3c455f0ca15a19066,运通家园-2号楼,,,,河北省廊坊市广阳区运通家园2号楼,,116.737974,39.516732
017c87d55ca5ebc1fd0eb08a,康宁街社区,,,,文明路与爱民东道交叉口东南150米,,116.710171,39.531716
cb0c3abbf81f915c921fc9ac,集宁小区-37号楼,河北省,廊坊市,广阳区,文丰路与爱民东道交叉口北150米,,116.711896,39.534028
fa15a442b613df8c430245ea,怡景花园小区-东门,河北省,廊坊市,广阳区,河北省廊坊市广阳区阿尔卡迪亚新源道怡景花园小区东门,,116.715921,39.549668
653108582d3d9fb3c336447b,锦瑞尚城-1号楼,,,,廊坊市广阳区解放道211号,,116.745275,39.523337
af94d7dc684c0bdcf32d83af,丽都二期,河北省,廊坊市,广阳区,廊坊市广阳区爱民东道,,116.724635,39.53345
ed34e9b6c8abec99bea240eb,新民小小区-A区,,,,河北省廊坊市广阳区建设北路与新民道交叉口西150米,,116.717456,39.548108
38e40ec62342b840704b8771,玛歌庄园,河北省,廊坊市,广阳区,新开路2-70附近,,116.730211,39.518972
a1c7354cd93b35f6d8ecedb4,群星小区曙光楼,河北省,廊坊市,广阳区,曙光道18号,,116.701572,39.533978
795e1dad21cd316cca09f034,政法小区-2号楼,,,,河北省廊坊市广阳区政法小区2号楼,,116.699167,39.545754
1d788291e188ac69b21e363b,蓝水湾小区A区,,,,河北省廊坊市广阳区尚都国际住宅小区B区蓝水湾小区A区,,116.730282,39.54779
ce7abbb83dd167566b49f392,安泰小区-14栋,,,,河北省廊坊市安次区永华道街道永兴路安泰家园,,116.691232,39.51209
2271a4173da27ca8acee7a8a,格林郡府-D区,河北省,廊坊市,广阳区,河北省廊坊市广阳区格林郡府23号楼(东安路西),,116.741779,39.520842
9945dc997ec639f80aa8d4d2,画家村3栋,河北省,廊坊市,广阳区,河北省廊坊市广阳区画家村3栋(人民公园北70米),,116.707353,39.539525
3b694beef54a5a8231870a02,园林楼小区,,,,廊坊市广阳区华夏里北50米,,116.715384,39.542178
76482abce2aa9b741b94c6de,荣盛・塞纳荣府-67号楼,,,,河北省廊坊市广阳区经济开发区荣盛・塞纳荣府,,116.779035,39.568551
ec2ba4a99fef8839fa0cad9c,盛德花园-6号楼,河北省,廊坊市,安次区,河北省廊坊市安次区盛德花园6号楼(永华道北90米),,116.696803,39.511155
f1da7235be4a4f16373a71bc,盛都时代广场,河北省,廊坊市,广阳区,河北省廊坊市广阳区银河北路盛都时代广场(眉州东坡酒楼北),,116.705306,39.524809
6083c485bf4cde62ae080f02,晓廊坊-5号楼,河北省,廊坊市,广阳区,河北省廊坊市广阳区晓廊坊5号楼,,116.718304,39.518236
dbd8c05333dd5003ddee8b47,新华广场-4号楼,,,,廊坊市广阳区新华路89号,,116.715617,39.530907
96f799f8c5d24a3b3517dc77,师院东院家属楼,,,,河北省廊坊市安次区爱民西道100号,,116.685813,39.530526
b00e32874dae6003ebe5820f,新华广场-7号楼,,,,廊坊市广阳区新华路89号,,116.714795,39.531555
3617c0e628e4a304dbd8911d,百年小区,河北省,廊坊市,广阳区,廊坊市广阳区银河北路102号,,116.703741,39.540115
657401809688fd8a5d17c370,尚华城-6号楼,,,,河北省廊坊市安次区尚华城一期6号楼,,116.700498,39.51377
42a346c1b0f774f5ee74f828,紫金华府-5号楼,,,,廊坊市广阳区新源道119号,,116.72526,39.550611
7c1b9ebb1b5ca2e3c91b958b,金光道2区,,,,新开路与金光道交叉口北200米,,116.726683,39.529172
1f4917bfdd904924f503b8b3,阳光逸墅-7栋,,,,河北省廊坊市安次区阳光逸墅7栋,,116.723849,39.5013
c34259333b4601aa5a3ac8e3,爱贝花早教中心,河北省,廊坊市,广阳区,北凤道底商(和平丽景小区北门西侧),,116.727245,39.556533
68a0337a17e002ee88b988df,晓廊坊-13号楼,河北省,廊坊市,广阳区,河北省廊坊市广阳区晓廊坊13号楼,,116.719645,39.519486
3ff62b1628b7f833213bf23b,金泰小区18号楼,,,,耀华道西200米,,116.741079,39.5547
117b572ba117c0a32efaa7b7,尚都国际一期,河北省,廊坊市,广阳区,河北省廊坊市广阳区建设北路91附近,,116.722183,39.54739
60d554d909efd298ebe582f1,新华小区1-1号,,,,新华小区1-1号楼,,116.712433,39.543473
7605ba71e1c74a6b7f29bd6e,文化局宿舍,,,,广阳道65号,,116.710142,39.544075
f36e2f71fd0da74e9cec2b4d,华意楼,河北省,廊坊市,安次区,河北省廊坊市安次区华意楼(明珠大厦北100米),,116.705457,39.510533
234ecd708a46b1f72bd7ab12,紫悦府,,,,河北省廊坊市广阳区和平路54号,,116.734529,39.525116
4af5dce5bc5be2cfbf4842b9,大家新城-二期,河北省,廊坊市,安次区,河北省廊坊市安次区大家新城二期(273省道旧南),,116.70524,39.485813
0bd0b98cb0cc849ef603b845,金华里-6号楼,,,,河北省廊坊市广阳区金三角小区金华里6号楼,,116.707553,39.523426
51daf8376496ab0d077ce8b7,建新宿舍楼,河北省,廊坊市,广阳区,廊坊市广阳区建国道402号,,116.737571,39.526918
6c5a8820fe7f1d856c3e1b96,北昌・西队新苑东区,,,,金光西道附近,,116.680048,39.524181
fa33c8534b5151a08bb9881a,华元和庭-9号楼,,,,廊坊市广阳区光明东道72号,,116.733114,39.520383
d379bc5036404edec61e51bb,专家公寓,北京市,北京市,通州区,天佑路附近,,116.750594,39.622254
a19fd2dd13c69a1143ab9a56,解放道纺织楼,河北省,廊坊市,广阳区,廊坊市广阳区解放道150号,,116.73272,39.523283
fd0e4fee7696ffbaa1d23038,康庄小区-33号楼,河北省,廊坊市,广阳区,河北省廊坊市广阳区康庄小区33号楼,,116.722234,39.538943
79537089ff834dcb51e5c5dc,盛世弘德,河北省,廊坊市,安次区,廊坊市安次区永兴路,,116.693502,39.509921
853e9762df0c0e1e6849f3a9,康庄小区-34号楼,河北省,廊坊市,广阳区,河北省廊坊市广阳区康庄小区34号楼,,116.724022,39.538706
6642f907265d0e847dc8764f,建华里8号楼,,,,建华里8栋,,116.697498,39.539573
7961fc378e34da343310aff4,晓廊坊-6号楼,河北省,廊坊市,广阳区,河北省廊坊市广阳区晓廊坊6号楼,,116.718198,39.518805
de8307579badd3ddc72ba112,东日瑞景东区3号楼,,,,河北省廊坊市广阳区东日瑞景东区3号楼,,116.686758,39.551974
d73ce98132a5cf5d86420e0d,馨境界西区-10号楼,河北省,廊坊市,广阳区,廊坊市广阳区永兴北路70号,,116.685438,39.539802
6e97b40764082d98f7b916a5,润园14号楼,,,,河北省廊坊市广阳区永兴北路,,116.68216,39.548788
ffd6d403635d6d8f17b54bf6,安和园,河北省,廊坊市,广阳区,昆仑宾馆附近,,116.721045,39.520391
2dd081658111d822b42655bc,华祥里-8号楼,河北省,廊坊市,广阳区,河北省廊坊市广阳区华祥里8号楼,,116.73522,39.543478
fbc34408ac99b57bf603b82a,新源小区-3号楼,,,,新源道69号,,116.720987,39.549926
745e3b7c94afc524f5eafc36,金泰花园小区-19号楼,,,,北凤道188号,,116.740638,39.555055
215cda24f004401429201a71,盛德花园-四期,河北省,廊坊市,安次区,永华道139-19号附近,,116.694423,39.509629
6b70643b618aca508d772770,金华里-7号楼,,,,河北省廊坊市广阳区金三角小区金华里7号楼,,116.706726,39.52375
878ff2d7a14a3d4d07026f4b,综一矿区万乐小区-8号,河北省,廊坊市,广阳区,综一矿区万乐小区8号楼,,116.637094,39.583382
874b70b313797baf51e5c5ec,安华里-一号楼,河北省,廊坊市,广阳区,银河北路80号,,116.704322,39.534231
df45bb11808ea5bd9e82eab9,市委党校3号楼,河北省,廊坊市,广阳区,廊坊市广阳区新华路169号,,116.714505,39.541597
c727474fac18e2d923f0176c,新源小区-1号楼,,,,河北省廊坊市广阳区新源小区1号楼,,116.720832,39.550272
81168988cb0c17a4e2110394,银河领域-二期,河北省,廊坊市,广阳区,河北省廊坊市广阳区广阳道银河领域二期(林苑小区南100米),,116.705806,39.547036
957d2ac8d9bbdfa7ebe5826a,裕华路社区,,,,廊万路康顺里小区西南100米,,116.691669,39.531826
bb05d0df2f2ccf2e17c8f65c,管道局新六区-9号楼,,,,河北省廊坊市广阳区管道局新六区9号楼,,116.734815,39.519814
e3b48f49083843fe4151c0f1,政法小区-7号楼,,,,河北省廊坊市广阳区政法小区7号楼,,116.697605,39.545506
13a18067e4f670fef32d83a8,星海,,,,河北省廊坊市广阳区新华路与金光道交叉口西北50米,,116.714718,39.527
36a0b58a6da0b50885420eca,富春里-4号楼,,,,廊坊市广阳区裕华路11号,,116.693731,39.535061
e33499afc25361ddcafa5f2f,晓廊坊-1号楼,河北省,廊坊市,广阳区,河北省廊坊市广阳区晓廊坊1号楼,,116.717401,39.518193
05a9be4baa5aa7bbb3077d7b,东日瑞景东区5号楼,,,,河北省廊坊市广阳区东日瑞景东区5号楼,,116.689475,39.552456
53cb12265995bac5ecdfca8c,中国石油天然气管道局第三生活区东区,,,,河北省廊坊市广阳区新开路管道局宿舍楼,,116.726572,39.526134
c961a973f537ebf78a36eeb1,阳光佳和A2号,河北省,廊坊市,广阳区,耀华道98号附近,,116.745414,39.559446
3c69418e3aaf19cb1d1d1162,新华广场-1号楼,,,,河北省廊坊市广阳区新华广场1号楼,,116.714867,39.53095
78a835a0320ce6e71ff74dc2,东日瑞景东区,,,,河北省廊坊市广阳区南尖塔镇北凤道东日瑞景西门,,116.685947,39.55238
11b41860857314aa4d554732,新源小区-6号楼,,,,廊坊市广阳区新源道69号,,116.721055,39.549655
07839a1d962dcdc2128824c6,华元和庭-8号楼,,,,廊坊市广阳区光明东道72号,,116.732391,39.52069
b53546511e4d58cc5c17c360,臻丽家园-7号楼,,,,河北省廊坊市安次区臻丽家园7号楼,,116.675713,39.519953
466692a5cc38477693114c74,金光小区-8号楼,,,,河北省廊坊市广阳区金光小区8号楼,,116.718116,39.525963
1a57a12a15acaf1438221cac,江南水郡-3号楼,河北省,廊坊市,安次区,河北省廊坊市安次区江南水郡3号楼,,116.668357,39.518757
7418ba8107b8f96fd2f49e59,世锦名城-20栋,,,,河北省廊坊市广阳区东安路锦瑞尚城旁,,116.744993,39.522233
f5cc73fa34f29486b75f1e09,豪邸坊-3号楼,,,,河北省廊坊市安次区豪邸・坊3号楼,,116.709091,39.51733
f20e16232e8c82d18bb988a6,富强小区-1号楼,,,,河北省廊坊市安次区富强小区1号楼,,116.709441,39.510549
61b984150344c0c80bccddef,管道局八区南区,,,,河北省廊坊市广阳区新世纪步行街第一大街管道八区南区,,116.737483,39.53881
b1b3b0bf742b5e582efaa708,万向城7号楼,,,,河北省廊坊市广阳区万向城7号楼,,116.688928,39.540578
3b011b69574defe749fd3f9d,运通家园-5号楼,,,,河北省廊坊市广阳区新源天街光明东道运通家园,,116.738651,39.517138
b59f01963c91cd3a95ca0720,江南水郡-11号楼,河北省,廊坊市,安次区,河北省廊坊市安次区江南水郡11号楼,,116.67096,39.519995
b9c07f5b2539b653d13ce3a9,华夏幸福城润园S5A,河北省,廊坊市,广阳区,河北省廊坊市广阳区,,116.684604,39.550325
2b7c10116d8a360c9b68b4e4,康庄小区-20号楼,,,,康庄小区20号楼,,116.721195,39.537706
a6d852f239107f7c343a7130,站前社区,河北省,廊坊市,广阳区,河北省廊坊市广阳区解放道与迎春路交叉口东北100米,,116.70967,39.521803
425558905db95f3a465726c2,新星里小区-14号楼,,,,河北省廊坊市广阳区新星里小区14号楼,,116.707023,39.550814
fb0d65ef2e12fa7a71210bc1,郡望,河北省,廊坊市,广阳区,河北省廊坊市广阳区广阳道与东安路交叉口(九中附近),,116.739889,39.546308
d139af73be2c6b13744ff161,河畔公寓,河北省,廊坊市,广阳区,东方大学城,,116.762133,39.609698
56ad5d78061de3f61b11d5e5,裕华小区-北区-7号楼,河北省,廊坊市,广阳区,裕华小区7号楼裕华小区7号楼,,116.697516,39.537322
1c78238453ba94d5c2f1cff5,廊坊科通嘉园小区,,,,光明西道111号,,116.679349,39.516327
85579821d19866a5b6147f30,综一矿区万乐小区1号,河北省,廊坊市,广阳区,综一矿区万乐小区1号楼,,116.637577,39.582411
82af94ec1124b954343a71c0,文明里-2号楼,河北省,廊坊市,广阳区,文明里2号楼,,116.709106,39.531859
7d22e9a3c85eac14a80dd80e,憩园新区-3号楼,,,,河北省廊坊市广阳区憩园新区(憩园小区南),,116.770276,39.571007
f443d9010f58fcbc4e5547fb,东方家园-11栋,河北省,廊坊市,广阳区,河北省廊坊市广阳区东方家园11栋,,116.752371,39.523506
ed58e51c63de0396c9c3db49,迎春小区2号楼,,,,廊坊市广阳区迎春小区2号楼,,116.707985,39.531788
d8284032655391e331f71d76,王寨小区-1号楼,,,,河北省廊坊市广阳区王寨小区1号楼,,116.740704,39.526253
ef00da0b157c33419122e0d4,君正云顶花苑,河北省,廊坊市,广阳区,广阳和平路与益民道交汇处东200米,,116.738079,39.50921
00b47f243f3b010ec4f50d15,颖丽花园-1号楼,河北省,廊坊市,广阳区,廊坊市广阳区解放道127号,,116.733065,39.522405
9bc3fe67892063987369d3db,汇源锦城小区南门,河北省,廊坊市,广阳区,金光道40号西侧,,116.71899,39.527846
e29abb2c08495c5a0bf5ebbe,盛德花园-5号楼,河北省,廊坊市,安次区,河北省廊坊市安次区盛德花园5号楼,,116.6972,39.507936
630698d67414c9523ce23127,祥泰花园-6号楼,,,,河北省廊坊市广阳区祥泰花园6号楼,,116.782917,39.574062
e4588f9c0e1c79f9fbdc855d,豪邸坊-8号楼,,,,河北省廊坊市安次区豪邸・坊8号楼,,116.706929,39.516564
44c5c1076d23352c2bd7ab23,豪邸坊-7号楼,,,,河北省廊坊市安次区豪邸・坊7号楼,,116.708388,39.516648
f90166a9ee4913b835b06c61,东日瑞景东区7号楼,,,,河北省廊坊市广阳区南尖塔镇北凤道东日瑞景,,116.68799,39.552821
1a200b776c25a1e9f8f0cb32,安泰家园-5号楼,,,,河北省廊坊市安次区安泰家园5号楼,,116.690057,39.511143
76858dd5517426754107c18c,金桥花园金芳苑,河北省,廊坊市,广阳区,北凤道南200米,,116.735231,39.556699
57a5ddb568579b3114b54b4d,馨境界西区-2号楼,河北省,廊坊市,广阳区,河北省廊坊市广阳区馨境界西区2号楼,,116.684988,39.541946
c53acbff3d8ae406aecb6677,紫金华府-7号楼,,,,廊坊市广阳区新源道119号,,116.728015,39.550698
6764866cfb52fbfd28b97caa,晓廊坊-10号楼,河北省,廊坊市,广阳区,河北省廊坊市广阳区晓廊坊10号楼,,116.719971,39.518084
0253bffc5237f4852b11d1a7,新安里社区,,,,解放道81号-1号,,116.717396,39.520899
fb0eff62e1e19f13cc04ef13,安泰家园-2号楼,,,,河北省廊坊市安次区安泰家园2号楼,,116.691775,39.511099
b6d41c5cf7f04f611576432d,金泰花园小区-20号楼,,,,北凤道188号,,116.740822,39.555575
48a723cdc3b23d4772455b79,紫金华府-3号楼,,,,廊坊市广阳区新源道119号,,116.726431,39.551009
f42048ab7803cce37adbd2a5,紫云轩小区-8号楼,,,,廊坊市广阳区光明东道56号,,116.730139,39.520253
67208a0ba57100631811d55f,和平丽景-10号楼,,,,廊坊市广阳区新源道172号,,116.728106,39.555503
e8aae58986766eaea11de9e8,综一矿区万乐小区-16号,河北省,廊坊市,广阳区,综一矿区万乐小区16号楼,,116.634936,39.582478
37a588cc3a1881cd2fe67b8d,晓廊坊-9号楼,河北省,廊坊市,广阳区,晓廊坊9号楼,,116.718682,39.520406
e899818ff448e68bdbd891de,锦绣花苑-13号楼,河北省,廊坊市,广阳区,河北省廊坊市广阳区第八大街廊坊市第十五小学,,116.681347,39.538891
c7f6d17beb3d100316c9059a,福华楼,河北省,廊坊市,广阳区,河北省廊坊市广阳区建设路与康庄道交口(乐购东200米),,116.720258,39.537947
7c6ccf00ffe64a2e631809c3,香榭9号,河北省,廊坊市,广阳区,毕升路60号附近,,116.759527,39.614492
e2e33d04c7ea198b715e805f,祥泰花园-1号楼,,,,廊坊市广阳区祥云道102号,,116.78216,39.573559
52083963f77a39684151c02c,荣盛・塞纳荣府-56号楼,,,,河北省廊坊市广阳区经济开发区华祥路荣盛・塞纳荣府,,116.777775,39.570019
86be1e69a3e7467cd12dd649,祥泰花园-2号楼,,,,河北省廊坊市广阳区祥泰花园2号楼,,116.782078,39.573889
657a136311561a2a1df74d6e,荣盛・塞纳荣府-60号楼,,,,河北省廊坊市广阳区,,116.776121,39.569972
6248738e50c1847e40afe6cb,荣盛・塞纳荣府-61号楼,,,,河北省廊坊市广阳区,,116.77666,39.570075
7b97d486425fc4c5704b8741,和平丽景-31号楼,,,,河北省廊坊市广阳区和平丽景(和平路西),,116.73058,39.553287
32a1e89b089df3c06cc02c5e,运动员公寓,河北省,廊坊市,广阳区,廊坊体育场,,116.733436,39.55999
e3de36138e233e66276e98c7,居阳社区,河北省,廊坊市,广阳区,廊坊市广阳区光明东道70号,,116.732058,39.518774
9ee392b8433c0741bbbd63f6,中国石油天然气管道局管道矿区廊坊服务中心青年公寓,河北省,廊坊市,广阳区,五福街1号,,116.724641,39.52702
1a5822ff68e5e3f95e17c3f2,吉兴社区,河北省,廊坊市,广阳区,廊坊市广阳区新开路,,116.723486,39.541494
d3fe8f8b32dc371e581093ad,明光里管道局宿舍楼六区十九栋,河北省,廊坊市,广阳区,明光里管道局宿舍楼六区十九栋,,116.731692,39.521392
4b1c75b70082c5a816c8f65c,益民花园-6号楼,,,,河北省廊坊市广阳区益民花园6号楼,,116.738788,39.507816
f10e768674ba1b7a49fd3f65,建国道管道局宿舍楼四区九栋,,,,建国道与清河街交叉口西南50米,,116.723404,39.524032
015fb58bb12b56c17dc87661,新星里小区-4号楼,,,,河北省廊坊市广阳区新星里小区4号楼,,116.704874,39.551059
d24759743d223a4bb1077de8,华苑小区42号,河北省,廊坊市,广阳区,华苑小区42号楼,,116.709526,39.540162
1bf20eda3be543843010af51,新华广场-9号楼,,,,廊坊市广阳区新华路89号,,116.715941,39.531949
22a2a7a9ad47b00ab9df8fc4,文苑小区-12号楼,,,,河北省廊坊市安次区文苑小区12号楼,,116.674953,39.527079
b54e6ae4a0b2c5fd10882424,锦绣花苑-11号楼,河北省,廊坊市,广阳区,廊坊市广阳区广阳道205号,,116.680512,39.540572
87c064b49cea153ac2f1cfb5,安泰家园-7号楼,,,,河北省廊坊市安次区安泰家园7号楼,,116.689538,39.510639
b23f2374a1188b9bd42ce26a,裕华小区-十二号,,,,廊坊市广阳区,,116.697198,39.536175
17cdf83edde51e84260bd08f,水岸香榭,河北省,廊坊市,安次区,河北省廊坊市安次区水岸香榭(嘉慧意境北100米),(0316)2086000,116.674978,39.519839
a27c03e6661558de256e98c1,馨境界西区-9号楼,河北省,廊坊市,广阳区,廊坊市广阳区永兴北路70号,,116.686061,39.540402
beec4b63ea66ca25b726557b,江南水郡-20号楼,河北省,廊坊市,安次区,河北省廊坊市安次区江南水郡20号楼,,116.667425,39.520301
c440550872dc8f18badf8f54,憩园新区-2号楼,,,,河北省廊坊市广阳区憩园新区2号楼,,116.770156,39.57104
eed36d1198a530a5da2f28f5,荣盛・塞纳荣府-88号楼,,,,河北省廊坊市广阳区经济开发区荣盛・塞纳荣府,,116.776234,39.569669
8d835057874e5f64e115f9b4,憩园新区-1号楼,,,,廊坊市广阳区友谊路139号,,116.769292,39.570906
3ba4e71228cd9700932ca317,祥泰花园-7号楼,,,,廊坊市广阳区祥云道102号,,116.782801,39.574446
49b34b556122a32615764321,蓝多廊公寓-1号楼,,,,廊坊市广阳区友谊路33号,,116.767732,39.575397
25918116ff4e80d828b97c72,荣盛・塞纳荣府-53号楼,,,,河北省廊坊市广阳区,,116.778553,39.570193
10c17838d112437088f15d39,金泰花园小区-23号楼,,,,河北省廊坊市广阳区金泰花园小区23号楼,,116.742353,39.555701
924ec47e746c0f2ae115f998,金桥花园金菊苑,,,,北凤道180号附近,,116.737081,39.556838
b537b6af468e1c292806ce18,信苑居,河北省,廊坊市,广阳区,河北省廊坊市广阳区金源道艾力枫社东区别墅,,116.756653,39.574806
1921dcb7ea2e852711882414,汇督・银色漫馨邸,河北省,廊坊市,广阳区,永丰道45附近,,116.721736,39.530318
e664ba72d31bb3e84d554717,王寨小区-9号楼,,,,河北省廊坊市广阳区王寨小区9号楼,,116.741988,39.526958
2af34fd5b5b33dcf29d7ab2d,康庄小区-45号楼,河北省,廊坊市,广阳区,河北省廊坊市广阳区康庄小区45号楼,,116.725125,39.539265
a86d4caf57837eb5fda778f3,宏泰花园-19号楼,,,,河北省廊坊市广阳区宏泰花园19号楼,,116.720994,39.536419
f4a53724eae2070b1811d508,东方家园-8栋,河北省,廊坊市,广阳区,河北省廊坊市广阳区东方家园08栋,,116.751713,39.522749
fe47139eb8b75d42f50e77f6,新源小区-7号楼,,,,新源道69号,,116.720373,39.549543
a29f8480b059a4362fe67b9a,东方家园-13栋,河北省,廊坊市,广阳区,廊坊市广阳区光明东道112号,,116.751784,39.522418
88d1941d99cbece1eb1e9776,颖丽花园-3号楼,河北省,廊坊市,广阳区,廊坊市广阳区解放道127号,,116.733064,39.521743
7e700a7d67e68340d81318f9,益民花园-9号,河北省,廊坊市,广阳区,河北省廊坊市广阳区益民花园(和平路东),,116.738937,39.507483
7f784b1039093ee7a1d23083,牧马人别墅砖,,,,廊坊市广阳区丽都创意B座2层,,116.725715,39.533285
821cfb012b89c3cbc42ba1df,综一矿区万乐小区-12号,河北省,廊坊市,广阳区,综一矿区万乐小区12号楼,,116.635727,39.582923
d355177a8afc9add5a3ac80a,艾各庄三区19号楼,,,,河北省廊坊市广阳区艾各庄三区37号楼(艾中街南),,116.632303,39.559696
e7982ef8850e3ee49e9d686b,艾各庄二区19号楼,,,,河北省廊坊市广阳区艾各庄二区19号楼(艾中街东),,116.638036,39.560438
e02999d5ec1d02f317c8f6c0,臻丽家园-9号楼,,,,廊坊市安次区光明西道210号,,116.676218,39.519972
d02cd66718cd2d4740024557,盛德花园-三期,,,,河北省廊坊市安次区永华道137号,,116.696899,39.509781
a21e2ae583931c64c61b7552,豪邸坊-5号楼,,,,河北省廊坊市安次区永华明珠光明西道豪邸・坊,,116.709108,39.516848
05cb0c439094827da9f0cded,新民里-3号楼,河北省,廊坊市,广阳区,河北省廊坊市广阳区新民里3号楼,,116.715657,39.548122
15c0dd7e42ace8f5b23c81d2,馨境界西区-8号楼,河北省,廊坊市,广阳区,廊坊市广阳区永兴北路70号,,116.685462,39.540356
02483c6fbbfb08ad3b221cde,集宁小区-9号楼,河北省,廊坊市,广阳区,廊坊市广阳区荣福道56号,,116.709578,39.534409
5b2a8060567c6b6311882459,吉祥社区,河北省,廊坊市,安次区,新安胡同与顺安道交叉口东150米,,116.710767,39.513188
703a3b6414c3ce19970319fb,迎春路3号楼小区,河北省,廊坊市,广阳区,迎春路18号附近,,116.708678,39.523719
ea07b6f1ced498bd0f3ddabd,银河领域-8号楼,河北省,廊坊市,广阳区,河北省廊坊市广阳区银河领域8号楼,,116.704192,39.546567
04b045566ed4afe1fbdc85d3,集宁小区-16号楼,河北省,廊坊市,广阳区,河北省廊坊市广阳区集宁小区16号楼,,116.710156,39.534917
6a4413600368d9d654bfffd0,文苑小区-16号楼,,,,河北省廊坊市安次区文苑小区16号楼,,116.674889,39.526782
abe6f26c98785be00bccddc2,第五大街别墅式公寓,河北省,廊坊市,广阳区,新世纪步行街第五大街50号附近,,116.707259,39.539347
cf8131032a3dbbd240e19299,日新里,河北省,廊坊市,广阳区,建国道与文明路交叉口西北50米,,116.710184,39.523342
7c101d3a7cf7f9e6118824ff,翔宇家园-8号楼,河北省,廊坊市,广阳区,翔宇家园8,,116.716871,39.546868
a6e9aea655bdd964e011037e,恒大山水城,天津市,天津市,武清区,武清龙凤新城大东线北,,116.963645,39.490117
ce09f21c6b32861c40024565,燕云小镇住宅区,天津市,天津市,武清区,天津市武清区S323(大东线)泗村店镇政府对面,,116.962069,39.481134
661a518eaa368df745572673,和骏新家园,天津市,天津市,武清区,武清区东马圈镇政府西侧,,116.847368,39.456757
680fb703496a6c9f8ab9889d,国际城,天津市,天津市,武清区,武清河西务镇京津公路西侧(103国道与高河路交口西侧),,116.959462,39.626698
becfb92ca715b4ce9f09f71f,碧桂园忆西湖,,,,天津市武清区东马圈镇大东路北侧,,116.889252,39.473983
69caa6bc3f90f80fa80dd8d6,雪莱小镇,,,,京津高速附近,,116.846808,39.646458
56b76eb70d49d4f2f32d83d0,台头新苑小区,,,,天津市武清区台头新苑(凤港路东110米),,116.860321,39.640623
db5698b46b52addddbd891f8,恒大山水城东区,,,,天津市武清区泗村店镇恒大山水城恒大・花地湾,,116.965752,39.492063
b2f40397aee9697b8505bf5f,首创・国际半岛伊维萨小镇,天津市,天津市,武清区,北京市通州区首创・国际半岛伊维萨小镇(凤港路),,116.841263,39.642095
da170df621bf0c9c09a8d439,恒大山水城-西区,,,,天津市武清区泗村店镇龙凤大道,,116.961161,39.490744
82b0d4b7ea7f51166240a9c3,金汇园,天津市,天津市,武清区,武清南蔡村镇京津公路西侧南蔡村高中对面,,117.025789,39.48179
1cd82320c04c75b37adbd2f6,博雅轩小区,天津市,天津市,武清区,天津市武清区城关镇博雅轩小区(崔廊线北),,116.87877,39.533224
d16ba42b7ffdab62a5da390f,首创国际半岛高层,,,,京津高速高村出口,,116.840227,39.646409
d55d107c4b1ee1581df74d77,龙沙意田文化小镇,,,,京津高速白古屯出口200米,,116.928293,39.526894
bcaebff8b63f932ac9e33c59,东篱佳苑,天津市,天津市,武清区,大孟庄镇京津公路与廊良公路交口西200米,,116.996084,39.528066
f5ac219e7ee0db7b0b1cc721,国际城-郁金花苑,天津市,天津市,武清区,天津市武清区河西务,,116.960207,39.62749
30dbf0bbe536a5a30d3dda4b,东篱新苑,天津市,天津市,武清区,京津公路,,117.003847,39.527755
65fe53d88f5c03fe38e4a6da,东兴里小区9号楼,,,,天津市武清区河西务大龙庄京津线东兴里小区9号楼,,116.970533,39.626157
631fbd9ca198253a1188243e,城锦园,天津市,天津市,武清区,天津市武清区城关镇城锦园(小学道南70米),,116.881502,39.526676
108b1ceab1fd28ad3586f44c,金泰园,天津市,天津市,武清区,天津市武清区城关镇金泰园(博雅轩小区北100米),,116.879199,39.536035
5fee56bc7110ae7242d63efc,国际城-百合花苑,天津市,天津市,武清区,天津市武清区X538(王河支路),,116.958838,39.624793
95bc632bebdd64d7da2f2853,翰邻园-2号楼,,,,天津市武清区河西务大龙庄京津线翰邻园2号楼,,116.970712,39.6247
d2bc74c7758088288f55ecf8,颐欣园小区,天津市,天津市,武清区,天津市武清区河西务镇卓达颐欣园(卓达太阳城附近),,116.945084,39.60405
72b29577f1a10a9bc1f1cf3c,幸福花都,,,,112国道旁,,116.937355,39.481949
f57deaffdde8814679b55c50,博书园,天津市,天津市,武清区,天津市武清区河西务京津线博书园(富成名都北50米),,116.971566,39.623055
f04e6b3894acfeffd72ce23f,东篱19英里,天津市,天津市,武清区,武清区103国道（京津公路）杨村向北18公里东篱现代农业产业区,,116.9874,39.54556
b84690d72be15bd23f9a5e84,莲胜花园别墅区,天津市,天津市,武清区,南蔡村镇莲胜花园,,117.028646,39.491366
d24e48eb064f51caaeee7a84,廊桥映像,天津市,天津市,武清区,崔廊公路南侧时特购物中心西800米,,116.831647,39.527062
e6f7ec8c8ade2f380b1cc7ad,富成花园,天津市,天津市,武清区,天津市武清区河西务富成花园小区(京津线北),(022)22210666,116.9711,39.622444
4d648070e7976f2238221cb4,富成名都,天津市,天津市,武清区,京津公路 附近,,116.972505,39.62191
06aa6bb821789324631c6743,东兴里小区19号楼,,,,天津市武清区河西务东兴里小区19号楼(京津线),,116.971379,39.626602
a87b298cde0c66b8a0acc453,君庭小区,,,,三里屯路南50米,,116.968929,39.629134
990c855426aa86e65a3ac8b5,东兴里小区8号楼,,,,天津市武清区京津线东兴里小区8号楼(翰邻园附近),,116.970603,39.625848
1035c80804fc5f3315c90539,翰邻园,天津市,天津市,武清区,天津市武清区河西务翰邻园(京津线东180米),,116.970374,39.625373
5e96c7c64dd65590715e807a,恒颐园81号楼,天津市,天津市,武清区,天津市武清区泗村店镇恒颐园81号楼(恒大山水城旁),,116.965665,39.493551
7eeca0d2082e41dc43afe663,天津市武清区河西务镇博书园小区,天津市,天津市,武清区,天津市武清区G103(京津线),,116.970768,39.622937
cf864eefca2bea9d49fc8db7,龙喜潭家园,天津市,天津市,武清区,王河公路龙喜潭家园(东门)附近,,116.86027,39.612289
f4f8be84aa7e1bf9e81e97bd,东兴里小区14号楼,,,,三里屯路南200米,,116.970047,39.627719
41d19f988668a53248cc4a88,东兴里小区17号楼,,,,天津市武清区河西务大龙庄京津线东兴里小区,,116.971329,39.627281
9e715ac67a739525c9fa5f23,东庙村社区,天津市,天津市,武清区,天津市武清区京津现,,116.995048,39.617321
787510b0b7027a228f1a8984,书香锦里,天津市,天津市,武清区,天津市武清区G103(京塘线),,116.971527,39.622789
708b53991e3bfa9629fc48f7,颐湖国际文化产业总部基地,,,,天津市武清区大东路北侧,,116.889681,39.472781
6bba8d45a7ea799888b98869,东兴里小区12号楼,,,,天津市武清区河西务东兴里小区12号楼(京津线),,116.970335,39.627154
06d143e0bd3e39dcd22dd6d1,东兴里小区18号楼,,,,天津市武清区河西务大龙庄京津线东兴里小区18号楼,,116.971399,39.626912
c16ec8a4ed14dbc086420ede,翰邻园-3号楼,,,,天津市武清区河西务翰邻园3号楼(京津线北),,116.970741,39.6244
19ade1a484a77ce9ab0dd8b9,龚庄村三区3排,,,,天津市武清区河西务龚庄村三区3排(京津线西),,116.959611,39.636974
2ff8607935d6c962e50738b6,新村社区,天津市,天津市,武清区,天津市武清区王河支路,,116.963077,39.626934
45e89e7eed19e941f4b91644,龚庄村四区5排,,,,天津市武清区河西务京津线龚庄村四区5排,,116.959542,39.636033
431f6703e4e81ebc8733046c,翰邻园-1号楼,,,,天津市武清区河西务大龙庄王河公路翰邻园1号楼,,116.970662,39.625029
941e65980f594f95fd0eb0da,龚庄村一区2排3号楼,,,,天津市武清区河西务龚庄村一区2排3号楼,,116.959342,39.638781
95e94b8b445d9a6c343a714d,东兴里小区15号楼,,,,天津市武清区京津线东兴里小区15号楼(兴顺嘉园附近),,116.970842,39.627783
e1fa31c51afc3820f603b8fc,京津105新城,天津市,天津市,武清区,天津市武清区x535,,116.886322,39.608658
73fde4e10ba33e4c6c476018,哈兰庄园,天津市,天津市,武清区,天津市武清区龙凤大道与大东线交口(京津高速泗村店出口西侧),,116.964081,39.487093
627ac31950eb3bc4740269d6,云湖温泉庄园,,,,天津市武清区大孟庄镇京津公路西侧,,116.990587,39.544573
30ae62e6c606e2a3260bd082,首创国际半岛梅诺卡小镇,天津市,天津市,武清区,北京市通州区,,116.837916,39.644044
238af1cfd21cf2bd60180984,宏N家园,天津市,天津市,武清区,武清东马圈镇武落路南侧,,116.84913,39.450672
418dd1a05185389b30169b81,聚金园广场,天津市,天津市,武清区,武清区大孟庄镇京津公路与廊良公路交口西侧150米,,116.996636,39.527501
d8990d12aa295656d3ff2365,兴顺嘉园,天津市,天津市,武清区,天津市武清区河西务京津线兴顺嘉园(东兴里小区附近),,116.969961,39.629299
c21db9e5ebfda2fd00ff2d5a,翡翠半岛,天津市,天津市,武清区,翠亨路与京津二线交汇处,(022)82121877,117.052131,39.450178
fa21e120521486e67bf79649,福巷嘉苑,,,,211省道,,117.131183,39.521656
4bff8d57da1debd6c72ba14c,紫盈花园小区,天津市,天津市,武清区,南蔡镇外环北路二号,,117.031795,39.491101
3810c8797302c1889d09f79f,木秀园,天津市,天津市,武清区,天津市武清区大良镇306省道与旗良路交口西南侧,,117.101067,39.544583
b7021bf81626dcf9f5e73b9f,腾达庄园,天津市,天津市,武清区,大碱厂镇全兴路,,117.097819,39.471872
db1f39d4141adf12f5c59c04,鸿鹏花园小区,天津市,天津市,武清区,天津市武清区崔杨线,,117.201277,39.537733
4af20370b647631ab45f1e9f,木秀园-东区,天津市,天津市,武清区,木秀园(东门)附近,,117.100882,39.546522
0a131db42af42123b45f1e13,郦和花园,天津市,天津市,武清区,兰家巷路与杨崔公路交叉口西北200米,,117.09778,39.481686
680fb703fef1f5e18bb98806,良兆花园,天津市,天津市,武清区,天津市武清区良兆花园(崔廊线西80米),,117.104702,39.547909
3f9337d695dc6dcef7231001,木秀园-西区,天津市,天津市,武清区,天津市武清区,,117.096312,39.546408
09e0ee43b8da2cc57c29bd8e,锦绣家园,天津市,天津市,武清区,天津市武清区锦绣家园小区10号楼,,117.103659,39.550233
a3e8341c7c9b8feb4afd3f5a,博达小区,天津市,天津市,武清区,天津市武清区河北屯西洞上崔霍路博达小区,,117.140798,39.58633
47afc3fd1cedbeb4d6b74e54,七百户村3排8号楼,,,,天津市武清区南蔡村镇七百户村3排8号楼,,117.040179,39.525959
7039ca55b43e935c7bf79686,旗锦苑,天津市,天津市,武清区,天津市武清区下伍旗镇中心幼儿园对面,,117.066138,39.629308
af58eb7efd088ee77cc87697,七百户村一区3排6号楼,,,,天津市武清区南蔡村镇七百户村一区3排6号楼,,117.039505,39.524701
ee59de1aaa4779bcab175afb,鸿瑞锦园,天津市,天津市,武清区,天津市武清区鸿瑞锦园-南门,(022)29578558,117.205589,39.536102
f850c94a4168375d85420eae,晓霞装苑,天津市,天津市,武清区,大良春光大药房附近,,117.041491,39.57257
0058610877e4dda446e274ef,锦绣香江,,,,天津京津生态新城宝坻新城区京东潮白河湾锦绣香江水城,,117.419149,39.488274
fa835ce290ee47cbe812e408,周良水苑小区,天津市,天津市,宝坻区,天津市宝坻区周良庄镇宝白大道,,117.384662,39.567623
f1cbfb6dd8387eaa130daaa0,鸿坤原乡小镇,天津市,天津市,宝坻区,天津宝坻京津新城宝白公路与龙江大街交口,,117.41683,39.502939
0e40b1de915685e55c0d024a,津京新城,天津市,天津市,宝坻区,珠江大道附近,,117.369757,39.549119
c678122f323defe57269d319,牡丹江宝坻小区,天津市,天津市,宝坻区,天津市宝坻区s326,,117.412355,39.613826
41572e008e28c3b5b45f1eef,上京熙园,天津市,天津市,宝坻区,天津市宝坻区珠江北环西路,,117.388854,39.549961
f9656edf198e9099f60e770a,龙湾福泰花园,天津市,天津市,宝坻区,天津市宝坻区龙湾福泰花园小区(大新公路南),(022)29200000,117.242769,39.598298
c5ddcc08005525c7d81318ef,上京顺园,天津市,天津市,宝坻区,天津市宝坻区珠江南环西路,,117.385631,39.535502
56d168fdbac6e79371455be3,宝翔景苑,天津市,天津市,宝坻区,宝坻大口屯镇津围公路西侧,,117.252444,39.596289
0adce3e2f0680a6080a00cef,里自沽温泉小区,天津市,天津市,宝坻区,天津市宝坻区里自沽温泉小区(津蓟高速公路西),,117.366366,39.530401
46c585f0d1c3a97ec3364472,天钰园,天津市,天津市,宝坻区,宝坻大口屯新城津围公路的西侧,,117.239599,39.597667
061715aed650e305223bf288,朝阳里小区-大黄堡新村,天津市,天津市,武清区,天津市武清区大黄堡路,,117.272728,39.459092
7dc5ee50293c3d2d0f0e6be6,翰林雅苑,天津市,天津市,宝坻区,宝坻津围公路与大新路交口（紧邻大口屯镇政府）,,117.239208,39.599208
6ce9ae81867404c6f7231093,天津锦绣香江(三期),天津市,天津市,宝坻区,天津市宝坻区大白庄锦绣香江,,117.416291,39.491483
5049d7e129f60cc1270bd0e1,郁金香园,天津市,天津市,宝坻区,大白庄镇锦绣香江,,117.424166,39.493204
d6c5d9912443aee930169b4f,朝阳里小区,天津市,天津市,武清区,天津市武清区大黄堡乡朝阳里小区,,117.270201,39.457975
ca85f93b47287ebaf7eafcea,上京桃园,天津市,天津市,宝坻区,珠江西环路附近,,117.377084,39.541239
422d056473f7a70a81288a76,天玺园,,,,天津市宝坻区大口屯镇北旺庄大新公路天玺园,,117.238015,39.598466
84eb528873fd66ac0869d91b,橄榄园,天津市,天津市,宝坻区,天津市宝坻区,,117.38692,39.553279
42fe1ad8ae2f189eb64f5429,泰富橄榄树-9栋,,,,天津市宝坻区唐廊线京津新城商居别墅泰富橄榄树,,117.390927,39.555086
90004732d164070ac52ba1e6,燕金园小区,天津市,天津市,武清区,天津市武清区青上路燕王岛园区北侧,,117.256849,39.460174
1c269dda0264e45710293540,鸿坤・颂泉小镇,天津市,天津市,宝坻区,天津宝坻宝白公路与龙江大街交口,,117.41921,39.499285
55fa2c0b1190c92c1ce9994f,后蒲棒新村南区,天津市,天津市,武清区,天津市武清区后蒲棒新村南区(大东线北290米),,117.269003,39.455373
26b016c66445ceeb4107c119,唐泉尚苑,天津市,天津市,宝坻区,祥瑞大街南150米,,117.375348,39.553581
e691b35c9e7e2a7e6f3e1b9c,Hotspring Villa,,,,珠江南环西路北京海华航空服务有限公司附近,,117.385588,39.533042
c4083605604a3667f72310b9,京津新城桃园,天津市,天津市,宝坻区,天津市珠江北环西路,,117.39036,39.546773
c2215c0064d180cfdfee8bc9,泰富橄榄城二期,天津市,天津市,宝坻区,天津市宝坻区京津新城张唐庄唐廊线泰富橄榄城二期,,117.383126,39.555181
ca50c92ec762dfca84154197,李家牌村南区4排18号楼,,,,天津市宝坻区李家牌村南区4排18号楼,,117.29998,39.521455
2549e29d2a9aff00f503b8bb,高尔夫公寓,天津市,天津市,宝坻区,珠江东环路东150米京津新城上京嘉园附近,,117.404151,39.540776
f1245f978b6fcd2471210bd4,庞桥头村东区北2排10号楼,,,,天津市宝坻区庞桥头村东区北2排10号楼,,117.33273,39.612183
42cc5ed02054bd72ad080f93,朝阳里小区前蒲棒新村,天津市,天津市,武清区,后蒲棒路北50米,,117.275857,39.459886
73b4dd90c9635da7fb2d61ba,庞桥头村东区南3排10号楼,,,,天津市宝坻区郝各庄镇庞桥头村宝白线北250米,,117.332997,39.610797
5122b79e556913ba36b06cac,李家牌村中心区4排14号楼,,,,天津市宝坻区李家牌村中心区4排14号楼,,117.30049,39.523211
93391e04b6fd233f2902e119,牡丹华府,天津市,天津市,宝坻区,天津市宝坻区大白街道宝白线锦绣香江牡丹华府,,117.4198,39.493147
fce3f03c10fe953fb020a86b,水边的阿狄丽娜,天津市,天津市,宝坻区,珠江西环路附近,,117.37628,39.541697
4ab9acd5245e1799b320a8c4,百合园,天津市,天津市,宝坻区,天津市宝坻区大白街道大杨庄宝白线锦绣香江百合园,,117.419377,39.493216
151b3f9f89b945090e3ddaf1,庞桥头村东区南2排11号楼,,,,天津市宝坻区庞桥头村东区南2排11号楼,,117.333037,39.611158
574531f2c7043a9ae115f985,李家牌村中心区3排20号楼,,,,天津市宝坻区牛家牌镇李家牌村中心区3排20号楼,,117.299759,39.522603
dcd21a4000f7283b4bfd3f8f,李家牌村中心区3排13号楼,,,,天津市宝坻区牛家牌镇李家牌村中心区3排13号楼,,117.300831,39.52296
2c0bd6c51fc4f1ab43ab9a4f,后蒲棒新村北区,天津市,天津市,武清区,天津市武清区大黄堡镇大东线后蒲棒新村北区,,117.268263,39.456849
0aa4b1706c4562c6a8175a53,玉兰园,天津市,天津市,宝坻区,大白庄镇锦绣香江,,117.418805,39.493358
17acdd900f71c8aa33621223,橄榄园-125号,天津市,天津市,宝坻区,天津市宝坻区泰富橄榄树(唐廊线南),,117.386081,39.555189
7fe52ab83d4ce4869de32167,天津京津新城熙园民宿别墅,,,,天津宝坻区沿津蓟高速往蓟县方向3号出口上京熙园,4006061230-96838,117.390304,39.549119
6b7201c87cf57421e011032c,风林别苑,,,,温泉城津蓟高速温泉城出口200米(近帝景温泉度假村),,117.371925,39.546617
6b9032839050f3a1e9f85387,天津鼎泰佳苑别墅珠江南环西路分店,,,,天津天津宝坻区京津新城温泉城顺园642,4006061230-37114,117.386563,39.535199
7a0deb9432f5e96e2f473344,天津老饕沙龙独栋别墅,,,,天津宝坻区津蓟高速往蓟县方向3号出口(温泉城站)京津新城,4006061230-93063,117.369757,39.549119
233153c0c0e2be5b9cec2b11,天津科技大学天津学院-5斋号楼,天津市,天津市,宝坻区,天津市宝坻区,,117.398087,39.551931
7d61877c9c7f79d708f5ebbc,天津科技大学天津学院-1斋号楼,天津市,天津市,宝坻区,天津市宝坻区,,117.397277,39.551847
773d6f599eb569419cf77908,天津科技大学天津学院-2斋号楼,天津市,天津市,宝坻区,天津市宝坻区,,117.397208,39.552171
e9759cf27a301b90bfa822ef,天津鹅和鸭水岸庄独栋别墅,,,,天津宝坻区京津新城,4006061230-56030,117.388673,39.534635
0db148f2b07a647f9cf779e2,远大城,天津市,天津市,宝坻区,宝坻区潮白河与青龙湾交汇宝白路东侧,,117.432671,39.49317
4b830dd37106ecdafa0cada2,龙亭轩,天津市,天津市,宝坻区,林亭口镇交警大队西行300米,(022)22501111,117.504588,39.64742
64b3b3e024b66dae88db73f9,春华园,天津市,天津市,宝坻区,在远大城附近,,117.435569,39.489097
21c03eb64e1fd8889ff779ab,东棘坨镇鑫盛达长毛兔养殖小区,天津市,天津市,宁河县,东四清路附近,,117.5919,39.470884
772991afc28fcab0f503b8ea,十渡彩虹观湖私汤别墅,北京市,北京市,房山区,北京市房山区十渡镇十四渡平峪村,,115.552692,39.665476
5edd4f93d174a39c21022065,彩虹观湖别墅,,,,十渡镇平峪村十五渡风景区,,115.551896,39.664372
04925194e4edd94f4e3a5912,辛家,北京市,北京市,房山区,北京市房山区,,115.545964,39.705142
a5097bfa39205663f03cbac5,福临苑,北京市,北京市,房山区,北京市房山区十渡镇共青团路十渡中心小学东北,,115.610696,39.658672
2a81a2c5669c2a7e3f9a5e11,五条炕,北京市,北京市,房山区,北京市房山区,,115.608868,39.739705
d9cbca08220fbd5e81a12e30,南段台,北京市,北京市,房山区,北京市房山区,,115.601295,39.71396
f7f5ce2e4ab65db6deee8baf,西泉水,北京市,北京市,房山区,北京市房山区零一七县道,,115.556685,39.724599
ecc3036f56491edcb35c6a76,葡萄园山庄,北京市,北京市,房山区,北京市房山区零一七县道,,115.615633,39.650445
e2c4c32b7129c70a081cc784,北京赵五一别墅,北京市,北京市,房山区,北京房山区十渡镇,(010)61340531,115.595205,39.656489
27905ca2f2a7b126eedfca62,北京福客家园,北京市,北京市,房山区,北京北京市房山区十渡镇平峪村,,115.514716,39.658623
faf6263840c27e3225d2bb82,有水家园,北京市,北京市,房山区,北京市房山区十渡镇涞宝路十渡风景区花果山景区,,115.620565,39.652706
b2ccb077e72d079f843304ec,小宝家园,北京市,北京市,房山区,十渡镇七渡村917车站5米,15910867255,115.6237,39.652462
e37916eea0b763bcf503b824,北京十渡嘉乐家园,北京市,北京市,房山区,北京十渡镇东湖港景区前行150米,13716332364,115.527655,39.674169
fa01e93738516249774ff13b,城阳,北京市,北京市,房山区,北京市房山区,,115.679159,39.749775
1cea15a965b79ec607fef53b,天井,北京市,北京市,房山区,北京市房山区,,115.701804,39.692109
c21db9e5c510c48000ff2d3a,金草梁,北京市,北京市,房山区,北京市房山区,,115.650598,39.774713
c5ecadff88dd347d9f09f7f7,香火地,北京市,北京市,房山区,北京市房山区,,115.662471,39.750463
520ff3792aea97403fe231b1,南利,北京市,北京市,房山区,北京市房山区,,115.664133,39.721614
bad687350f168a81fb2d61ac,南沿头,北京市,北京市,房山区,北京市房山区,,115.714109,39.667333
5751b64de6fa5ef64e776eaa,普乐头,北京市,北京市,房山区,北京市房山区,,115.792488,39.685468
0615d94181a6b31ba5da39e6,白草尖,北京市,北京市,房山区,北京市房山区,,115.723918,39.676825
6dace95f4403a9949d82ea5c,佛岭沟,北京市,北京市,房山区,北京市房山区,,115.736526,39.688028
692e9f77b5be9c7ac03644ed,北利,北京市,北京市,房山区,北京市房山区,,115.665441,39.724804
b0d056f2c931a57dcac3db3b,齐树洼,北京市,北京市,房山区,北京市房山区零一八县道,,115.634381,39.682716
40458b2c04d387f7c2f1cf73,五合村30号,北京市,北京市,房山区,六石路东100米,,115.632496,39.657492
602f220949f678cb7f29bdcf,北京霞云岭敬老院温馨家园,北京市,北京市,房山区,北京房山区霞云岭乡政府西行1000米,(010)60367104,115.741192,39.724065
d8ff79aac0229546c909f0aa,北京白草畔欣悦农家院十四号院,北京市,北京市,房山区,北京霞云岭乡四马台村月亮湾广场西侧58号,(010)60369629,115.6397,39.788379
6c236609aa50c76df11937f0,北京白草畔胜兴园农家院6号院,北京市,北京市,房山区,北京房山区霞云岭乡司马台村三区208号,13716046255,115.64067,39.789717
9d46955d4d24fddd4d3a59b0,北京白草畔鑫悦农家院8号院,,,,北京北京房山区霞云岭乡四马台村月亮湾广场西侧76号,(010)60369629,115.638064,39.787808
39ff2e0b84071a23631c6775,北京白草畔欣悦农家院十九号院,北京市,北京市,房山区,北京霞云岭乡四马台村月亮湾广场西侧63号,(010)60369629,115.639662,39.788044
ecd7814015e56c173b13fdf5,北京白草畔鑫悦农家院6号院,,,,北京北京房山区霞云岭乡四马台村月亮湾广场西侧74号,(010)60369629,115.641483,39.789685
3dc9befd894f7616bea240c7,羊耳峪北里,北京市,北京市,房山区,北京市房山区羊北一巷,,115.979579,39.768091
b703e96b46fdb3fa8f1a89c4,杰辉苑,北京市,北京市,房山区,北京市房山区迎风南路甲6号,,115.971053,39.726513
81d530de91e31a4b43ab9a97,羊耳峪里,北京市,北京市,房山区,北京市房山区羊耳峪里西巷东100米,,115.976111,39.765124
15e1e85e2dfa7ba2581093c4,龙乡苑,北京市,北京市,房山区,北京市房山区龙乡苑(房易路西240米),,115.949258,39.680828
d6c5d991f1cb7be830169bc4,杏花西里,北京市,北京市,房山区,北京市房山区迎风南路10号,,115.964593,39.726074
cde9e2c7383940b4e81e97c4,万宁小区,北京市,北京市,房山区,北京市房山区漫水桥西路26号,,115.988449,39.715027
44fe531af2ac344816c9052e,迎风六里,北京市,北京市,房山区,燕山岗南路,,115.971346,39.729
b2e90387e16ad2e1bea24082,富仕苑小区,北京市,北京市,房山区,房山站北路路北,,115.994599,39.716425
db1f39d4285fab6ff5c59cc4,永安家园,北京市,北京市,房山区,北京市房山区城关街道办事处,,115.988424,39.698886
15a93810c0be50c014c8f6d5,天合嘉园,北京市,北京市,房山区,北京市房山区石楼镇天合嘉园西北门,,115.994748,39.652832
91774a2804d8bcf87f29bd17,迎风四里,,,,房山区燕山迎风五巷房山迎风四里,,115.964211,39.730381
764672e5800be6ad94ec84c4,高家坡社区,北京市,北京市,房山区,北京市房山区燕山高家坡小区,,115.952514,39.733428
55fa2c0b570c8f2e1ce999d5,顺成嘉苑,北京市,北京市,房山区,房山区城关街道北关大街24号,,115.989124,39.712793
b88cfd63f345ff9214c8f635,东风东里,北京市,北京市,房山区,房山燕山中路和双泉路交汇处西北,,115.971494,39.75931
8294771dfa1e97c0b6147f16,东风南里,北京市,北京市,房山区,北京市房山区双泉西路,,115.969094,39.759809
329ae94420cb40c8c72ba1db,凤凰亭北里,北京市,北京市,房山区,北京房山区燕山凤凰亭北里,,115.953796,39.746232
971695d30cd3dd39d23ce37a,东风北里,北京市,北京市,房山区,东风一巷与东风街交叉口西北150米,,115.967821,39.76412
24ace623b210589abe4842db,周口店新街,,,,北京市房山区房易路周口店新街(新街民族小学东北),,115.944337,39.6623
d08f88f1eabca0bcbca822de,原香漫谷-南区,,,,北京市房山区城关街道丁家洼路原香漫谷南区西门,,116.015964,39.719091
d991e116b18908551f3894c4,杏花东里,北京市,北京市,房山区,北京市房山区岗南路,,115.968537,39.72681
b703e96b35e920f98f1a89d5,福胜家园,北京市,北京市,房山区,城关东大街2号(城关街道东大街北侧),,115.993951,39.708775
850815e1e183e09b43e192c4,祺兴缘家园,北京市,北京市,房山区,房山农林路6号,,115.991963,39.693819
1dd4b8bb6b234c76f503b8e9,城关街道管道局社区,北京市,北京市,房山区,南大街153号,,115.98954,39.700724
48081cbd7027c5fba0acc47a,城关南里,北京市,北京市,房山区,北京市房山区兴房大街39号,,115.991941,39.698745
21d2b716254bafc22a02e178,兴房大街14号院,北京市,北京市,房山区,城关兴房大街14号,,115.99979,39.701598
031b965f44df624096ca07db,永乐园三里,,,,南斜街56附近,,115.994162,39.703456
442076467238ba6bdeee8bc4,洪福家园,北京市,北京市,房山区,"北京市房山区西大街南侧,房山区第六国税所西侧120米30号院",,115.982625,39.708145
ea4a3dc98220772e4e5547c7,羊耳峪西里,北京市,北京市,房山区,康庄路口,,115.974104,39.765519
bff8fa7d72419eddc8213d36,绿茵小镇,北京市,北京市,房山区,北京市房山区周口店房易路东侧紧邻奥龙嘉苑,,115.937988,39.650878
f2243ec90cd42b7d87154189,羊头岗周转房,,,,北京市房山区城关街道大件路羊头岗新村东南200米,,116.022544,39.728698
a9dcde4cd654f3b09b68b4b5,羊耳峪里56号楼,北京市,北京市,房山区,东风街道羊耳峪里56号楼,,115.977233,39.762126
69c7722e630d13e04151c06e,富燕新村三区-5号楼,北京市,北京市,房山区,北京市房山区燕房路北侧(万宁桥环岛北),,115.987656,39.722736
2cf6fccfbcd0a31af22d8398,福金苑,,,,北京市房山区福金苑(026县道南50米),,116.020191,39.690027
0b7b24023ab5b35a5b3ac88b,顾册教师楼,北京市,北京市,房山区,顾册路,,115.982197,39.685212
84f0fd279f6d4d0653e5c58d,城关北里甲2号楼,北京市,北京市,房山区,城关街道城关北里2号楼,,115.992795,39.712602
a493408473c036ccf8221334,迎风四里-40号楼,北京市,北京市,房山区,岗南路29号附近,,115.966653,39.730849
aadd7b408264277015a190e6,迎风四里-36号楼,北京市,北京市,房山区,迎风街道迎风四里36,,115.967743,39.730319
c0a158fb5d544d87b64f5432,杏花东里-14号楼,北京市,北京市,房山区,北京市房山区岗南路,,115.968635,39.72555
069f87a46b627c9e49fd3ff9,杏花西里-43号楼,北京市,北京市,房山区,迎风街道杏花西里43号楼,,115.964613,39.72552
2a6c24dad943cea2f02d83d0,城建新村,北京市,北京市,房山区,北京市房山区昌盛路491号,,116.020061,39.677444
f505cfd53554226708f5eb78,东风南里(东区)21号楼,,,,北京市房山区燕山双泉西路东风南里东风幼儿园,,115.969279,39.759074
4b607799049311195fd4fe1c,迎风二里-甲12号楼,北京市,北京市,房山区,迎风西路21号附近,,115.958487,39.735206
0f21974b34cbbb36e856fa6f,万宁小区-1号楼,北京市,北京市,房山区,城关街道万宁小区1号楼,,115.988751,39.716174
d119b5d3d23f73a7fda77815,矿机路1号楼,北京市,北京市,房山区,北京市房山区功德福(矿机店)西南90米,,115.993516,39.69726
8924113075d5e8c8c4f50d49,迎风西里小区-1号楼,北京市,北京市,房山区,迎风南路与迎风街交叉口西150米,,115.958333,39.728619
9abd336f666398f9c61b75ce,羊耳峪里-38号楼,北京市,北京市,房山区,东风街道羊耳峪里38号楼,,115.97664,39.763388
4abde751d7a4cb82715e8061,迎风五里-2号楼,北京市,北京市,房山区,迎风街道迎风五里2,,115.960395,39.728396
c3dcbdcb9d9b7ce443afe65e,房山区迎风街道五里社区,北京市,北京市,房山区,迎风街道燕山迎风五里1号楼,,115.960513,39.728964
52e9301a5aed7e20aaf72959,南城社区,北京市,北京市,房山区,北京市房山区靶场路1号,,115.987888,39.702522
ee2abe9357bd5c39a1d230a0,杏花西里-12号楼,北京市,北京市,房山区,迎风街道杏花西里12号楼,,115.962482,39.72518
9b41f9a21f19f8b5fd0eb0c2,东风北里-21号楼,北京市,北京市,房山区,东风街道东风北里21号楼,,115.969808,39.763385
61bae6ed5165bb9b8c1a893f,城关北里社区-16号楼,北京市,北京市,房山区,北大寺街附近,,115.99347,39.710555
4763521c548998fa52e5c5b2,城关街道农林路10号楼,北京市,北京市,房山区,农林路10号,,115.991124,39.692294
18323030c552dc46a1a9340f,羊耳峪里-24号楼,北京市,北京市,房山区,东风街道羊耳峪里24号楼,,115.975975,39.765734
3a35302a5bba158f6c476058,东风北里-37号楼,北京市,北京市,房山区,北京市房山区东风北里37号楼,,115.968078,39.762708
a7ddb1acf4c5e655cae33c61,房山二中-家属楼,北京市,北京市,房山区,北京市房山区沿河路4号,,115.981238,39.713035
8c05de5dd38de863eb1e9706,东风南里-甲1号楼,北京市,北京市,房山区,东风二巷附近,,115.968501,39.761373
263609f32acddcc72b201a21,中国铁建原香汇-11号楼,,,,北京市房山区杏花东路与城洪路交界处,,115.978806,39.720206
8d4551eed61495a8631c6734,杏花西里-31号楼,北京市,北京市,房山区,城关街道杏花西里31,,115.967052,39.727885
87716ee7a04b4eb3d13ce3b7,杏花西里-48号楼,北京市,北京市,房山区,迎风街道杏花西里48号楼,,115.966317,39.725153
2a8cf229ca2d767ab13c81d1,迎风五里-8号楼,北京市,北京市,房山区,迎风街道迎风五里8,,115.964456,39.729324
1cdd30bc2bbdf6dad3ff239b,迎风四里-8号楼,北京市,北京市,房山区,燕山迎风街,,115.960263,39.73072
9e023a5a2334ad89dc1e524d,羊耳峪里-49号楼,北京市,北京市,房山区,羊耳峪里西巷附近,,115.975328,39.7626
538efe1e7ab2a2b9d4851f7b,杏花西里-42号楼,北京市,北京市,房山区,迎风街道杏花西里42号楼,,115.963663,39.725172
f3fe8bc67a387363a21de9fc,羊耳峪里-32号楼,北京市,北京市,房山区,羊耳峪里东巷附近,,115.976684,39.764566
85d1fdba7be9bb7d88b98825,羊耳峪里-14号楼,北京市,北京市,房山区,东风街道羊耳峪里14号楼,,115.97672,39.767245
9acfdaa654f9f1a6e115f9c5,迎风四里-9号楼,北京市,北京市,房山区,迎风街33号附近,,115.960263,39.72995
953af2a669402b6ec51e5192,东风东里-8号楼,北京市,北京市,房山区,双泉西路附近,,115.971753,39.759325
2dbd4690425d2729ce04ef29,杏花西里-44号楼,北京市,北京市,房山区,迎风街道杏花西里44号楼,,115.964661,39.725156
d65d6697ab95074be3110384,羊耳峪里-57号楼,北京市,北京市,房山区,东风街道羊耳峪里57号楼,,115.978139,39.762777
ee6a9bff9a4e86319a00501e,迎风五里-11号楼,北京市,北京市,房山区,迎风南路职工文化活动中心附近,,115.964091,39.728704
7160a830d375b5c3246e98f7,靶场路1号院,北京市,北京市,房山区,北京市房山区城关街道西街靶场路南城社区东门,,115.987942,39.702566
2ddaebb9d55a487bb35c6a0b,城关街道高家坡村-1号楼,北京市,北京市,房山区,北京市房山区燕山高家坡社区,,115.952149,39.732536
dc0b38a0237c4a9feb1e9724,新街村小区,北京市,北京市,房山区,北京市房山区房易路东侧新街村,,115.944678,39.661349
2b7da0693dec113baecb66e6,城关街道房山四中家属院2号楼,北京市,北京市,房山区,北京市房山区京周路城关街道房山四中家属院2号楼,,115.985382,39.696987
625525c1a9954e2d61685855,迎风西里小区-3号楼,北京市,北京市,房山区,北京市房山区迎风西里小区(迎风街西70米),,115.959149,39.728129
4f0861f003f1437e6168580c,城关街道青年北路甲3号楼,北京市,北京市,房山区,北京市房山区青年北路城关北里社区柳岸曦阁,,115.993327,39.712812
1f06b8a98a605c33f21937fb,迎风五里-22号楼,北京市,北京市,房山区,迎风街道迎风五里22,,115.967163,39.728327
8f4fd26887cb631ee8e5826c,羊耳峪里-34号楼,北京市,北京市,房山区,东风街道羊耳峪里34号楼,,115.976083,39.763911
dc7be19ccb0568f51e1d11e1,羊耳峪里-29号楼,北京市,北京市,房山区,东风街道羊耳峪里29号楼,,115.976586,39.764926
1d7838e3b0ab5a15a11de921,杏花西里-11号楼,北京市,北京市,房山区,迎风街道杏花西里11号楼,,115.962482,39.725531
3232b7dfd4b00e9a3010af26,迎风五里-19号楼,北京市,北京市,房山区,迎风街道迎风五里19,,115.966993,39.729282
f6302fdd6a48d35ef7231053,杏花西里-27号楼,北京市,北京市,房山区,迎风南路10号附近,,115.966067,39.72761
35b55a11f745163e17948e6f,羊耳峪里-20号楼,北京市,北京市,房山区,东风街道羊耳峪里20号楼,,115.976002,39.766455
5e6753084deaa7e6fda77899,迎风一里-14号楼,北京市,北京市,房山区,北京市房山区凤凰亭路9号,,115.958467,39.73999
eeba1b69acf4349940e192ff,新街村38号楼,北京市,北京市,房山区,房易路附近,,115.943259,39.663108
5a94875cb140b286ee74f83f,羊耳峪北里-27号楼,北京市,北京市,房山区,北京市房山区羊北一巷,,115.982918,39.766319
0c30b7e54b8559d85b1093a8,城关街道西大街6号楼,北京市,北京市,房山区,西大街6号,,115.989219,39.707871
e69c74a12fea91128c772758,永安路住宅区,北京市,北京市,房山区,北京市房山区南大街57号,,115.989665,39.700126
b48964ce54a662d838e4a6d9,杏花西里-甲3号楼,北京市,北京市,房山区,迎风南路16号附近,,115.961689,39.726588
317b755c1bf7fcbf51e5c5a1,迎风六里-9号楼,北京市,北京市,房山区,迎风街道迎风六里9号楼,,115.968647,39.731201
c55a069796b1322871455bc8,羊耳峪里-36号楼,北京市,北京市,房山区,东风街道羊耳峪里36号楼,,115.976379,39.763633
7ec6146d700c0c40cac3db8e,羊耳峪里-7号楼,北京市,北京市,房山区,北京市房山区燕山东万路羊耳峪里,,115.975652,39.767646
546949a9511d6daca11de9ad,迎风四里-1号楼,北京市,北京市,房山区,迎风街道迎风四里1,,115.960426,39.732945
f50753b54e5d57b843e1925b,迎风二里-8号楼,北京市,北京市,房山区,迎风街道迎风二里8,,115.960468,39.734052
ed7edb0f8b46ecadf11937c0,东风东里-9号楼,北京市,北京市,房山区,北京市房山区双泉路,,115.971796,39.758943
d416b38239780a938a36ee05,城关街道北大寺街14号楼,北京市,北京市,房山区,北京市房山区,,115.992646,39.710958
4aa1261915bd719d9fec2ba5,羊耳峪里-16号楼,北京市,北京市,房山区,羊耳峪里西巷附近,,115.974781,39.7669
f6892a680b14007f6140a9a9,东风北里-17号楼,北京市,北京市,房山区,东风街道东风北里17号楼,,115.969372,39.764046
f62a0f7e233db361d23ce384,迎风四里-15号楼,北京市,北京市,房山区,北京市房山区商业街附近,,115.961935,39.729957
dfacfa2ff4ff9f3eb23c81b5,东风南里-24号楼,北京市,北京市,房山区,东风街道东风南里24号楼,,115.968437,39.758744
006b3af207a35bb3c909f0bd,迎风一里-22号楼,北京市,北京市,房山区,燕山燕化职工文化活动中心附近,,115.959797,39.737498
b560d0ef3953ed3740024594,东风北里-10号楼,北京市,北京市,房山区,东风街道东风北里10号楼,,115.968528,39.764961
cafdfb4cb7a6574c0f0e6b24,东风北里-3号楼,北京市,北京市,房山区,东风街道东风北里3号楼,,115.967225,39.766182
9f9c012ff939c292f33cba20,杏花西里-25号楼,北京市,北京市,房山区,迎风南路12号附近,,115.965416,39.727277
2981fdd593a9977c41d63ecf,羊耳峪北里-17号楼,北京市,北京市,房山区,北京市房山区羊北一巷,,115.980032,39.767761
97ee5db096f39123fe0eb0da,东风北里-39号楼,北京市,北京市,房山区,东风一巷附近,,115.966642,39.76277
523ce3ba5d1ae621631809cf,中国铁建原香漫谷-9号楼,,,,北京市房山区丁家洼路,,116.016958,39.719745
f28729cb8bfa6a0c88b98853,城关北里17号楼,北京市,北京市,房山区,北大寺街附近,,115.994328,39.710062
2315568fdc152b61c9c3db34,迎风四里-30号楼,北京市,北京市,房山区,燕山迎风五巷房山迎风四里,,115.96609,39.730615
4f8ddb412cf3004540d63e79,杏花西里-34号楼,北京市,北京市,房山区,北京市燕山前进中学附近,,115.966629,39.726693
b9308c247e1bd35671210b08,城关北里社区-11号楼,北京市,北京市,房山区,青年北路28号附近,,115.993552,39.711198
2a907b6db5bb9c2616a19006,迎风六里-4号楼,北京市,北京市,房山区,北京市房山区,,115.968436,39.72956
20173e3326f556b56e20b909,北庄南里14号楼,北京市,北京市,房山区,后朱各庄村委会附近,,115.981819,39.71924
7ca77470c84dd40496f08cd2,福星家园B区-1号楼,北京市,北京市,房山区,南大街93号,,115.990493,39.702908
d4143097b4ab1fafa1d23045,羊耳峪西里住宅小区-东区,北京市,北京市,房山区,康庄路口,,115.974138,39.765522
277ef5a22bfa7a235e0d02fe,城关街道农林路-12号楼,北京市,北京市,房山区,北京市房山区城关街道农林路12号楼(房山职业学校东),,115.991054,39.691936
bfd8ee43116214c3770269f6,向阳街道向阳路58号楼,北京市,北京市,房山区,北京市房山区燕山向阳街道向阳路58号楼,,115.965416,39.739756
4520917e8a1962789de32140,东风南里-33号楼,北京市,北京市,房山区,燕山站路3号附近,,115.96737,39.758138
db23d4cc38f88427e315f946,大桃园-9号楼,北京市,北京市,房山区,北京市房山区大桃园9号楼,,115.999292,39.790909
8ab60e6010bd994ee812e4e1,长沟峪煤矿长矿向阳楼10号楼,北京市,北京市,房山区,北京市房山区,,115.930833,39.720961
b1093510b7a1b25efe0eb08e,迎风四里-22号楼,北京市,北京市,房山区,燕山迎风五巷房山迎风四里,,115.964316,39.730664
24a3a7de3466cf33ca2915f4,富燕新村四区-1号楼,北京市,北京市,房山区,北京市房山区X009(燕房路),,115.982817,39.7244
1bd09657be024edb48cc4ade,向阳街道燕化炼油厂2号楼,北京市,北京市,房山区,凤凰亭路,,115.939307,39.741057
cf49278e20d25659abf72921,城关街道田各庄村1号楼,北京市,北京市,房山区,026县道附近,,116.019943,39.689879
a2258b02942c4ec2246e981a,杏花西里-甲2号楼,北京市,北京市,房山区,迎风南路16号附近,,115.9617,39.726976
f4f4373a6cf9b8531ce99963,迎风六里-5号楼,北京市,北京市,房山区,迎风街道迎风六里5号楼,,115.968478,39.729886
b8ab1a930f52fee16b49f397,中国铁建原香汇-S7号楼,,,,北京市房山区杏花东路与城洪路交界处,,115.97825,39.719762
384a88dbf27169710782c29e,羊耳峪里-58号楼,北京市,北京市,房山区,东风街道羊耳峪里58号楼,,115.978203,39.762365
96547dd21372481877e5b619,杏花西里-7号楼,北京市,北京市,房山区,迎风街道杏花西里7号楼,,115.962462,39.726922
8ad44c8d0fc0044ac72ba1dc,杏花西里-51号楼,北京市,北京市,房山区,城关街道杏花西里51号楼,,115.967381,39.725893
bc12f2ce1388e880246e9878,羊耳峪北里-24号楼,北京市,北京市,房山区,北京市房山区羊北一巷,,115.981837,39.766422
8fb040a01ea8b7c4593ac8ea,东风北里-9号楼,北京市,北京市,房山区,东风街道东风北里9号楼,,115.967975,39.763705
55bf9a2615f653fdc7f50dbb,迎风四里-34号楼,北京市,北京市,房山区,迎风街道迎风四里34,,115.967501,39.72964
1041da0e697c9aac210262fb,中国铁建原香汇-3号楼,,,,北京市房山区杏花东路与城洪路交界处,,115.978004,39.721923
6ff5934359dad42c1329354f,万宁小区-4号楼,北京市,北京市,房山区,房山北大街与青年北路交叉口西北200米,,115.988657,39.715321
19f1935933d0dddb2b02e1da,北庄南里10号楼,北京市,北京市,房山区,燕山宏塔社区附近,,115.982583,39.719596
58213197386a04b12bb97c5e,大桃园-7号楼,北京市,北京市,房山区,北京市房山区大桃园(东万路西),,115.998933,39.791529
94276485c1bc963f8c55ec55,杏花西里-1号楼,北京市,北京市,房山区,迎风街道杏花西里甲1号楼,,115.961493,39.727962
51225a23257f3b0b1f3894aa,东风街道羊耳峪西区社区,北京市,北京市,房山区,东万路19号附近,,115.972384,39.766656
62d2b6f68a1351ac08f5eb3c,城关南里-6号楼,北京市,北京市,房山区,兴房大街39号附近,,115.991717,39.699404
49220e47bc300c407dc8763e,迎风二里-7号楼,北京市,北京市,房山区,燕山迎风大街18号,,115.961409,39.734232
cf1fe3541247e5f2c37da289,凤凰南里-8号楼,北京市,北京市,房山区,北京市房山区凤凰南里(凤凰亭路南190米),,115.949753,39.743068
dfc85ad402344f88d8eced70,羊耳峪里-46号楼,北京市,北京市,房山区,羊耳峪里西巷附近,,115.975588,39.763187
b4b5b33c63294f40a1a93472,城关南里-7号楼,北京市,北京市,房山区,城关南路6号附近,,115.992039,39.698939
389ada7ea97964ace812e43c,府东里社区-6号楼,北京市,北京市,房山区,北京市房山区京周路,,116.019273,39.712849
96195939f4da10149d82eabf,长沟峪煤矿长矿向阳楼4号楼,北京市,北京市,房山区,北京市房山区长沟峪矿家属区(周胜路西),,115.929955,39.721305
fac3613bd2975b52f4eafc35,金彩虹嘉园-6号楼,,,,北京市房山区红新路,,115.900774,39.668534
67e380bd3163f4e9130daae6,迎风四里-32号楼,北京市,北京市,房山区,岗南路31号附近,,115.966691,39.730159
2acda811c47abcfdddee8b52,城关南里-13号楼,北京市,北京市,房山区,北京市房山区南里社区(华冠・欢乐城西100米),,115.992289,39.698743
f298e20063007ba62fb17ea3,城关街道西大街乙31号楼,北京市,北京市,房山区,西大街乙31号,,115.981543,39.70934
2a7c6d4e48221c1583a00c89,迎风四里-41号楼,北京市,北京市,房山区,岗南路29号燕山石化传媒中心附近,,115.966637,39.731151
9e3397c177060c384c3a59c8,管道局小区,北京市,北京市,房山区,北京市房山区南大街51号,,115.990568,39.701183
99f6068c122bd23e6240a9b8,中国石化集团北京燕山石油化工有限公司教育培训中心教培中心4号楼,北京市,北京市,房山区,北京市房山区木头岭社区燕和园路(羊耳峪里附近),,115.978264,39.76428
03f440ef7b6c2052b75f1ec2,城关北里社区-5号楼,北京市,北京市,房山区,青年北路28号附近,,115.993624,39.711705
61d9de6a0ab20161873304ea,羊耳峪里-3号楼,北京市,北京市,房山区,东万路15号附近,,115.975031,39.768059
714fcf836816ad7493114c23,东风东里-3号楼,北京市,北京市,房山区,东风街道东风东里3号楼,,115.972517,39.760032
15fa72238600e56295f08c09,府东里社区-4号楼,北京市,北京市,房山区,北京市房山区京周路,,116.019318,39.71223
2b6de7a25a7c088fb2077d76,黄院村黄院1号楼,北京市,北京市,房山区,周口店镇黄院村黄院1号楼,,115.916299,39.683797
6d225cce129a73f8095cb3f6,军工路家属区8号楼,北京市,北京市,房山区,北京市房山区河北镇军工路家属区8号楼,,115.977886,39.812747
661c57a37269c788f60e774c,北关东里-11号楼,北京市,北京市,房山区,城关街道北关东里11号楼,,115.991475,39.711858
74f2d44e7985949cac080faf,城关街道西大街甲31号楼,北京市,北京市,房山区,西大街甲31号,,115.98155,39.709022
d42d9761a60a11664c3a5974,羊耳峪北里-19号楼,北京市,北京市,房山区,东风街道羊耳峪北里19号楼,,115.980609,39.767544
e5ca980ec9d697ef4151c02a,府东里社区-2号楼,北京市,北京市,房山区,北京市房山区京周路,,116.019231,39.711588
6b75a7f35338d7594c6d46cb,东风东里-6号楼,北京市,北京市,房山区,燕山东风街,,115.972472,39.759162
d15d1f0ac5f268a8d8d8919b,富燕新村一区-8号楼,,,,北京市房山区燕山北庄路富燕新村一区,,115.994898,39.725744
7db55313af102dbc9e9d6877,羊耳峪里-6号楼,北京市,北京市,房山区,北京市房山区燕山木头岭社区东万路羊耳峪里,,115.975022,39.76775
811d46284c2785b0471a32df,迎风六里-14号楼,北京市,北京市,房山区,迎风街道迎风六里14号楼,,115.969831,39.728316
4a25f7f790b83dcf921fc9a4,迎风六里-8号楼,北京市,北京市,房山区,迎风街道迎风六里8号楼,,115.968605,39.730875
2b6868ac5377e02d9cec2be2,杏花东里-3号楼,北京市,北京市,房山区,北京市房山区燕山岗南路杏花东里(杰辉苑西50米),,115.968342,39.727305
7253f28fb2d27df5eae582aa,中国铁建原香漫谷-7号楼,,,,北京市房山区丁家洼路,,116.016199,39.71955
6629d1152643cac9c0364498,凤凰南里-5号楼,北京市,北京市,房山区,北京市房山区凤凰亭路,,115.950598,39.743707
0a4a4716e0e38f7cae04574b,万宁小区-9号楼,北京市,北京市,房山区,北京市房山区房山北大街,,115.987433,39.713956
6dc2a94ca0998713f219376a,杏花东里-7号楼,北京市,北京市,房山区,北京市房山区岗南路,,115.968345,39.726598
b025230575af91ed2202620d,大桃园-4号楼,北京市,北京市,房山区,北京市房山区大桃园(东万路西),,115.998318,39.792474
66f5ac11ef415955364aaed4,羊耳峪北里-21号楼,北京市,北京市,房山区,北京市房山区羊北一巷,,115.9809,39.766802
e7213eff707fd61eab059d1e,杏花西里-30号楼,北京市,北京市,房山区,北京市燕山前进中学附近,,115.965704,39.726649
9b29650d078fa2937f29bd06,城关北里18号楼,北京市,北京市,房山区,北大寺街附近,,115.993588,39.710118
8d6254fa881d0fb36d20b983,北关东里-7号楼,北京市,北京市,房山区,青年北路28号附近,,115.991722,39.712955
40ba5ae37f01f8a8b35c6a57,青年南路乙7号楼,北京市,北京市,房山区,青年南路乙7号,,115.998004,39.70482
0f8caf564ed2d19dd13ce333,金彩虹嘉园-1号楼,,,,北京市房山区红新路,,115.899777,39.669205
e7cb99873000d6889e95de5c,迎风二里-10号楼,北京市,北京市,房山区,北京市房山区迎风街,,115.959724,39.733449
b4ba9ea24da154b7a11de9f9,迎风六里-13号楼,北京市,北京市,房山区,迎风街道迎风六里13号楼,,115.96927,39.728976
b319f0c763b8d2eb631809d7,迎风一里-7号楼,北京市,北京市,房山区,燕山迎风街,,115.96005,39.738677
1b96a4c255a54ff1b220a8c2,城关北里社区-14号楼,北京市,北京市,房山区,北京市房山区城关北里社区(仓房小区北100米),,115.993502,39.710867
244303ef4b3ef0979c09f794,迎风一里-24号楼,北京市,北京市,房山区,向阳街道迎风一里24,,115.960102,39.737029
0f751a388c12c1fc17948e3d,迎风五里-15号楼,北京市,北京市,房山区,迎风街道迎风五里15,,115.966132,39.728277
bf2f17ef49d768e3601c67d6,吉兴苑-1号楼,北京市,北京市,房山区,北京市房山区南关房山南大街永乐园社区吉兴苑,,115.991238,39.70399
9c963e49db58a1dcb11e3667,杏花西里-17号楼,北京市,北京市,房山区,迎风街道杏花西里17号楼,,115.963395,39.726666
b2a01f36f39d19fc86420ebc,羊耳峪西区21号楼,,,,北京市房山区羊耳峪西区21,,115.967198,39.768312
474cbc54c2837704b9df8fb2,杏花西里-9号楼,北京市,北京市,房山区,迎风街道杏花西里9号楼,,115.962472,39.726241
f59b17451fcc8b1a5cbe86e4,羊耳峪里-15号楼,北京市,北京市,房山区,东风街道羊耳峪里15号楼,,115.973835,39.766808
90625da44da06dec8b2fb571,杏花西里-13号楼,北京市,北京市,房山区,迎风街道杏花西里13,,115.963397,39.727927
88a37417a482bcb1b23c8140,迎风二里-25号楼,北京市,北京市,房山区,迎风街道迎风二里25,,115.960633,39.736006
82ef100700c2c5fa17c90586,迎风二里-5号楼,北京市,北京市,房山区,燕山迎风大街18号,,115.960534,39.735609
2adfc81770aae03b00ff2d91,迎风一里-23号楼,北京市,北京市,房山区,燕山燕化职工文化活动中心附近,,115.959761,39.73714
1110f5d96c4c7f6583a00ccc,迎风六里-18号楼,北京市,北京市,房山区,迎风街道迎风六里18,,115.970506,39.729612
4509c0ef5720fab5be4842e3,杏花西里-10号楼,北京市,北京市,房山区,迎风街道杏花西里10号楼,,115.962471,39.725878
6abec06c8fcd91d0bbbd6322,东风北里-13号楼,北京市,北京市,房山区,东风街道东风北里13号楼,,115.968736,39.764618
6a77635f0267d4344e2fdf42,万宁小区-12号楼,北京市,北京市,房山区,北京市房山区城关街道房山北大街万宁小区12号楼,,115.988851,39.714581
02027c483c217cf62a02e184,城关南里-2号楼,北京市,北京市,房山区,房山南大街84号附近,,115.991642,39.698139
774ce25a214b5ae14354d70b,东风南里-1号楼,北京市,北京市,房山区,东风街道东风南里1号楼,,115.970968,39.761958
d945656ae8a111a1b05c6ad8,富燕新村四区-14号楼,北京市,北京市,房山区,北京市房山区燕房路北侧(万宁桥环岛北),,115.983509,39.723353
91388866e7ee92cacd04ef01,迎风北庄南里-1号楼,北京市,北京市,房山区,北京市房山区燕山宏塔公园(燕房路南140米),,115.982374,39.721526
f605f1cb199f6a43a90dd833,中国石化集团北京燕山石油化工有限公司教育培训中心教培中心1号楼,北京市,北京市,房山区,北京市房山区木头岭社区东万路(羊耳峪里附近),,115.978328,39.765267
db054076860f304014b54b24,迎风四里-14号楼,北京市,北京市,房山区,燕山迎风五巷房山迎风四里,,115.961919,39.730227
6547265f9aae48979cf779bb,迎风二里-16号楼,北京市,北京市,房山区,迎风街道迎风二里16,,115.959676,39.734946
1796e0df333cb9e593114c35,羊耳峪北里-25号楼,北京市,北京市,房山区,北京市房山区羊北一巷,,115.982031,39.766084
c326f0405fb26e653ce23173,中国铁建原香汇-7号楼,,,,北京市房山区杏花东路与城洪路交界处,,115.979017,39.721375
3c3b68b201abaf7cad045766,东风南里(南区)30号楼,,,,双泉西路附近,,115.968798,39.758326
80097a092d300c4814c8f610,东风南里-17号楼,北京市,北京市,房山区,北京市房山区燕山双泉西路东风南里(东风东里附近),,115.969772,39.759621
8bc0d2314ddde3b86ca3cc66,迎风四里-25号楼,北京市,北京市,房山区,北师大燕化附中附近,,115.964249,39.72994
8efcb6244f78cb45be48428c,大桃园-1号楼,北京市,北京市,房山区,北京市房山区河北镇东万路大桃园(万佛堂公交站南),,115.9973,39.793612
19cb220c9bada4783c9a5ebe,羊耳峪北里-26号楼,北京市,北京市,房山区,北京市房山区羊北一巷,,115.981732,39.765716
2e104fddeeee9bbc3fe231c0,迎风四里-33号楼,北京市,北京市,房山区,岗南路31号附近,,115.967059,39.729912
9a0c5135aaceaec2f8221325,东风北里-40号楼,北京市,北京市,房山区,东风一巷附近,,115.96665,39.763088
2ba09549ff669a6138221c1a,城关街道矿机南路1号院16号楼,北京市,北京市,房山区,北京市房山区农林路社区城关街道矿机南路1号院,,115.994813,39.694018
0b5b2e2549e3d58501294fbc,城关北里社区-1号楼,北京市,北京市,房山区,北京市房山区城关街道青年北路城关北里社区,,115.992462,39.712163
3b8cc93bace4f1b743024528,中国铁建原香漫谷-4号楼,,,,北京市房山区丁家洼路,,116.015366,39.719713
d5967f3e18120ce48bdb73c3,羊耳峪南里-5号楼,北京市,北京市,房山区,双泉路7号附近,,115.97309,39.761895
398f8e25ca1d32042bd7aba9,凤凰北里-23号楼,北京市,北京市,房山区,向阳街道九渡桥北京燕化东方工贸有限公司生活小区附近,,115.954214,39.745979
90c9685ee467c1849222e005,东风南里-14号楼,北京市,北京市,房山区,东风二巷东50米,,115.969494,39.760278
6d20511161175c361f389481,长沟峪煤矿长矿向阳楼2号楼,北京市,北京市,房山区,北京市房山区长沟峪矿家属区(周胜路西),,115.929965,39.721857
dfd0ebe1f449d606abf729f4,永乐园三里-3号楼,北京市,北京市,房山区,北京市房山区南斜街54号,,115.993557,39.703832
741997c815bf32c48433042c,东风北里-43号楼,北京市,北京市,房山区,北京市房山区燕山双泉路东风北里,,115.967188,39.764071
a84f350a8a8ea3b4f7e73b80,东城根,北京市,北京市,房山区,房山城关东城根小区,,115.994916,39.706859
0ddbe662f1aca30cad080fc1,城关街道房山北关大街38号楼,北京市,北京市,房山区,北京市房山区城关街道北关燕房路万宁小区,,115.98962,39.714576
eff16f3bd32fe61e4bcc4adc,迎风四里-6号楼,北京市,北京市,房山区,燕山迎风五巷房山迎风四里,,115.960793,39.731667
b99428f70171b386c17da21e,东风北里-2号楼,北京市,北京市,房山区,东风街道东风北里2号楼,,115.966992,39.766332
a80f7f7c53f16b87922ca3c5,万宁小区-8号楼,北京市,北京市,房山区,北京市房山区房山北大街,,115.9872,39.714614
a448b8eb825bd7de79f796a8,燕化物业北庄公寓-3号楼,北京市,北京市,房山区,迎风街道燕化物业北庄公寓3号楼,,115.97354,39.729421
11dc4af10d03d21d1288243f,城关街道矿机北路3号楼,北京市,北京市,房山区,北京市房山区城关街道矿机北路3号楼(万窑路南),,116.002848,39.695556
efe2fdb07709ae017d29bd88,燕化物业北庄公寓-1号楼,北京市,北京市,房山区,迎风街道燕化物业北庄公寓1号楼,,115.97358,39.729929
35ba11437f6b3569f7eafc95,迎风四里-5号楼,北京市,北京市,房山区,迎风街19号附近,,115.960786,39.732006
47b213fd8797edcbb1077de5,东风街道东万路2号楼,北京市,北京市,房山区,北京市房山区燕山东风街道东万路2号楼,,115.972623,39.763777
0bc699e6b298bba8afee7aa5,兴东大街3号楼,北京市,北京市,房山区,兴东大街3号,,116.026031,39.711608
0ada529476d7a19b12293532,东风北里-11号楼,北京市,北京市,房山区,北京市房山区燕山双泉路东风北里,,115.967495,39.764096
f2d7ea54b2b5f46a07fef5a9,凤凰南里-1号楼,北京市,北京市,房山区,北京市房山区凤凰亭路,,115.950851,39.744398
14eac34e1af7026ac17da2be,万宁小区-13号楼,北京市,北京市,房山区,北京市房山区城关街道房山北大街万宁小区,,115.987064,39.713738
c38dec41010c871849fc8d58,迎风四里-2号楼,北京市,北京市,房山区,迎风街19号附近,,115.960671,39.732351
106d74c499ec5d2936b06c1f,燕房路小区-17号楼,北京市,北京市,房山区,北京市房山区,,115.996246,39.713364
988500b750b699d781288af5,东风东里-2号楼,北京市,北京市,房山区,东风街道东风东里2号楼,,115.972014,39.760353
7992e237f68345aa15764377,羊头岗村羊头岗新村羊头岗2号楼,北京市,北京市,房山区,北京市房山区羊头岗新村2号楼(大件路北),,116.018186,39.730636
06e04faa186872922b11d1ec,南沿里-10号楼,北京市,北京市,房山区,北京市房山区京周路与兴房大街交叉口东南150米,,116.000131,39.700738
210509e1071e2d9a9cec2b70,凤凰北里-24号楼,北京市,北京市,房山区,北京市房山区凤凰亭路,,115.95412,39.74636
38a156ded48d4fd25b109365,福胜胡同-2号楼,,,,北京市房山区,,115.992604,39.708993
247d9443a605ee16f50e779b,金彩虹嘉园-3号楼,,,,北京市房山区红新路,,115.899723,39.668635
d4e9691882d26864c8213d74,兴房苑小区-5号楼,北京市,北京市,房山区,京周路与兴房大街交叉口南100米,,116.000152,39.70316
0fbf56ce8ce46cfd16c90527,兴房大街甲18号楼,北京市,北京市,房山区,兴房大街甲18号,,115.997097,39.701928
2bbb911f4ae0e10c88fc06b6,燕和园小区11号楼,,,,北京市房山区燕山燕和园(燕和园路南),,115.975317,39.761008
4648bba3c111bab9095cb3ad,金彩虹嘉园-2号楼,,,,北京市房山区红新路,,115.899691,39.668933
6a3089acda3e0b588936eeb3,万宁小区-16号楼,北京市,北京市,房山区,北京市房山区城关街道房山北大街万宁小区旁,,115.987028,39.714992
4957d9dcdaa561d6f92213b1,迎风街道迎风六里三区2号楼,北京市,北京市,房山区,北京市房山区迎风街,,115.972994,39.72778
f8fc28efebe6b0b40b69d98c,东风北里-33号楼,北京市,北京市,房山区,东风街12号附近,,115.968097,39.76199
1990678be6abdbae2b06ce36,福胜家园-3号楼,北京市,北京市,房山区,北京市房山区城关东大街2号,,115.994756,39.709492
6984b00352990c848c1a8936,迎风二里-23号楼,北京市,北京市,房山区,迎风街11号附近,,115.961199,39.736397
0730df9cce24514a4e776e2a,城关街道矿机北路2号楼,北京市,北京市,房山区,北京市房山区城关街道矿机北路2号楼(万窑路南),,116.002787,39.695116
16fd1b5d039b06408d7727cb,羊耳峪北里-8号楼,北京市,北京市,房山区,北京市房山区燕山木头岭社区羊北一巷羊耳峪北里,,115.979767,39.769154
249f116002c5b89d5d17c334,中国铁建原香漫谷-11号楼,,,,北京市房山区丁家洼路,,116.017536,39.719459
012713b2dfaa484f601c6705,东山口村东山口小区2号楼,北京市,北京市,房山区,北京市房山区周胜路,,115.939809,39.710927
dc993423430198f043afe664,南沿里-7号楼,北京市,北京市,房山区,京周路与兴房大街交叉口东南150米,,115.997735,39.700652
cc5740f755b7f5bf5bbbbc00,杏花西里-甲27号楼,北京市,北京市,房山区,城关街道杏花西里甲27号楼,,115.966995,39.727595
ef0b2d39519a7c799cf779a3,凤凰北里-10号楼,北京市,北京市,房山区,北京市房山区燕山迎风一里社区凤凰亭路凤凰北里,,115.953271,39.745954
f6d0f22fbf14f466e8e582da,迎风一里-2号楼,北京市,北京市,房山区,凤凰亭路附近,,115.961234,39.738243
5e017daf9b38e003b1077dd1,南关大街63号楼,北京市,北京市,房山区,南关大街63号,,115.990519,39.699228
cc43b0ba199baa9fe5e965f5,羊耳峪里-59号楼,北京市,北京市,房山区,东风街道羊耳峪里59号楼,,115.978293,39.761976
2a7cae729a78785626e0a0f8,羊耳峪里-28号楼,北京市,北京市,房山区,东风街道羊耳峪里28号楼,,115.975723,39.764923
9d552a81e028aea6da2f284d,迎风四里-13号楼,北京市,北京市,房山区,迎风街道迎风四里13,,115.96111,39.729698
22cbbe81143be7e15c0d0251,迎风一里-10号楼,北京市,北京市,房山区,凤凰亭路附近,,115.959876,39.739409
b3dfe43cfb4dd2843a13fd28,南关大街67号楼,北京市,北京市,房山区,南关大街67号,,115.990461,39.698492
c81a52775c8b5569a8f0cdc6,羊耳峪里-53号楼,北京市,北京市,房山区,北京市房山区燕山双泉滨河路羊耳峪里附近,,115.976064,39.761962
7190404d933881f9a2a9346d,中国铁建原香漫谷-8号楼,,,,北京市房山区丁家洼路,,116.01628,39.719076
410792c5342adf5adc1e5252,永安西里-21号楼,北京市,北京市,房山区,永安中路西100米,,115.986672,39.695529
97f25bf727d07b2c740269ed,杰辉苑-7号楼,北京市,北京市,房山区,迎风南路甲6号,,115.971119,39.727383
9c536a59370df4d2d23ce36f,迎风四里-29号楼,北京市,北京市,房山区,北师大燕化附中附近,,115.965655,39.730828
db0cb0cd4085a30896f08ce2,富燕新村四区-13号楼,北京市,北京市,房山区,北京市房山区燕房路北侧(万宁桥环岛北),,115.983089,39.723753
0fcd4269b8732f6db54f5426,迎风四里-21号楼,北京市,北京市,房山区,迎风街道迎风四里21,,115.963641,39.729687
bab364f9610ee9596d20b9b2,羊耳峪里-12号楼,北京市,北京市,房山区,羊耳峪里西巷附近,,115.974798,39.767235
5ae91a1f63cc2250715e80f5,城关南里-4号楼,北京市,北京市,房山区,房山南大街84号附近,,115.991674,39.698765
c3921b00ed1057d0f9f0cb1e,城关街道矿机南路1号院22号楼,北京市,北京市,房山区,北市城关街道矿机南路1号院,,115.99477,39.692302
084a4ef5a2ed3b42c8213dc3,迎风一里-5号楼,北京市,北京市,房山区,凤凰亭路附近,,115.960958,39.73904
01c38e986dbf8385c61b75c9,东风南里-11号楼,北京市,北京市,房山区,东风二巷东50米,,115.96981,39.760528
5033d8b8c1a69edde856fa2b,北关东里-10号楼,,,,北京市房山区城关街道燕房路城北社区,,115.991609,39.712255
ed51dd80ee60ca0594ec8414,福胜家园-8栋,北京市,北京市,房山区,北京市房山区城关东大街2号,,115.994034,39.709324
742f7f85e8d7f0b93110afb4,兴东大街149号楼,北京市,北京市,房山区,兴东大街149号,,116.007233,39.706703
da36ebb3a5579844fbf0cb96,城关街道矿机北路7号楼,北京市,北京市,房山区,北京市房山区城关街道矿机北路7号楼(万窑路南),,116.003608,39.69501
b72d317dc0e3d8ac3617dc4f,迎风五里-21号楼,北京市,北京市,房山区,岗南路31号附近,,115.966987,39.728615
8e57b6db879037c0ed74f8e8,向阳里,北京市,北京市,房山区,北京市燕山站路,,115.964065,39.743321
241b713de6c6aeb66140a95e,永安西里社区-1号楼,北京市,北京市,房山区,北京市房山区房山区永安家园(永安中路西),,115.98878,39.697598
046c561ce99a6c6f6140a930,城关北里社区-15号楼,北京市,北京市,房山区,北大寺街附近,,115.99413,39.71049
c2b03690c81883cc1d580064,城关街道煤建公司家属院,北京市,北京市,房山区,兴房大街与南斜街交叉口西100米,,115.994983,39.701832
9e907f7e9623f80502897290,城关北里社区-6号楼,北京市,北京市,房山区,青年北路28号附近,,115.994279,39.711645
4902adb215a32d985bbbbc80,羊耳峪里-13号楼,北京市,北京市,房山区,北京市房山区东万路,,115.975723,39.767315
6fe2e3606dd5649657bfffc0,城关南里-11号楼,北京市,北京市,房山区,北京市房山区京周路城关南里社区城关南里11号楼,,115.99298,39.699127
80a8ab32856ca2c6cf06a4cc,青年南路甲7号楼,北京市,北京市,房山区,青年南路甲7号,,115.997628,39.705046
bfb5f78516ce05e5f942b232,军工路家属区2号楼,北京市,北京市,房山区,北京市房山区河北镇军工路家属区2号楼,,115.978542,39.81308
6f1d31ef94bbd9a6601c671c,东风南里-23号楼,北京市,北京市,房山区,东风街道东风南里23号楼,,115.968497,39.759
98f64c681e6c44f8b64f548b,竹政园7号楼,北京市,北京市,房山区,万佛堂医院附近,,115.992001,39.797477
7803870de69ba61cadcb6655,迎风五里-13号楼,北京市,北京市,房山区,迎风南路12号附近,,115.964521,39.728355
3ee348201d7ede6330169b25,南沿里-9号楼,北京市,北京市,房山区,北京市房山区南沿里9号楼(万窑路东240米),,116.001302,39.700191
51e9edbb5edc33917ec8768c,羊耳峪里-8号楼,北京市,北京市,房山区,东风街道羊耳峪里8号楼,,115.976649,39.767772
8f2444a3216c7ad2343a7147,东风东里-7号楼,北京市,北京市,房山区,北京市房山区燕山双泉路东风东里,,115.971776,39.759689
160ffe44b413d8f51e1d117f,迎风二里-17号楼,北京市,北京市,房山区,迎风街道迎风二里17,,115.959688,39.735202
6f3a0da4b24e9e17dc1e5257,兴东大街147号楼,北京市,北京市,房山区,兴东大街147号,,116.008061,39.706944
c78cad050bd073c0b5147f00,迎风五里甲-4号楼,北京市,北京市,房山区,迎风街43号附近,,115.962104,39.728987
c3942366d62b9f46a6da39df,凤凰南里-7号楼,北京市,北京市,房山区,北京市房山区凤凰亭路,,115.950068,39.74322
498e09f96937612245572646,采石场平房1号楼,北京市,北京市,房山区,北京市房山区鑫山矿社区(周张路南180米),,115.932766,39.680847
0899042b4e582a60ca09f04c,城关街道矿机北路1号楼,北京市,北京市,房山区,北京市房山区城关街道矿机北路1号楼,,116.002824,39.694535
755ade1cde3abcaae856fa9d,永兴家园4号院2号楼,,,,农林路,,115.992085,39.69492
b8f321560198663d4d554733,迎风六里-22号楼,北京市,北京市,房山区,北京市房山区,,115.970563,39.728309
5a08be1159dcf9719868b460,迎风一里-15号楼,北京市,北京市,房山区,北京市房山区凤凰亭路9号,,115.958324,39.739634
6cbe968727a213afd5b74e89,南沿里-6号楼,北京市,北京市,房山区,京周路与兴房大街交叉口东南150米,,115.99768,39.700967
45c918d919e1fffbaecb66c6,迎风二里-9号楼,北京市,北京市,房山区,迎风街道迎风二里9,,115.960877,39.733813
09bde89c4d8491c901294f66,杏花西里-29号楼,北京市,北京市,房山区,北京市燕山前进中学附近,,115.965791,39.726952
4d4585a5f662c158c42ba197,城关街道矿机南路1号院12号楼,北京市,北京市,房山区,北京市房山区城关街道矿机南路1号院北煤机幼儿园,,115.995778,39.694911
b0c958760f430a1e52e5c544,迎风四里-31号楼,北京市,北京市,房山区,燕山迎风五巷房山迎风四里,,115.966407,39.730361
8e21037edb2d4891931fc972,万宁小区-甲1号楼,北京市,北京市,房山区,城关街道万宁小区1号楼,,115.98948,39.716114
65f9636478bd777c81288a37,东风东里-5号楼,北京市,北京市,房山区,双泉路7号附近,,115.973145,39.759386
c1d3628f6a540b19eee4a51b,杰辉苑-3号楼,北京市,北京市,房山区,迎风南路甲6号,,115.969815,39.726573
73b595fd5a927b74c72ba1ca,凤凰北里-1号楼,北京市,北京市,房山区,北京市房山区凤凰亭路,,115.952261,39.745776
68a0538821cca5e62102206f,永乐园三里-5号楼,北京市,北京市,房山区,南斜街56附近,,115.993585,39.70343
06743b117be112a300ec0173,迎风四里-11号楼,北京市,北京市,房山区,北京市房山区商业街附近,,115.961094,39.730229
b96e93620590e03f4e776ee5,东风南里-26号楼,北京市,北京市,房山区,东风街道东风南里26号楼,,115.966833,39.759062
9590fe3e1e9cff07b54f5469,永兴达家园-7号楼,北京市,北京市,房山区,兴房大街与城关南路交叉口西北150米,,115.993025,39.701011
ada4e4fba8850e04a11de9ad,羊耳峪北里-22号楼,北京市,北京市,房山区,北京市房山区羊北一巷,,115.981058,39.766443
23ba6887818030640a5cb37a,迎风三里-10号楼,北京市,北京市,房山区,迎风街33号附近,,115.958063,39.730074
9b56d9916ec44b89a20464dc,城关街道顾册老师家属院3号楼,北京市,北京市,房山区,北京市房山区顾册路城关街道顾册老师家属院3号楼,,115.98224,39.684764
4cb0f524f3cd53106f3e1bc9,永安西里北区-3号楼,北京市,北京市,房山区,北京市房山区城关南路永安西里社区(永安家园附近),,115.988531,39.698351
91b7d94798041c1c1576438f,羊耳峪里-1号楼,北京市,北京市,房山区,东风街道羊耳峪里1号楼,,115.974596,39.768274
5f85f2362f50bb07fea778c3,中国铁建原香汇-9号楼,,,,北京市房山区杏花东路与城洪路交界处,,115.97952,39.720901
085a4a60bdd25a5badcb665f,福胜家园-1栋,北京市,北京市,房山区,北京市房山区城关东大街2号,,115.994103,39.708217
c783c4f2aee56c30f7b916b1,大桃园-2号楼,北京市,北京市,房山区,北京市房山区河北镇万佛堂东万路大桃园,,115.997867,39.793239
343a14f334dadf09b7265568,城关街道兴房大街14号院4号楼,北京市,北京市,房山区,北京市房山区兴房大街14号院(京周路南),,115.999904,39.701921
f9c25e00031907fc86420e24,中国石化集团北京燕山石油化工有限公司教育培训中心教培中心3号楼,北京市,北京市,房山区,北京市房山区燕山燕房东北环线羊耳峪里东150米,,115.978987,39.765143
b53d907370c20e735e0d0211,府东里社区-3号楼,北京市,北京市,房山区,北京市房山区京周路府东里社区中国铁建・原香漫谷,,116.019236,39.711904
759343287be3419dfbdc85a8,福星家园C区-1号楼,北京市,北京市,房山区,房山南大街福星家园C区附近,,115.991484,39.701168
39fd08182e32774e2a02e1b4,房山区城关街道管道局社区-1号楼,,,,北京市房山区房山区城关街道管道局社区1号楼,,115.990369,39.701473
c32f6ba50b61425ed92f2817,福金苑-3号楼,,,,北京市房山区万窑路,,116.019879,39.69034
0d1b5026975cadf30c0e6b40,迎风四里-38号楼,北京市,北京市,房山区,北京市房山区迎风四里社区迎风街(燕山公园东),,115.967229,39.731188
8b489ab891de74099ee321fe,九洲兴达家园A区-6号楼,北京市,北京市,房山区,城关街道兴房大街49号九洲兴达家园A区6号楼,,115.990138,39.69591
fd9a00007a001b20dbeced6d,迎风一里-12号楼,北京市,北京市,房山区,北京市房山区凤凰亭路9号,,115.959984,39.739879
d344f6d1b18372e424e0a05f,迎风四里-10号楼,北京市,北京市,房山区,北京市房山区商业街附近,,115.960953,39.7309
a4979264a690e1b6220262e5,万宁小区-2号楼,北京市,北京市,房山区,北京市房山区城关街道房山北大街万宁小区,,115.988864,39.715821
0a15d966b1327d4eafee7ac7,迎风六里-15号楼,北京市,北京市,房山区,北京市房山区,,115.969821,39.728631
23ee56ba657e13eacafa5fc0,九洲兴达家园-A区-3号楼,北京市,北京市,房山区,北京市房山区城关街道房琉路九洲兴达家园(A区),,115.988977,39.695489
0c228203bc9ed0528a36ee4f,北庄南里12号楼,北京市,北京市,房山区,城关街道北庄南里12号楼,,115.981518,39.720028
04d3f03fafaa53db6018090a,栗园东里30号楼,北京市,北京市,房山区,北京市房山区向阳街道凤凰亭路燕山石化生产厂区,,115.939746,39.74383
8a88a8f98b28c0ee0189728d,中国铁建原香漫谷-27号楼,,,,北京市房山区丁家洼路,,116.015332,39.721842
4deeafff44c2e472cd04ef66,杰辉苑-15号楼,北京市,北京市,房山区,迎风南路甲6号,,115.972324,39.726877
206d9f509c8310413210af70,九洲兴达家园-12号楼,北京市,北京市,房山区,北京市房山区九洲兴达家园(B区),,115.989713,39.697012
e33e7c4555a94ca1cf06a49c,城关街道矿机南路1号院19号楼,北京市,北京市,房山区,北京市房山区矿机路小区(房琉路东370米),,115.995407,39.693291
c8666c89a93ed8b1ab059d6a,中国石化集团北京燕山石油化工有限公司教育培训中心教培中心2号楼,北京市,北京市,房山区,北京市房山区木头岭社区燕和园路(羊耳峪里附近),,115.977926,39.764862
03721b678c1bf61f3ce23106,凤凰北里-9号楼,北京市,北京市,房山区,向阳街道九渡桥北京燕化东方工贸有限公司生活小区附近,,115.953608,39.746432
d5f52ab08802e165213bf28f,新街村2号楼,北京市,北京市,房山区,002县道附近,,115.942721,39.661807
4d3f8115c17243dd5fbe8611,城关街道兴房大街20号楼,北京市,北京市,房山区,北京市房山区城关街道兴房大街20号楼(万窑路),,115.997367,39.701428
a1736e32766c04a8dbd8910b,东风南里-12号楼,北京市,北京市,房山区,东风二巷东50米,,115.970594,39.76042
b51c594c29bd0d52c6effb28,大韩继七区21号楼,,,,北京市房山区周口店镇阎周路大韩继七区21号楼,,115.950435,39.663909
e115668b3fd3bd830b69d921,城关街道煤建公司家属院-2号楼,北京市,北京市,房山区,北京市房山区京周路城关街道煤建公司家属院2号楼,,115.99479,39.701706
31f029eb641ddc184d6d4642,李家岭,北京市,北京市,房山区,北京市房山区,,115.863772,39.805847
0dbfe5272a05bed5354aae05,羊耳峪北里-7号楼,北京市,北京市,房山区,北京市房山区羊北一巷,,115.978188,39.768976
15c3fa6a54a34c71774ff1a1,羊耳峪里-45号楼,北京市,北京市,房山区,东风街道羊耳峪里45号楼,,115.975281,39.763413
1f0a9a9c87403136d92f2873,东风南里-34号楼,北京市,北京市,房山区,燕山站路3号附近,,115.967361,39.75782
9a9c7bc1b7aa1708c056ac36,东风南里-18号楼,北京市,北京市,房山区,东风二巷附近,,115.968852,39.759761
dbf83d3d67cae51f0bccddae,北京市红光机械厂家属区6号楼,北京市,北京市,房山区,北京市房山区红光机械厂家属区6号楼,,115.931573,39.65715
fde9eedc6ce8e6494251c0f3,羊耳峪里-23号楼,北京市,北京市,房山区,东风街道羊耳峪里23号楼,,115.976882,39.766063
bbbd8109c805280db2077dbc,迎风二里-6号楼,北京市,北京市,房山区,迎风街15号附近,,115.960967,39.734654
1c440747871d480a3904b1ba,东风南里-10号楼,北京市,北京市,房山区,东风街道东风南里10号楼,,115.969114,39.76075
fc5fe7fd92418b12dbeced85,东风南里-4号楼,北京市,北京市,房山区,东风街道东风南里4号楼,,115.970006,39.76142
fcdb8936489b6e462dfaa7fd,迎风一里-3号楼,北京市,北京市,房山区,凤凰亭路与迎风北路交叉口西南100米,,115.961055,39.738714
d1521d2ee801874bd42ce206,迎风五里-18号楼,北京市,北京市,房山区,迎风街道迎风五里18,,115.966122,39.729273
b62ae4d6e441c735c356acc6,富燕新村三区-3号楼,北京市,北京市,房山区,北京市房山区燕房路北侧(万宁桥环岛北),,115.988874,39.722061
df2c64843ea16c1b6fc02cde,羊耳峪里-55号楼,北京市,北京市,房山区,羊耳峪里西巷附近,,115.976657,39.762348
964fe662fe571a6dfbf0cbb0,东风北里-38号楼,北京市,北京市,房山区,东风街30号附近,,115.967576,39.7625
009e434a3d28261031f71dc8,迎风街道燕房路-9号楼,北京市,北京市,房山区,房山站路与燕房路交叉口北150米,,115.996057,39.712717
60f62f37aea4586f40afe6ee,九洲兴达家园-7号楼,北京市,北京市,房山区,北京市房山区城关街道城关南路九洲兴达家园7号楼,,115.99045,39.696855
d4b997d6b0a6cc8c882fb57f,竹政园1号楼,北京市,北京市,房山区,北京市房山区河北镇万佛堂房东路竹政园1号楼,,115.99307,39.796738
c3bb6ff7e683e6572fe67b8f,迎风五里-20号楼,北京市,北京市,房山区,岗南路31号附近,,115.966973,39.728957
0151a817910cc20c0b5cb318,向阳里-18号楼,北京市,北京市,房山区,向阳一巷附近,,115.964199,39.742419
a514bb5bd15ec55db54f54e2,东风南里-6号楼,北京市,北京市,房山区,东风街道东风南里6号楼,,115.971127,39.761197
95827dbc7f55e89fe8e58240,羊耳峪里-51号楼,北京市,北京市,房山区,羊耳峪里西巷附近,,115.976029,39.762402
1741a90a70f43e3dfbf0cb12,城关街道矿机南路1号院24号楼,北京市,北京市,房山区,北京市房山区,,115.994557,39.695827
639833a3d9a6e6117c29bd57,凤凰北里-5号楼,北京市,北京市,房山区,向阳街道九渡桥北京燕化东方工贸有限公司生活小区附近,,115.953167,39.746842
1a367fbe9e45bb3d9b68b49f,迎风五里-16号楼,北京市,北京市,房山区,迎风南路10号附近,,115.966121,39.728604
e7677d7a324b464988db73a8,城关街道矿机南路1号院4号楼,北京市,北京市,房山区,北京市房山区,,115.995572,39.694433
08d9cfd532213405abf0cd67,迎风四里-39号楼,北京市,北京市,房山区,岗南路29号附近,,115.967221,39.730881
286aa9e8210050ec82a12e51,羊耳峪里-44号楼,北京市,北京市,房山区,羊耳峪里西巷附近,,115.974888,39.763169
f316ee23343bbe588bfc068c,兴房大街丙4号楼,北京市,北京市,房山区,兴房大街丙4号,,115.999654,39.703114
4e4529624b973fc0841541d8,李各庄社区,,,,北京市房山区河北镇,,115.955694,39.827217
3687c9b71543b443593ac8c1,城关北里社区-12号楼,北京市,北京市,房山区,青年北路28号附近,,115.994207,39.711137
7f40fc8654069f272fe67b92,栗园东里40号楼,北京市,北京市,房山区,北京市房山区燕山石化生产厂区(凤凰亭路西),,115.940399,39.744569
72511a2d2f07895ed6b74e47,北京市红光机械厂家属区5号楼,北京市,北京市,房山区,北京市红光机械厂家属区6号楼附近,,115.931447,39.656777
8b5648ed2a61fac7a2a93423,北京市红光机械厂家属区4号楼,北京市,北京市,房山区,北京市红光机械厂家属区6号楼附近,,115.931429,39.656499
d3d76b54e75c347652e5c578,杏花西里-6号楼,北京市,北京市,房山区,迎风街道杏花西里6号楼,,115.962421,39.727265
66aa3d0a5b8218f5dc1e5248,杏花西里-5号楼,北京市,北京市,房山区,迎风街道杏花西里5号楼,,115.96239,39.727632
5f61046815218756f219373a,凤凰北里-4号楼,北京市,北京市,房山区,九渡桥北京燕化东方工贸有限公司生活小区附近,,115.952926,39.746509
02d3e1788cd60aea90114cb6,栗园东里33号楼,北京市,北京市,房山区,北京市房山区向阳街道凤凰亭路燕山石化生产厂区,,115.939837,39.744041
d75fe3811b4a57deed74f8e5,迎风四里-28号楼,北京市,北京市,房山区,岗南路29号燕山石化传媒中心附近,,115.9661,39.73105
958f9ca05a6c45a500ec01e4,竹馨园1号楼,北京市,北京市,房山区,万佛堂村附近,,115.995118,39.795685
5b509982bc3f045108ccdde8,凤凰南里-9号楼,北京市,北京市,房山区,向阳街道凤凰南里9号楼,,115.949698,39.742832
f81ce9e63f4951b82fb96d93,羊耳峪北里-14号楼,北京市,北京市,房山区,北京市房山区羊北一巷,,115.979036,39.768159
39d43f82780ccd86a8059dc6,加州水郡,北京市,北京市,房山区,长阳镇昊天北大街48号,,116.17818,39.773433
f2e1175ee2546a7143afe637,大宁山庄,北京市,北京市,房山区,房山区京石高速首出口路南,,116.221387,39.817409
f6fe18222457a2a32fb17e1b,长馨园小区,北京市,北京市,丰台区,陈庄大街3号,,116.208687,39.842032
2fd2beab126f13527adbd205,卢西嘉园,北京市,北京市,丰台区,长辛店东山坡一里1号,,116.217148,39.834538
138891e03e4a6a7b15a1906c,朱家坟五里,北京市,北京市,丰台区,北京市丰台区朱家坟,,116.196063,39.815028
6eb11567c816feacc16c1472,梅花庄村,北京市,北京市,房山区,良乡文化路21号,,116.17152,39.746804
388183ea490402e0ece4a5c1,云岗北区西里,北京市,北京市,丰台区,北京市丰台区云岗北区西里(近云岗体育场),,116.170964,39.820383
fd13a3f2049ef484b1077d6f,张家坟,北京市,北京市,丰台区,长辛店,,116.182666,39.823555
56f2f6963c59f2800aa8d405,南宫雅苑,北京市,北京市,丰台区,北京市丰台区南宫路9号,,116.162384,39.809577
0ef1c1371c22d31f047ce80d,隆曦园,北京市,北京市,房山区,北京市房山区拱辰北大街33号,,116.145611,39.755761
5508504dffcd2acbc7f025c6,拱辰星园,北京市,北京市,房山区,北京市房山区西潞北大街63号,,116.1439,39.739631
bd5046e8b6461241d72ce205,朱家坟一里,北京市,北京市,丰台区,北京市丰台区长辛店云岗路朱家坟一里东100米,,116.20096,39.813143
53349ee3cb25c36e22026207,花园北里,北京市,北京市,丰台区,丰台区长辛店镇花园北里,,116.211053,39.839276
2cc3c8e822a8a5d64d2fdf05,云岗北区东里,北京市,北京市,丰台区,北京市丰台区云岗北区东里(镇岗塔路南80米),,116.173985,39.819337
3c0ea7c5ae7bd59cfbf0cb05,崔村二里,北京市,北京市,丰台区,北京市丰台区长辛店二七厂路崔村二里东门,,116.203229,39.838636
46e86fdd0f66ef6fd13ce305,朱家坟四里,北京市,北京市,丰台区,北京市丰台区朱家坟136号,,116.194518,39.811769
af381422e6bc0a3ea0acc4d0,田城中里1号楼,北京市,北京市,丰台区,东王佐北路附近,,116.151378,39.828669
fcd0897089e4b5e9d13ce367,云岗南区东里25号院-2号楼,北京市,北京市,丰台区,云岗南区东里25号,,116.168764,39.810665
dcf057d88dbf12429d95de55,杜家坎15号院,北京市,北京市,丰台区,北京市丰台区杜家坎15号,,116.210074,39.848138
d7b7430dd0426dc0fea77840,中体奥园-三区,北京市,北京市,丰台区,北京市丰台区中体奥林匹克花园,,116.193107,39.842915
3b49ce2571091894c9c3db3a,朱家坟五里-1号院,北京市,北京市,丰台区,京周路与云岗路交叉口西150米,,116.20269,39.814988
3f9337d6e28cb4b2f72310d5,光明里,北京市,北京市,丰台区,北京市丰台区胜利里甲12号,,116.198813,39.835018
fd357a7bf664ac65601c6754,光明里-6号楼,北京市,北京市,丰台区,北京市丰台区长辛店光明里,,116.198428,39.835224
53b62abfb150fd8a9900501a,云岗南区东里-16号楼,北京市,北京市,丰台区,北京市丰台区云岗路,,116.168814,39.812912
17aab80906262e0881288a64,东三坡三里,,,,北京市丰台区东山坡三里17号,,116.217506,39.828852
550fd5f9fe956279931fc905,翠园,,,,丰台区北苑汇翠园,,116.171081,39.823514
10d06bca24496847882fb510,杜家坎44号院,北京市,北京市,丰台区,北京市丰台区二七厂路44号院,,116.210534,39.843003
a3a662da0d8a77ca1ef74d69,云岗北区西里-1号楼,北京市,北京市,丰台区,云岗云岗北区西里附近,,116.170806,39.821051
976551779cb544253617dccd,云岗北区西里-24号楼,北京市,北京市,丰台区,北京市丰台区云岗北区西里24号楼,,116.17306,39.820392
07ea8d7f410f3b487702699c,珠光逸景二号院-2号楼,,,,北京市丰台区太柏西路2号,,116.183896,39.842724
6e609d8afbe10af0ee74f80b,东山坡,北京市,北京市,丰台区,三里甲60号,,116.217498,39.831896
4fb935d69799c9574054d759,建设二里-12号楼,北京市,北京市,丰台区,北京市丰台区,,116.197853,39.837931
1385339feeb25a45bea240e2,云岗南区东里25号院-1号楼,北京市,北京市,丰台区,云岗南区东里25号,,116.167624,39.810679
c497685d648e086d4f6d46c9,杜家坎19号院1号楼,北京市,北京市,丰台区,北京市丰台区杜家坎19号院1号楼(二七厂路北),,116.207637,39.845561
f633606a624b934e0b69d905,鑫海花园,北京市,北京市,丰台区,北京市丰台区云岗鑫海花园(大灰厂路北70米),,116.159256,39.816542
70af039f944eb612fea77816,云岗北里-16号楼,北京市,北京市,丰台区,翠云西路附近,,116.163383,39.821303
13ae19e77c8e73dec61b75a5,光明里-9号楼,北京市,北京市,丰台区,北京市丰台区长辛店光明里,,116.199656,39.834501
07aca8292001dac5b320a8e3,玉皇庄7号楼,北京市,北京市,丰台区,周口店路附近,,116.212741,39.842503
b313105117a8498fab175a08,胜利里-18号楼,北京市,北京市,丰台区,北京市丰台区长辛店胜利里,,116.197043,39.837034
b3c48c82c19b691f0b1cc7ce,崔村一里-14号楼,北京市,北京市,丰台区,北京市丰台区长辛店北京二七机车厂体育场南50米,,116.20213,39.835145
744404e61fea767d79f796ba,燕西别墅区,北京市,北京市,丰台区,北京市丰台区王佐镇青龙湖公园东1500米,,116.113482,39.801098
3992fda9b7c0e244fd0eb0a1,崔村一里-44号楼,北京市,北京市,丰台区,北京市丰台区二七厂路,,116.201727,39.839747
b7e6590a9dbbc5969d95deaa,建设二里-13号楼,北京市,北京市,丰台区,长辛店杨公庄,,116.198574,39.838059
a13d68f7bfd546f99b68b488,永兴里-3号楼,北京市,北京市,丰台区,长辛店,,116.210429,39.840307
8fb1299afd3cbc47d42ce2b2,云岗北里-甲7号楼,北京市,北京市,丰台区,北京市丰台区云岗北里甲7号楼,,116.164442,39.824319
d219bb1d96ac038af50e775b,胜利里,北京市,北京市,丰台区,北京市丰台区长辛店胜利里,,116.198636,39.835961
35d2be8770d66d715a3ac89b,云岗翠园-2号楼,北京市,北京市,丰台区,云岗云岗北区西里附近,,116.171322,39.824019
98111edd7586a2b9fd0eb0d2,云岗南区东里-15号楼,北京市,北京市,丰台区,北京市丰台区云岗南区东里15号楼,,116.168022,39.812967
9ff2170d39cb58d74e2fdf90,杜家坎44号院-6号楼,北京市,北京市,丰台区,北京市丰台区杜家坎44号院6号楼,,116.209933,39.843507
9930ac26eb9bdac0d2f49ed9,朱家坟四里-14-16号楼,北京市,北京市,丰台区,北京市丰台区长辛店国营第618厂职工医院,,116.19411,39.811918
4f4ff3fa632f10ca6b49f329,西峰寺甲188号楼,,,,北京市丰台区长辛店西峰寺甲188号楼(西后街),,116.206381,39.823222
1387ae340db91c1432f71ddf,云岗南区东里-20号院,北京市,北京市,丰台区,北京市丰台区云岗路20号,,116.171142,39.81354
9ccfc028fc881138d8d89141,崔村一里-6号楼,北京市,北京市,丰台区,北京市丰台区崔村一里6号楼,,116.200825,39.837049
b4cca697f0fa8db6a1d23015,云岗镇岗南里-甲14号楼,北京市,北京市,丰台区,北京市丰台区云岗路,,116.175162,39.817502
1cf976f98264dd7cc51e5158,云岗西路10号院,北京市,北京市,丰台区,北京市丰台区云岗西路10号,,116.162464,39.81658
6bfa18b68c4d5063d42ce265,杜家坎小区,北京市,北京市,丰台区,丰台长辛店杜家坎,,116.210538,39.843962
122878b16ce66dd54afc8dff,云岗北里-甲17号楼,北京市,北京市,丰台区,北京市丰台区云岗北里甲17号楼,,116.163413,39.820592
3a085b33a6ab94ea2afc481f,云岗南区西里-55号楼,北京市,北京市,丰台区,北京市丰台区云岗南区西里55号楼,,116.165181,39.811588
874aba5abe22b402d23ce386,腾龙家园(二区),北京市,北京市,房山区,腾龙家园二区,,116.071323,39.695462
9cb1c4db11f319bcf7eafc22,新建小区,北京市,北京市,丰台区,辛庄南路附近,,116.162444,39.839535
910c6ee0a0be966e1d5800ec,光明里-10号楼,北京市,北京市,丰台区,北京市丰台区长辛店杨公庄1号,,116.200036,39.834226
dda958fc84bd0a64b04c4974,云岗北区西里-22号楼,北京市,北京市,丰台区,北京市丰台区云岗北区西里22号楼,,116.172215,39.819662
71d347d5311e9081c61b751e,胜利里-12号楼,北京市,北京市,丰台区,胜利里甲12号,,116.198554,39.835975
e9c5cb756b67445f744ff11d,东山坡三里71号楼,,,,长辛店,,116.215633,39.824461
e43b4aeb381a9989102935f3,云岗北区东里-36号楼,北京市,北京市,丰台区,镇岗塔路附近,,116.175116,39.820713
004ce62ce160e966b5147f90,建设二里-6号楼,北京市,北京市,丰台区,北京市丰台区,,116.197225,39.839081
ccb1e2feb4922792a8059d91,杜家坎46号楼,北京市,北京市,丰台区,长辛店朱家坟北方车辆制造厂液压分厂附近,,116.21053,39.844136
361c02aeb5ebc8567ec87633,云岗北里-甲2号楼,北京市,北京市,丰台区,翠云西路附近,,116.164651,39.822788
31c33fb7b451f1dbeb56fab1,云岗北里-甲5号楼,北京市,北京市,丰台区,北京市丰台区云岗北里甲5号楼,,116.163382,39.823749
6b83579c3c1a1c36c929151e,朱家坟一里-27号楼,北京市,北京市,丰台区,北京市丰台区长辛店云岗路朱家坟一里东100米,,116.202564,39.814298
5b79f22838e0138f9d9d68dd,云岗南区西里-33号楼,北京市,北京市,丰台区,云岗南区西里2号云岗派出所附近,,116.163813,39.813864
9f0f0fdc0162cfdc1e1d11bf,建设一里-1号楼,北京市,北京市,丰台区,建设一里1号楼,,116.197813,39.839594
52536b0052e60d8edeee8b48,云岗北里-26号楼,北京市,北京市,丰台区,北京市丰台区云岗北里26号楼,,116.166591,39.821766
6fddd7fdfd48e97f3517dc05,朱家坟二里,北京市,北京市,丰台区,北京市丰台区云岗路,,116.19857,39.813275
8ca718c6015fbcb7902ca361,加州水郡西区116号楼,,,,北京市丰台区加州水郡西区116栋,,116.170982,39.779124
cc53a1b96dae10753617dc5b,朱家坟四里-19号楼,北京市,北京市,丰台区,北京市丰台区长辛店赵辛店张家坟路朱家坟四里西区,,116.193209,39.811004
815aac0f4f7c2fadfda778d0,云岗北区西里-57号楼,北京市,北京市,丰台区,北京市丰台区云岗北区西里57号楼,,116.169104,39.820297
3201ee4ff192963e8415412b,云岗北里-28号楼,北京市,北京市,丰台区,翠云西路附近,,116.166456,39.822141
c57ccc5d871f2766c51b751e,云岗翠园-3号楼,北京市,北京市,丰台区,云岗北区翠园3号楼,,116.171415,39.823632
8ec7a5e88fda7c4275e5b6f4,崔村一里-36号楼,北京市,北京市,丰台区,北京市丰台区长辛店长兴路崔村二里,,116.201603,39.838991
b0997cb51f7f2a79d92f28b2,云岗南里-6号楼,北京市,北京市,丰台区,云岗南里6号楼,,116.16293,39.819346
99a3da33b77211b7e812e4e2,花园北里-10号楼,北京市,北京市,丰台区,北京市丰台区花园北里,,116.210981,39.839886
b34fd56a0454db2017b54ba0,云岗北区西里-56号楼,北京市,北京市,丰台区,北京市丰台区云岗北区西里56号楼,,116.169758,39.82084
76a87435bc196772ab059d1b,建设三里-11号楼,北京市,北京市,丰台区,北京市丰台区,,116.19842,39.836719
78ec92df9db14384bbbd6309,永兴里-67号楼,,,,长辛店大街129号北京市丰台区长辛店第七小学附近,,116.208503,39.837451
4c6d195f0458d67d306212c2,崔村一里11号楼,,,,北京市丰台区长辛店二七厂路建设里小区东,,116.201148,39.835841
dcc5c8200d0594c3ab059dd9,珠光逸景二号院-15号楼,,,,北京市丰台区珠光逸景(东区)15号楼,,116.184436,39.840302
0bf06130f292e70a2b06ce12,云岗南区西里-53号楼,北京市,北京市,丰台区,云岗南区西里2号云岗派出所附近,,116.164849,39.814754
82d3b0e29e58a30d42afe64d,朱家坟一里-甲10号楼,北京市,北京市,丰台区,北京市丰台区朱家坟一里甲10号楼,,116.201389,39.813482
020218fb88730907f4b91697,云岗北区西里-46号楼,北京市,北京市,丰台区,云岗静欣苑附近,,116.172641,39.822311
b7c74c07d3e1c7c3932ca30f,云岗南里-1号楼,北京市,北京市,丰台区,北京市丰台区云岗南里1号楼,,116.1617,39.820404
a9c7318ff8ef3ba64151c0a9,云岗北区西里-52号楼,北京市,北京市,丰台区,北京市丰台区云岗北区西里52号楼,,116.169405,39.821401
36b0bfd121bc5622223bf2d1,云岗北里-11号楼,北京市,北京市,丰台区,北京市丰台区云岗北里11号楼,,116.164567,39.821956
1f9dced3a040903dc8213d80,崔村二里-1号楼,北京市,北京市,丰台区,北京市丰台区崔村二里1号楼,,116.204176,39.837538
a626aa16e8d2f08a63180997,朱家坟四里-2号楼,北京市,北京市,丰台区,北京市丰台区朱家坟四里2号楼,,116.19394,39.812817
5555025bf512c4d6ce06a411,云岗北区西里-53号楼,北京市,北京市,丰台区,北京市丰台区云岗北区西里53号楼,,116.16879,39.8211
6a3e4e4b0f79565df11937f2,云岗北里-25号楼,北京市,北京市,丰台区,北京市丰台区云岗北里25号楼,,116.16735,39.821823
48773070a60007fc0c0a701e,云岗北里-甲3号楼,北京市,北京市,丰台区,云岗北里甲3号楼,,116.164607,39.823123
0bd2925e75a741eb6b49f349,玉皇庄5号楼,北京市,北京市,丰台区,长辛店杜家坎6号(玉皇庄路口),,116.211392,39.842597
25e5acd47fd239dfd3ff23b0,建设三里-9号楼,北京市,北京市,丰台区,北京市丰台区,,116.197812,39.837133
0006ce89974b99cedb1318a0,建设二里-11号楼,北京市,北京市,丰台区,北京市丰台区,,116.198364,39.838356
951a58e33ccaf1c22de67b1e,云岗北区西里-62号楼,北京市,北京市,丰台区,北京市丰台区云岗北区西里62号楼,,116.170102,39.819315
5ffa5369ef63c0c8940319a7,云岗南里-5号楼,北京市,北京市,丰台区,云岗南里5号楼,,116.162513,39.819539
75da1a66ff54df76fd0eb0be,云岗北里-23号楼,北京市,北京市,丰台区,云岗北里附近,,116.168373,39.822506
5e1aa36a11e18fb8932ca359,南宫北里-1号楼,北京市,北京市,丰台区,北京市丰台区南宫北里1号楼,,116.162585,39.814743
c4e68bc958baba3d2bb97c65,珠光逸景二号院-10号楼,,,,北京市丰台区太柏西路2号,,116.185205,39.841235
26aca170f9f521f12b11d114,中体奥林匹克花园一区-5栋,北京市,北京市,丰台区,北京市丰台区中体奥林匹克花园一区5栋,,116.19653,39.841424
6cb8b84e508686b03a13fd94,迎宾路33号院一区2号楼,,,,南宫迎宾路33号,,116.160019,39.797869
d747603a6b736b02d23ce3ab,公主坟-2号楼,北京市,北京市,丰台区,北京市丰台区公主坟2号楼,,116.194292,39.810748
76425d6af31ae20960180901,云岗静欣苑-1号楼,北京市,北京市,丰台区,北京市丰台区云岗静欣苑1号楼,,116.172885,39.824488
ff03ea35cc1dbd29c6f025ac,云岗北里-13号楼,北京市,北京市,丰台区,北京市丰台区云岗北里13号楼,,116.164636,39.821663
83cc75a7b94fc3d736b06c94,杜家坎44号院-1号楼,北京市,北京市,丰台区,北京市丰台区二七厂路44号院,,116.209746,39.844559
e35fd97def545b71b45f1ed4,朱家坟一里-24号楼,北京市,北京市,丰台区,北京市丰台区朱家坟一里24号楼,,116.201171,39.811749
cda47f64bd5bcdf40ab93a34,南宫新苑小区-A区,北京市,北京市,丰台区,长青路101号,,116.160378,39.808756
63085c47623903288ab988fb,云岗北区东里-20号楼,北京市,北京市,丰台区,镇岗塔路附近,,116.174847,39.818965
5a35e8ebb951274c31f71d94,建设三里-18号楼,北京市,北京市,丰台区,长辛店二七厂建设三里,,116.200508,39.835427
1595238e0839cccdf72310c2,朱家坟一里-22号楼,北京市,北京市,丰台区,北京市丰台区朱家坟一里22号楼,,116.200824,39.812074
ae72138d4b85a52ba3acc4b3,云岗北里-甲8号楼,北京市,北京市,丰台区,北京市丰台区云岗北里甲8号楼,,116.164462,39.823924
d55cafc8d540dbbd9b68b496,珠光御景嘉园22号楼,,,,北京市丰台区长辛店街道太子峪路珠江・御景,,116.185168,39.824952
358c35abc2ee8ac7cac3db6e,云岗南区东里-7号楼,北京市,北京市,丰台区,北京市丰台区云岗南区东里7号楼,,116.170088,39.812952
f01c7843726d14c626d2bb00,建设一里-2号楼,北京市,北京市,丰台区,建设一里2号楼,,116.198132,39.839321
1b907eec5a6d29a0260bd0c8,云岗北区西里-西区,北京市,北京市,丰台区,北京市丰台区云岗北区西里西区(翠云西路东),,116.169613,39.820729
2803be7d0fcc33e8c9291577,云岗南区东里-22号院,北京市,北京市,丰台区,云岗南区东里22号,,116.169969,39.811302
e94da20bbd009f9c5cd4feea,翠园-1号楼,北京市,北京市,丰台区,云岗北区翠园1号楼,,116.171204,39.824364
032dec3fc2eed8a79a0050ea,建设三里-5号楼,北京市,北京市,丰台区,北京市丰台区,,116.196773,39.838023
723fb1ba30d1aa258f55ec21,云岗北区西里-39号楼,北京市,北京市,丰台区,镇岗塔路附近,,116.174003,39.821047
3f21feab194cdb6d4e776e4b,云岗南区西里-20号楼,北京市,北京市,丰台区,北京市丰台区,,116.166958,39.812809
9901fdee642641280289724a,云岗北区北里-18号楼,北京市,北京市,丰台区,北京市丰台区云岗北里(北区),,116.167992,39.822029
cca26f20008368713586f422,云岗北区西里-9号楼,北京市,北京市,丰台区,北京市丰台区,,116.169297,39.817738
7d32d4b74536e9886fc02c90,朱家坟四里-7号楼,北京市,北京市,丰台区,北京市丰台区朱家坟四里7号楼,,116.194722,39.811977
31d9fd85f0f2f0dc8505bf56,祠堂口2号楼,北京市,北京市,丰台区,祠堂口2号,,116.214642,39.827206
70e2dfedd684205f0f0a7036,云岗北区西里-20号楼,北京市,北京市,丰台区,北京市丰台区镇岗塔路云岗北区西里20号楼,,116.171115,39.819025
7596dc5cd4ad26f1b426553c,张家坟东里8号院,北京市,北京市,丰台区,北京市丰台区太子峪路,,116.185966,39.823315
1d0d7726ef620367fbf0cbed,云岗北里-29号楼,北京市,北京市,丰台区,云岗北里附近,,116.167256,39.822569
99a36f6027dce2a01d580066,德善里住宅区,北京市,北京市,丰台区,北京市丰台区长辛店,,116.208937,39.834087
3746174def1c29940e3ddae6,云岗北区东里-13号楼,北京市,北京市,丰台区,镇岗塔路镇岗南里附近,,116.172292,39.818731
4bd35ed91a1847ea49fd3fd6,云岗北区西里-55号楼,北京市,北京市,丰台区,云岗云岗北区西里附近,,116.168932,39.820624
753f9182e9d13e74d0ff237a,光明里-2号楼,北京市,北京市,丰台区,北京市丰台区长辛店光明里,,116.196983,39.836139
6eee7c8228dd7d8f4d776ec6,张家坟北里-10号楼,北京市,北京市,丰台区,北京市丰台区张家坟北里10号楼,,116.178733,39.822951
ee4c5e7018ab25ebab059d89,云岗北区东里-乙34号楼,北京市,北京市,丰台区,镇岗塔路附近,,116.175592,39.819745
a00b8b8d2fa988d0a8f729df,云岗南区东里23号院-2号楼,北京市,北京市,丰台区,北京市丰台区云岗南区东里23号院2号楼,,116.168896,39.811107
bf147dcb4b20b9f7cf06a4af,永兴里-1号楼,北京市,北京市,丰台区,长辛店桥西东南街2号三环毛纺针织集团公司第六羊毛衫厂附近,,116.20896,39.839891
aa40108b43474316c5effb31,公主坟,北京市,北京市,丰台区,北京市丰台区长辛店南约3.5公里处,,116.194347,39.810598
4845fe1d6c79493d82a00c00,玉皇庄6号楼,北京市,北京市,丰台区,北京市丰台区二七厂路,,116.2125,39.842756
098fbec7cc12eee180a00c19,崔村一里-7号楼,北京市,北京市,丰台区,北京市丰台区崔村一里7号楼,,116.201017,39.836665
55aacc4776c79614d12dd632,云岗北区东里-19号楼,北京市,北京市,丰台区,镇岗塔路附近,,116.175141,39.819347
6585502eee5c3341ca09f013,建设三里-10号楼,北京市,北京市,丰台区,北京市丰台区,,116.198083,39.836918
8443fae5b3b0faa06240a982,张家坟北里-3号楼,北京市,北京市,丰台区,北京市丰台区张家坟北里3号楼,,116.179557,39.823465
d5edc6585a0e353f100daa3d,建设一里-5号楼,北京市,北京市,丰台区,北京市丰台区,,116.199265,39.838263
3d0798c7c6d4dd4e0bccdd90,杜家坎15号院-1号楼,北京市,北京市,丰台区,北京市丰台区杜家坎15号,,116.21003,39.848717
a4d00fd99a5b74ff93114c46,云岗北区北里-19号楼,北京市,北京市,丰台区,北京市丰台区云岗北里(北区),,116.167973,39.822341
27cb8f10e816073a5e0d0294,珠光逸景二号院-12号楼,,,,北京市丰台区太柏西路2号,,116.184328,39.8407
9f32c639ada880979ee32107,建设三里-12号楼,北京市,北京市,丰台区,北京市丰台区,,116.198721,39.836563
a4eec72c6c766485d4851fde,云岗北区西里-7号楼,北京市,北京市,丰台区,北京市丰台区云岗北区西里7号楼,,116.169306,39.819358
fcf3428a8b73e21943afe6d8,朱家坟三里-1号楼,北京市,北京市,丰台区,北京市丰台区朱家坟三里1号楼,,116.19657,39.814014
412128782f00941d43ab9ad8,云岗北区西里-32号楼,北京市,北京市,丰台区,云岗静欣苑附近,,116.171711,39.822339
be5fa1b988a524585e17c30b,云岗北区西里-31号楼,北京市,北京市,丰台区,云岗静欣苑附近,,116.171708,39.822046
83aea588f8220e191a11d5ad,杜家坎15号院-3号楼,北京市,北京市,丰台区,北京市丰台区杜家坎15号院3号楼,,116.210103,39.848494
2c34072364d1223df6c59c39,建设三里-8号楼,北京市,北京市,丰台区,北京市丰台区,,116.197551,39.837358
32559794d2d9da8d9ff779cd,云岗南里-7号楼,北京市,北京市,丰台区,翠云西路与飞航路交叉口西南100米,,116.163331,39.819048
8764cb703d57e337b2077d79,南宫路8号院-2号楼,北京市,北京市,丰台区,北京市丰台区南宫路8号院2号楼,,116.164136,39.810828
6ab2668bac1a8ce18e7727a1,杜家坎15号院-5号楼,北京市,北京市,丰台区,北京市丰台区杜家坎15号院5号楼,,116.21029,39.84822
e98292014f1d4cb3c9c3db1e,张家坟北里-8号楼,北京市,北京市,丰台区,北京市丰台区张家坟北里8号楼,,116.179206,39.822466
ed8175ac655ee91777026958,公主坟3号楼,北京市,北京市,丰台区,北京市丰台区公主坟3号楼,,116.194373,39.810426
1402193a0d4791221f3894c2,光明里-8号楼,北京市,北京市,丰台区,北京市丰台区长辛店光明里,,116.199181,39.834772
0f0b529632f6fdeb94ec8481,朱家坟一里-21号楼,北京市,北京市,丰台区,北京市丰台区朱家坟一里21号楼,,116.201538,39.812142
db40e2d22a57093d08ccdd75,东南街5号楼,北京市,北京市,丰台区,北京市丰台区二七厂路东南街5号楼(花园北里西),,116.207605,39.839635
32c5863f29230ac80b1cc749,云岗北区东里-11号楼,北京市,北京市,丰台区,北京市丰台区云岗北区东里(镇岗塔路南110米),,116.17316,39.818447
2ae42ac8741e32052902e1cc,云岗南区东里23号院-6号楼,北京市,北京市,丰台区,北京市丰台区云岗南区东里23号院6号楼,,116.167339,39.811178
e0aa3ebb2833758c5d0d0231,建设一里-3号楼,北京市,北京市,丰台区,北京市丰台区,,116.198865,39.838824
91b5fd77e847e30ea3d23049,朱家坟三里,北京市,北京市,丰台区,北京市丰台区朱家坟三里,,116.196731,39.813395
2b9d2633c46e0e8ea8175a29,朱家坟三里-6号楼,北京市,北京市,丰台区,北京市丰台区云岗路朱家坟三里6号楼(朱家坟二里西),,116.197375,39.812634
720b9f7262a2a92504fef596,云岗西路9号院-1号楼,北京市,北京市,丰台区,北京市丰台区云岗西路9号院1号楼,,116.161301,39.817842
61f634f6f71fef066b49f32c,中体奥林匹克花园・西花汀别墅,北京市,北京市,丰台区,长辛店镇中体奥林匹克花园,,116.191973,39.844427
d583e62621be774d28b97c14,朱家坟一里-8号楼,北京市,北京市,丰台区,北京市丰台区朱家坟一里8号楼,,116.2007,39.813939
2f92104b95abe257d5b74e39,云岗南区东里22号院-2号楼,北京市,北京市,丰台区,北京市丰台区云岗南区东里22号院2号楼,,116.169953,39.810974
543348d3d5cec4128c1a8971,云岗北区西里-44号楼,北京市,北京市,丰台区,云岗静欣苑附近,,116.172667,39.822015
f905327badd0c31043e19230,云岗北区东里-甲17号楼,北京市,北京市,丰台区,北京市丰台区云岗北区东里甲17号楼,,116.173522,39.819799
6b49f33967d45c200f0e6be0,朱家坟四里-9号楼,北京市,北京市,丰台区,北京市丰台区朱家坟四里9号楼,,116.195829,39.811985
1c3431855e88856fb54f5444,镇岗南里-19号楼,北京市,北京市,丰台区,北京市丰台区镇岗南里社区云岗路云岗镇岗南里,,116.17327,39.818076
b2f25d2db97c9a5b6f47601b,南宫智苑-2号楼,北京市,北京市,丰台区,北京市丰台区南宫智苑2号楼,,116.171665,39.80924
88e06448ff9293028d772726,光明里社区,,,,北京市丰台区胜利里甲12号,,116.198579,39.835855
2c05c13205e7727b4354d70c,建设一里-7号楼,北京市,北京市,丰台区,北京市丰台区,,116.199559,39.837654
806d6c2cbc951293cac3dbad,卢西嘉园-8号楼,北京市,北京市,丰台区,北京市丰台区卢西嘉园8号楼,,116.21699,39.833962
8434c7206869449a4151c043,朱家坟二里-5号楼,北京市,北京市,丰台区,北京市丰台区朱家坟二里5号楼,,116.198482,39.81385
6d6fd1637ccfa5e00f0e6b56,云岗北区西里-26号楼,北京市,北京市,丰台区,云岗静欣苑附近,,116.173039,39.821071
3adda5bc6748d3bc1b94c62f,云岗南区东里20号院-4号楼,北京市,北京市,丰台区,北京市丰台区云岗南区东里20号院4号楼,,116.171149,39.813235
ef57b8d038f922fa5e17c3e6,镇岗南里-11号楼,北京市,北京市,丰台区,北京市丰台区云岗镇岗南里(云岗路北100米),,116.174244,39.816498
52dbf9bc9b4503cfd7851fa4,花园北里-4号楼,北京市,北京市,丰台区,杜家坎环岛往西长辛店公园北门,,116.211673,39.838496
878627396ba029dc74e5b6c0,建设三里-16号楼,北京市,北京市,丰台区,北京市丰台区,,116.199916,39.835827
458c734e6291d6aa22f01702,珠光逸景二号院-6号楼,,,,北京市丰台区太柏西路2号,,116.18531,39.841996
0d9931206248eea9f60e7754,云岗北区东里-15号楼,北京市,北京市,丰台区,镇岗塔路附近,,116.173667,39.819035
c43b71cd7d3d441bb21e36d6,镇岗南里-9号楼,北京市,北京市,丰台区,北京市丰台区云岗路,,116.174135,39.81619
1a8ee8adce3b37b5b25c6aa4,崔村二里-8号楼,北京市,北京市,丰台区,北京市丰台区崔村二里8号楼,,116.203252,39.838736
9920a72183b4822533870a74,朱家坟四里-6号楼,北京市,北京市,丰台区,北京市丰台区朱家坟四里6号楼,,116.195608,39.812327
78ac45bf866e414588db73da,北洛平村,北京市,北京市,丰台区,北京市丰台区S328(文林南街),,116.101459,39.814323
9e583b80fa9ff8214251c001,云岗西路9号院2号楼,北京市,北京市,丰台区,北京市丰台区云西路社区云岗西路9号院,,116.161667,39.817851
3f2234b69e3e7914c7f025ea,崔村二里-甲1号楼,北京市,北京市,丰台区,北京市丰台区崔村二里甲1号楼,,116.205148,39.837058
a4634277d7cdb9728d772753,镇岗南里-16号楼,北京市,北京市,丰台区,北京市丰台区云岗路,,116.174879,39.818215
5b6284bb6bb4d0c88d772704,云岗翠园-9号楼,北京市,北京市,丰台区,北京市丰台区云岗北环路,,116.170608,39.823805
738046141322a52152e5c569,云岗静欣苑-5号楼,北京市,北京市,丰台区,北京市丰台区云岗静欣苑5号楼,,116.173099,39.823694
d3b94569d0ed59b72b11d1c1,云岗北区东里-33号楼,北京市,北京市,丰台区,北京市丰台区云岗北区东里33号楼,,116.1742,39.820139
e1dda42ecf2edf798bfc069a,云岗北区西里-25号楼,北京市,北京市,丰台区,镇岗塔路附近,,116.173642,39.820722
77dd4715a6bc05aeab175a3d,南宫雅苑-16号楼,北京市,北京市,丰台区,北京市丰台区南宫雅苑16号楼,,116.16242,39.809113
619b7607710f91107af79626,云岗南区西里-34号楼,北京市,北京市,丰台区,北京市丰台区云岗南区西里34号楼,,116.163809,39.813565
de3a1b9fd75714d38505bfb7,云岗北区东里-35号楼,北京市,北京市,丰台区,北京市丰台区云岗北区东里35号楼,,116.174732,39.820433
f0c10c858dd673582b3a9f0c,建设三里-19号楼,北京市,北京市,丰台区,长辛店二七厂建设三里,,116.200759,39.835197
d7e59b893667a3960869d98b,云岗西路12号院-3号楼,北京市,北京市,丰台区,北京市丰台区云岗西路12号院3号楼,,116.161574,39.816157
1d4c81a7c83150e7931fc959,云岗北区西里-29号楼,北京市,北京市,丰台区,云岗静欣苑附近,,116.172033,39.821415
862a9df5e691fb67deee8bbe,花园北里-19号楼,北京市,北京市,丰台区,北京市丰台区花园北里,,116.21011,39.839712
cd02b1499e56534ea5da391a,云岗北区西里-43号楼,北京市,北京市,丰台区,云岗静欣苑附近,,116.173486,39.822008
f550600930eb29e4d8131825,建设二里-7号楼,北京市,北京市,丰台区,北京市丰台区,,116.197911,39.838901
8e630d17d27f21ba095cb3a8,张家坟北里-12号楼,北京市,北京市,丰台区,北京市丰台区张家坟北里12号楼,,116.178095,39.823459
c28246bee5998302b45f1ebf,卢西嘉园-6号楼,北京市,北京市,丰台区,北京市丰台区卢西嘉园6号楼,,116.217782,39.834513
8abeee0bd686eef741d63e36,朱家坟三里-9号楼,北京市,北京市,丰台区,北京市丰台区朱家坟三里9号楼,,116.196027,39.813392
2d93d29b4a00b7ec4557269f,花园北里-14号楼,北京市,北京市,丰台区,北京市丰台区花园北里,,116.21089,39.839614
ced3a300ebf14d72ab175a87,云岗南区东里21号院-2号楼,北京市,北京市,丰台区,北京市丰台区云岗南区东里21号院2号楼,,116.171175,39.812325
20942ba4f530bac7c909f091,崔村一里-43号楼,北京市,北京市,丰台区,北京市丰台区崔村一里43号楼,,116.202025,39.839369
c7c452576eb4048ffea778cd,花园北里-11号楼,北京市,北京市,丰台区,北京市丰台区花园北里,,116.211111,39.838975
3f40cf18d14c39e194f08ce2,杜家坎19号院7号楼,北京市,北京市,丰台区,北京市丰台区杜家坎19号院7号楼(二七厂路北),,116.207175,39.846468
ca4d0e6d650b23134107c159,云岗南区东里-5号楼,北京市,北京市,丰台区,北京市丰台区云岗南区东里5号楼,,116.170086,39.813554
6addd431aa1cbaeeaa0dd8b1,云岗南区东里24号院-2号楼,北京市,北京市,丰台区,北京市丰台区新苑路24号,,116.16643,39.811126
60c4eb5507d98c973b13fdb9,云岗南区东里-丙20号楼,北京市,北京市,丰台区,北京市丰台区云岗南区东里丙20号楼,,116.165788,39.811996
a722793e0dbd8657ad31e52b,杜家坎-16号楼,北京市,北京市,丰台区,北京市丰台区杜家坎16号楼,,116.210125,39.845135
61a3d80dba12f2dac37da281,西峰寺291号楼,,,,北京市丰台区长辛店西后街北京中医药大学东方医院,,116.206956,39.826704
1b3719f5b217a92ca3acc43e,云岗北里-8号楼,北京市,北京市,丰台区,北京市丰台区云岗北环路云岗北里(云岗森林公园南),,116.165423,39.824196
ca596463d19f373acc04ef65,珠光逸景二号院-7号楼,,,,北京市丰台区太柏西路2号,,116.183816,39.841869
6681e1f4fb5ce6e41e1d11cb,云岗北里-甲10号楼,北京市,北京市,丰台区,云岗北里10号楼,,116.165484,39.823233
aa6c87907c2f00661ef74ded,朱家坟一里-7号楼,北京市,北京市,丰台区,北京市丰台区朱家坟一里7号楼,,116.200673,39.814227
be182d1f833145def4b9160c,胜利里-15号楼,北京市,北京市,丰台区,北京市丰台区长辛店胜利里,,116.197662,39.836453
d16cee1e2590bc95dc1e5243,云岗南区西里-39号楼,北京市,北京市,丰台区,北京市丰台区云岗南区西里39号楼,,116.164776,39.812941
6324a0adfef35b57c929151c,公主坟4号楼,北京市,北京市,丰台区,北京市丰台区公主坟4号楼,,116.194617,39.810126
bb083e0009eaa4604afd3f24,卢西嘉园-4号楼,北京市,北京市,丰台区,北京市丰台区卢西嘉园4号楼,,116.217734,39.834932
ebbbed6a95c0fc3b5ed4fe5a,朱家坟四里-3号楼,北京市,北京市,丰台区,北京市丰台区朱家坟四里3号楼,,116.194129,39.812545
4f014bd1c44ad3458b2fb577,云岗北里-21号楼,北京市,北京市,丰台区,北京市丰台区翠云西路,,116.167915,39.822976
23baa1b04b3d11c025d2bb2f,玉皇庄4号楼,北京市,北京市,丰台区,长辛店杜家坎6号(玉皇庄路口),,116.212192,39.843016
dd694b1fed881e3a1c3894ec,光明里-5号楼,北京市,北京市,丰台区,北京市丰台区,,116.200119,39.835144
68c0a05f6980b416c9213d93,朱家坟四里-20号楼,北京市,北京市,丰台区,北京市丰台区长辛店赵辛店张家坟路朱家坟四里西区,,116.193881,39.81124
b4ed8f42d408089031870a91,云西路社区,北京市,北京市,丰台区,北京市丰台区云岗西路9号院,,116.163388,39.81794
280927cadfa37376ebe58223,杜家坎44号院-7号楼,北京市,北京市,丰台区,北京市丰台区杜家坎44号院7号楼,,116.210238,39.8433
9ba864dbffefb14cf82213d0,云岗北区西里-28号楼,北京市,北京市,丰台区,云岗静欣苑附近,,116.172257,39.821072
ad5ba5b2cbb0a0414251c073,云岗南区东里-4号楼,北京市,北京市,丰台区,北京市丰台区云岗南区东里4号楼,,116.170078,39.813838
9739ce347a90bf129e95de21,云岗翠园-6号楼,北京市,北京市,丰台区,云岗北区翠园6号楼,,116.171582,39.822674
85f3fd2ab86ea5c201294ff7,朱家坟二里-4号楼,北京市,北京市,丰台区,北京市丰台区朱家坟二里4号楼,,116.199265,39.81268
7254002fc360acc7ab059d83,云岗北里-甲6号楼,北京市,北京市,丰台区,云岗北区西里14翠云山庄附近,,116.163369,39.824068
cb27aefd6873e530f5e73baa,珠光逸景二号院-14号楼,,,,北京市丰台区太柏西路2号,,116.185483,39.840441
23bbe9007d473b08441a329c,崔村一里-5号楼,北京市,北京市,丰台区,北京市丰台区崔村一里5号楼,,116.200641,39.83742
419cd47b44908387260bd092,云岗北里-2号楼,北京市,北京市,丰台区,北京市丰台区飞航路,,116.162986,39.823121
0916ee3848e43e7a081cc7c8,永兴里-69号楼,,,,长辛店大街129号北京市丰台区长辛店第七小学附近,,116.208462,39.836908
6afb0a5294f0f78b715e8014,朱家坟三里-5号楼,北京市,北京市,丰台区,北京市丰台区长辛店朱家坟三里(云岗路南80米),,116.196494,39.813427
68629809057be5120e3ddab3,云岗北里-12号楼,北京市,北京市,丰台区,北京市丰台区云岗北里12号楼,,116.165307,39.822012
8b3c489248ee87fc4e554709,云岗北里-甲15号楼,北京市,北京市,丰台区,北京市丰台区云岗航天三院幼儿园(北园)西60米,,116.164405,39.822428
cebb723bec2947785fd4fe01,张家坟北里-9号楼,北京市,北京市,丰台区,北京市丰台区张家坟北里9号楼,,116.17899,39.822722
8e0ae1564770e5a06140a9a6,杜家坎44号院-8号楼,北京市,北京市,丰台区,北京市丰台区二七厂路44号院,,116.210946,39.84325
aa377cfed3e6fb94616858df,云岗南区西里-54号楼,北京市,北京市,丰台区,北京市丰台区云岗南区西里54号楼,,116.164258,39.81157
696907b6e33f386c102935c2,云岗北里-6号楼,北京市,北京市,丰台区,北京市丰台区云岗北环路,,116.162414,39.823898
6fdaf0962c94447cae080f6d,建设里小区,北京市,北京市,丰台区,北京市丰台区,,116.202141,39.835803
611e9246c96e67eb43e192e7,云岗静欣苑-9号楼,北京市,北京市,丰台区,北京市丰台区云岗静欣苑9号楼,,116.17322,39.823286
dab5b7a2c8883d7cf4e73ba7,崔村二里-4号楼,北京市,北京市,丰台区,北京市丰台区崔村二里4号楼,,116.203237,39.837609
3c056e66413c2eed8b2fb556,珠光逸景二号院-5号楼,,,,北京市丰台区太柏西路2号,,116.185289,39.842438
e08896dbb88ba1f3cb213d34,云岗西路10号院-2号楼,北京市,北京市,丰台区,北京市丰台区云岗西路10号院2号楼,,116.162413,39.816324
015f35d207544b8c3913fdde,胜利里-10号楼,北京市,北京市,丰台区,北京市丰台区长辛店胜利里,,116.199049,39.835715
387712ceb2943590d0ff23de,胜利里-17号楼,北京市,北京市,丰台区,北京市丰台区长辛店胜利里,,116.197151,39.836715
3e04f4e1a5944db038e4a685,云岗南区东里20号院-5号楼,北京市,北京市,丰台区,北京市丰台区云岗南区东里20号院5号楼,,116.171156,39.81294
4feeb4cd53dfcf914d776eb7,崔村一里-38号楼,北京市,北京市,丰台区,崔村二里38,,116.200661,39.839388
e1e25fe35851601fb75f1e60,胜利里-14号楼,北京市,北京市,丰台区,北京市丰台区长辛店胜利里,,116.197903,39.836328
2620e54fc7336f12d42ce2ab,卢西嘉园-2号楼,北京市,北京市,丰台区,北京市丰台区卢西嘉园2号楼,,116.217724,39.835307
b531be4f7b55a54c46e27416,云岗北里-24号楼,北京市,北京市,丰台区,云岗北里附近,,116.168359,39.822828
8e8bcf67c6cabed02a06ce4b,云岗北区西里-42号楼,北京市,北京市,丰台区,云岗静欣苑附近,,116.172677,39.821702
d0fde785ce50d8b3b020a851,太柏西路1号院1号楼,,,,北京市丰台区太柏西路1号,,116.182415,39.842562
0a008fead9403c43ba17e7e9,云岗南区东里-甲1号楼,北京市,北京市,丰台区,北京市丰台区云岗南区东里1号楼,,116.170314,39.814733
129cd1bd59aec1de0782c220,云岗北区东里-甲15号楼,北京市,北京市,丰台区,镇岗塔路镇岗南里附近,,116.173701,39.818727
217876ebd5bbc202ed74f81a,珠光逸景二号院-11号楼,,,,北京市丰台区太柏西路2号,,116.184178,39.841076
b762449b3400fd029b68b488,云岗南区西里-30号楼,北京市,北京市,丰台区,云岗南区西里2号云岗派出所附近,,116.163804,39.814748
327ff047f028360ccae33c97,云岗西路14号院3号楼,北京市,北京市,丰台区,北京市丰台区云岗西路14号院3号楼,,116.160679,39.81643
7530ea542ad7cacb22026218,云岗北里45号院1号楼,北京市,北京市,丰台区,北京市丰台区,,116.162513,39.821031
aeea04fbad4e50d1d72ce2d0,胜利里-6号楼,北京市,北京市,丰台区,北京市丰台区长辛店二七厂路胜利里,,116.199903,39.835265
cbee39a45051014ac26c1428,胜利里-16号楼,北京市,北京市,丰台区,北京市丰台区长辛店胜利里,,116.197408,39.836585
0a61be603c987a71373a7197,朱家坟二里-6号楼,北京市,北京市,丰台区,北京市丰台区朱家坟二里6号楼,,116.198534,39.813441
82a81b8ed2979e3b2fb96dd3,朱家坟四里-10号楼,北京市,北京市,丰台区,北京市丰台区朱家坟四里10号楼,,116.195966,39.811617
56dc30252505162fe115f975,云岗南区西里18-1号,,,,北京市丰台区云岗百货西门,,116.165717,39.815652
be15826cd36771b7b6147fe2,崔村一里-3号楼,北京市,北京市,丰台区,北京市丰台区崔村一里3号楼,,116.200209,39.838219
beeb3130be28c58a4054d703,鑫海花园-3号楼,北京市,北京市,丰台区,北京市丰台区鑫海花园3号楼,,116.159229,39.816742
d1ffd912c0d8614b3686f467,云岗静欣苑-10号楼,北京市,北京市,丰台区,北京市丰台区云岗静欣苑10号楼,,116.174561,39.822869
76fefc7f40a1d6ba5abbbcdc,朱家坟四里-5号楼,北京市,北京市,丰台区,北京市丰台区朱家坟四里5号楼,,116.195226,39.812578
c44b234f20305745e011031e,大宁山庄丙区27号楼,北京市,北京市,丰台区,北京市房山区京港澳高速公路房车世界露营公园,,116.221279,39.82207
8f86c3774dc919d441d63e27,云岗北区北里-20号楼,北京市,北京市,丰台区,北京市丰台区云岗北里(北区),,116.167941,39.822672
95e0b7debd3095e41b11d50f,张家坟北里-4号楼,北京市,北京市,丰台区,北京市丰台区张家坟北里4号楼,,116.179749,39.823229
23358237079c6206b23c8101,卢西嘉园-11号楼,北京市,北京市,丰台区,北京市丰台区卢西嘉园11号楼,,116.216921,39.833262
40b909e706fd060b57bfffd2,扶轮胡同-39号楼,北京市,北京市,丰台区,北京市丰台区长辛店第七小学扶轮胡同39号楼,,116.209789,39.836803
b1d95907235c104b03897240,杜家坎4号院-2号楼,北京市,北京市,丰台区,北京市丰台区杜家坎4号院2号楼,,116.212164,39.844345
0518371f75df0fb49c09f78c,镇岗南里-13号楼,北京市,北京市,丰台区,镇岗南里13号楼,,116.174646,39.816839
9c7cd493b819bc07c909f0ea,汤泉墅-10号楼,,,,北京市丰台区南宫迎宾路,,116.161305,39.794485
b3d4c2b5db10cca42902e12f,云岗西路9号院-3号楼,北京市,北京市,丰台区,北京市丰台区,,116.162268,39.817888
3d9a3ef014078325f4e73b7b,东山坡三里17号院-1号楼,北京市,北京市,丰台区,北京市丰台区东山坡三里17号院1号楼,,116.217075,39.829115
f1f8d1608224aa4acac3dba8,朱家坟一里-5号楼,北京市,北京市,丰台区,北京市丰台区朱家坟一里5号楼,,116.199949,39.812992
3ece05e074ac541d0782c2cf,长青路101号院75号楼,,,,北京市王佐镇长青路101号院,,116.16137,39.808274
64cdd7d70a5a1656c03644e7,珠光逸景一号院-14号楼,,,,北京市丰台区太柏西路1号,,116.183115,39.840108
5e81437662dc336e5cbe8684,花园南里81号楼,,,,北京市丰台区长辛店大街花园南里81号楼,,116.211362,39.833022
26bf129e959ea234e607388d,建设一里-4号楼,北京市,北京市,丰台区,长辛店二七厂路,,116.1991,39.838574
a2bebfe24212487dc51e51f3,云岗北区东里-甲18号楼,北京市,北京市,丰台区,镇岗塔路附近,,116.174366,39.819461
f137580c36550b5379dbd2b0,云岗北区东里-12号楼,北京市,北京市,丰台区,北京市丰台区云岗北区东里12号楼,,116.172168,39.818418
61cce1c7cb8ff631fea7783b,玉皇庄-3号楼,北京市,北京市,丰台区,北京市丰台区玉皇庄3号楼,,116.210584,39.842634
8bb6d95279c3465440e192df,珠光逸景一号院-8号楼,,,,北京市丰台区太柏西路1号,,116.181826,39.841166
9d23710bfc2663e9d42ce23b,云岗南区西路14号院-6号楼,北京市,北京市,丰台区,北京市丰台区云岗西路14号院6号楼,,116.15998,39.816936
4e4dd4e83bb4afdedeee8b2b,花园北里-18号楼,北京市,北京市,丰台区,北京市丰台区花园北里,,116.210191,39.840028
b973d621915dbc9a08ccddcf,南宫路8号院-1号楼,北京市,北京市,丰台区,北京市丰台区南宫路8号院1号楼,,116.164135,39.811209
313f3320cc2cccfcd6b74ee1,朱家坟一里-4号楼,北京市,北京市,丰台区,北京市丰台区朱家坟一里4号楼,,116.199906,39.813297
811e5e6868006150ec74f891,东山坡一里-2号楼,北京市,北京市,丰台区,东山坡一里15号,,116.217995,39.832405
0e8da967373db2ed4d5547eb,花园北里-21号楼,北京市,北京市,丰台区,长辛店桥西东南街2号三环毛纺针织集团公司第六羊毛衫厂附近,,116.209712,39.840055
fdc9922cc0266ffa81a12e89,花园北里-6号楼,北京市,北京市,丰台区,北京市丰台区花园北里,,116.21142,39.838447
030f09c62edce98202294f8d,崔村二里-2号楼,北京市,北京市,丰台区,北京市丰台区长辛店崔村一里附近,,116.203732,39.837392
2c4290a66140b9699b68b4a3,云岗北里-22号楼,北京市,北京市,丰台区,云岗北里附近,,116.168438,39.822197
eb29987aaa228758b9df8fcd,崔村社区,北京市,北京市,丰台区,北京市丰台区崔村二里,,116.20264,39.837227
c6bf54930247df5379b55c48,南宫北里-9号楼,北京市,北京市,丰台区,北京市丰台区南宫北里9号楼,,116.162601,39.811393
4067720e741e4da3b726551c,卢西嘉园-7号楼,北京市,北京市,丰台区,北京市丰台区卢西嘉园7号楼,,116.216762,39.834349
a406c0798472c3d1601c6799,朱家坟二里-9号楼,北京市,北京市,丰台区,北京市丰台区朱家坟二里9号楼,,116.197933,39.813585
70389893bbe5eb87cae33c54,中体奥林匹克花园一区-2栋,北京市,北京市,丰台区,北京市丰台区中体奥林匹克花园一区2栋,,116.196578,39.842149
50ce6c330e9b53b6c61b754a,珠光逸景二号院-8号楼,,,,北京市丰台区太柏西路2号,,116.184069,39.841487
9acc044ecd1a784cc51b7524,卢西嘉园-13号楼,北京市,北京市,丰台区,北京市丰台区长辛店卢西嘉园中泽育仁办公楼,,116.217574,39.835556
24cf37c5edccdbb98d1a893a,杜家坎44号院-4号楼,北京市,北京市,丰台区,北京市丰台区二七厂路44号院,,116.209495,39.843975
4b16ce0a92e87580c2f1cf65,杜家坎19号院8号楼,北京市,北京市,丰台区,北京市丰台区长辛店二七厂路杜家坎19号院8号楼,,116.208092,39.846747
4c3294b9b7cb541885420ee6,长兴路10号院3号楼,北京市,北京市,丰台区,北京市丰台区长兴路10号楼院3号楼,,116.195323,39.84411
6bc6e8b6220036d4a7da39bb,恒业职工公寓11号楼,北京市,北京市,丰台区,北京市丰台区恒业职工公寓11号楼,,116.152539,39.80643
be3c719613610f3f2fb96dcd,镇岗南里-14号楼,北京市,北京市,丰台区,北京市丰台区云岗路,,116.174614,39.817153
de8955845f10771f0f0a7056,朱家坟一里-12号楼,北京市,北京市,丰台区,北京市丰台区朱家坟一里12号楼,,116.200859,39.812722
1cb82d60a4e929fb88b98825,朱家坟一里-14号楼,北京市,北京市,丰台区,北京市丰台区朱家坟一里14号楼,,116.20005,39.812364
bd266bf2be37822bb23c819b,南关东里46号楼,,,,北京市丰台区长辛店大街北京市第十中学(高中部)南,,116.213906,39.821409
33a84a5a5dab79d7c72ba136,朱家坟一里-11号楼,北京市,北京市,丰台区,北京市丰台区朱家坟一里11号楼,,116.200874,39.81305
006df485f48c399586420ee1,云岗静欣苑-6号楼,北京市,北京市,丰台区,北京市丰台区云岗静欣苑6号楼,,116.174299,39.823668
a417962d8b50414ab11e3677,朱家坟五里1号院-19号楼,北京市,北京市,丰台区,北京市丰台区云岗路,,116.202095,39.814967
1b92a83d4638a5dcd718b745,镇岗南里-7号楼,北京市,北京市,丰台区,云岗路178号附近,,116.174145,39.815912
055e29a1b298267c88b9881e,云岗南区西里-31号楼,北京市,北京市,丰台区,云岗南区西里2号云岗派出所附近,,116.16381,39.814458
52abee04866dfbdfc42ba1aa,田城中里2号楼,北京市,北京市,丰台区,东王佐北路附近,,116.151359,39.828399
6a0d7894a96504db02294fd8,云岗南区西里-甲49号楼,北京市,北京市,丰台区,云岗南区西里2号云岗派出所附近,,116.16431,39.815221
f790497e9c7cefaa7069d3bb,杜家坎4号院1号楼,北京市,北京市,丰台区,北京市丰台区长辛店杜家坎4号院(二七厂路南),,116.211218,39.845348
b624a027d416269135b06c94,辛佳竹园,北京市,北京市,丰台区,长辛店东山坡三里17号院,,116.217235,39.836512
84c843518ca3d598b23c8111,朱家坟四里-17号楼,北京市,北京市,丰台区,北京市丰台区朱家坟四里17号楼,,116.192749,39.811586
5bb483999f98fa002fb96d30,东山坡一里-1号楼,,,,东山坡一里15号,,116.218003,39.832742
71825acb3b69cd5f45e27401,王佐镇社区,北京市,北京市,丰台区,丰台区王佐镇,,116.13646,39.816612
be33923d2bd9c220d4851f3b,崔村二里-7号楼,北京市,北京市,丰台区,北京市丰台区崔村二里7号楼,,116.203393,39.83847
1aeaf081a1e6ee39fe0eb0f4,山语城-55号楼,北京市,北京市,丰台区,北京市丰台区云岗西路28号院山语城,,116.147696,39.81583
a259f26ccba0ef933f9a5e06,云岗南区西路14号院-4号楼,北京市,北京市,丰台区,北京市丰台区云岗西路14号院4号楼,,116.160582,39.816194
a8015d532ccf18ec84154188,领秀翡翠山枫荻园-8号楼,,,,北京市丰台区领秀翡翠山,,116.175303,39.807039
4e0f1ca14e39b9e302294f68,云岗北里-3号楼,北京市,北京市,丰台区,北京市丰台区云岗北环路,,116.163194,39.823383
437b4910ea862897cf06a4da,云岗北区西里-东区,,,,北京市丰台区云岗,,116.172549,39.820751
12fe87c1f08c10a3d13ce349,崔村二里-14号楼,北京市,北京市,丰台区,北京市丰台区崔村二里14号楼,,116.202493,39.839574
9fdf158c6ea6f047f82d619a,朱家坟四里-14号楼,北京市,北京市,丰台区,北京市丰台区长辛店赵辛店张家坟路朱家坟四里西区,,116.193614,39.811962
2498ba820928cd5d1a11d530,朱家坟一里-19号楼,北京市,北京市,丰台区,北京市丰台区朱家坟一里19号楼,,116.201674,39.812769
2bce149f7caee8d279b55cf5,珠光逸景一号院-7号楼,,,,北京市丰台区太柏西路1号,,116.181491,39.841535
6d04a8c580883b61bd48423a,珠光逸景一号院-15号楼,,,,北京市丰台区太柏西路1号,,116.182187,39.83998
b1ca6a6149c18f8f45e2743f,中体奥园三区-35号楼,北京市,北京市,丰台区,北京市丰台区中体奥园三区35号楼,,116.192901,39.841481
75c3a16b2407b1cdc9fa5f09,云岗北区东里-10号楼,北京市,北京市,丰台区,北京市丰台区云岗北区东里10号楼,,116.171417,39.818337
56f2f696cd6f61830aa8d431,田城西里,北京市,北京市,丰台区,北京市丰台区,,116.146683,39.82563
8d670d42ca31c6035abbbcae,云岗北区东里-16号楼,北京市,北京市,丰台区,北京市丰台区云岗北区东里16号楼,,116.173217,39.819401
0fd033f0280d17ab1b94c6a2,珠光御景嘉园25号楼,,,,北京市丰台区珠江・御景珠光御景嘉园25号楼,,116.184886,39.826022
6b2c1e8536d123d296f08c7c,云岗南区西里-49号楼,北京市,北京市,丰台区,北京市丰台区云岗南区西里49号楼,,116.163778,39.815103
5755b1fdeb898ed60682c2ef,云岗北区西里-45号楼,北京市,北京市,丰台区,云岗静欣苑附近,,116.173444,39.822321
d909b3a3e45d2ccd70210b09,云岗北区西里-50号楼,北京市,北京市,丰台区,北京市丰台区云岗北区西里50号楼,,116.168464,39.821786
8b65137c11d087e038e4a64d,德善里11号楼,,,,北京市丰台区长辛店德善里11号楼(二七厂路东),,116.209042,39.834565
eac9dec05f27328329fc48e8,朱家坟一里-23号楼,北京市,北京市,丰台区,北京市丰台区朱家坟一里23号楼,,116.200456,39.811705
58bb149ce210e8c7d8eced25,朱家坟四里-东区,北京市,北京市,丰台区,北京市丰台区长辛店,,116.195261,39.811986
4b7dfe0e68b938c54afc8dd6,永兴里36号,北京市,北京市,丰台区,北京市丰台区,,116.2088,39.838085
6d879a37d92823a1ab059dc2,云岗西路12号院-1号楼,北京市,北京市,丰台区,北京市丰台区云岗西路12号院1号楼,,116.161706,39.81669
a004bf8f03761348a1046435,大宁山庄丙区28号楼,北京市,北京市,丰台区,北京市房山区京港澳高速公路房车世界露营公园,,116.220744,39.822288
9b6fa7b8efa85f733617dc79,珠光逸景一号院-10号楼,,,,北京市丰台区太柏西路1号,,116.182911,39.840918
1fc0c0af8828686d31870a92,西峰寺245号楼,,,,北京市丰台区长辛店北关社区西后街西峰寺245号楼,,116.205617,39.827422
3baf989eccfa68d60f0e6b91,云岗南区东里20号院-2号楼,北京市,北京市,丰台区,北京市丰台区云岗南区东里20号院2号楼,,116.171134,39.813844
f303cb9f82fbe37b0b69d987,珠光逸景二号院-3号楼,,,,北京市丰台区太柏西路2号,,116.183866,39.842284
51fd5a40c6589bc709a8d426,花园南里50号,北京市,北京市,丰台区,北京市丰台区,,116.211683,39.834487
7745b4b05a8c97c9b54f5442,崔村二里-南区,北京市,北京市,丰台区,北京市丰台区二七厂路,,116.205495,39.836605
ddc50dc49879e4cf5abbbc86,云岗南区东里23号院-4号楼,北京市,北京市,丰台区,北京市丰台区云岗南区东里23号院4号楼,,116.168,39.811129
912970b49f8e26856d20b9f7,建设二里-14号楼,北京市,北京市,丰台区,北京市丰台区二七厂路,,116.198213,39.837782
450e2591c7aae92fcd04efc9,鑫海花园-2号楼,北京市,北京市,丰台区,北京市丰台区鑫海花园2号楼,,116.159209,39.816425
5b80d790fd0c7c57b7265501,花园北里-2号楼,北京市,北京市,丰台区,北京市丰台区花园北里,,116.211573,39.839085
c0b6bcafecfe83402fb96d6b,云岗南区东里-乙20号楼,北京市,北京市,丰台区,北京市丰台区新苑路云岗南区东里(南宫路8号院东北),,116.166645,39.812275
bdfa05cfe854f83eeedfca69,云岗北区西里-19号楼,北京市,北京市,丰台区,北京市丰台区镇岗塔路云岗北区西里19号楼,,116.170764,39.818724
7e8c4b055ca82c6540afe6ac,田城中里3号楼,北京市,北京市,丰台区,东王佐北路附近,,116.151414,39.828124
d3c9dca3e70ad1c3fa0cad39,玉皇庄2号楼,北京市,北京市,丰台区,长辛店杜家坎6号(玉皇庄路口),,116.211395,39.843024
0e569aaa828c7ed7d2f49e6c,新苑小区C区-3排,北京市,北京市,丰台区,北京市丰台区新苑小区C区3排,,116.155254,39.806172
ced8f451327b2abdc6effb45,张家坟北里-6号楼,北京市,北京市,丰台区,北京市丰台区张家坟北里6号楼,,116.180552,39.823026
bc20731d49013f45c52ba1fc,东山坡一里-3号楼,北京市,北京市,丰台区,东山坡一里15东山坡一里15号院附近,,116.218097,39.832083
29c77edd42ce0a09c3364428,朱家坟四里-15号楼,北京市,北京市,丰台区,北京市丰台区朱家坟四里15号楼,,116.19403,39.811739
ab26fa24a82ac4138415413d,朱家坟四里-18号楼,北京市,北京市,丰台区,北京市丰台区朱家坟四里18号楼,,116.192961,39.811271
af6ce64a2b355f8db020a83f,大宁山庄丙区-22号楼,北京市,北京市,丰台区,北京市房山区房车露营公园(京港澳高速公路南),,116.219104,39.820744
8203184b6ec3f01896f08cc3,云岗静欣苑-2号楼,北京市,北京市,丰台区,北京市丰台区云岗静欣苑2号楼,,116.173503,39.824161
cee7225ebc387c0779dbd2bc,崔村二里-44号楼,北京市,北京市,丰台区,长辛店崔村一里附近,,116.201476,39.839611
a31fdc38823e4b9c09ccdd1d,云岗南区东里-11号楼,北京市,北京市,丰台区,北京市丰台区云岗南区东里11号楼,,116.168127,39.814149
0367ddae8cdfd0ad04fef565,崔村一里-30号楼,北京市,北京市,丰台区,北京市丰台区长辛店建设里社区二七厂路崔村二里,,116.201711,39.837868
ad862c446a96a9e5455726b2,长兴路10号院4号楼,北京市,北京市,丰台区,北京市丰台区长兴路10号楼院4号楼,,116.195691,39.843789
e1878f09aec54128a5da394c,云岗北区西里南区,北京市,北京市,丰台区,云岗路与飞航路交叉口北150米,,116.169628,39.818078
cc6e6bf9c6fbe7114207c183,花园北里-22号楼,北京市,北京市,丰台区,北京市丰台区花园北里,,116.209776,39.840152
ab020387e447a10684154103,领秀翡翠山枫荻园-9号楼,,,,北京市丰台区领秀翡翠山,,116.173612,39.80683
72313b869e2c9dd81e1d1192,翠园-8号楼,北京市,北京市,丰台区,云岗北区翠园8号楼,,116.170726,39.823457
71e66741bd4604ed31870a41,崔村一里-32号楼,北京市,北京市,丰台区,北京市丰台区崔村一里32号楼,,116.201139,39.838207
88848904d9dde96aa21de928,朱家坟一里-20号楼,北京市,北京市,丰台区,北京市丰台区朱家坟一里20号楼,,116.201472,39.812473
0cd650322d25b66814c8f63a,云岗静欣苑-3号楼,北京市,北京市,丰台区,北京市丰台区云岗静欣苑3号楼,,116.172836,39.824105
87e3cbd55e2158c271210b74,朱家坟一里-9号楼,北京市,北京市,丰台区,北京市丰台区朱家坟一里9号楼,,116.200743,39.813634
d9e6c79b6907a34815a19007,新苑小区C区-5号楼,北京市,北京市,丰台区,北京市丰台区新苑小区C区5号楼,,116.154397,39.807675
2f2a57d5c8a0ace297ec845a,珠光逸景二号院-13号楼,,,,北京市丰台区太柏西路2号,,116.185454,39.84085
0890b54fc9f0da5615764317,怡海花园,北京市,北京市,丰台区,丰台区南四环西路129号(科学城东侧),,116.308885,39.837201
4cf8d24e3a77c5e49cf77904,天伦锦城,北京市,北京市,丰台区,北京市丰台区新发地锦城园15号楼a栋1层,,116.340713,39.822749
4edf9fbff1561094cc06a43d,西马金润家园,北京市,北京市,丰台区,北京市丰台区大红门西路35号,,116.389401,39.844062
98528da3a7616659cc06a4f3,和义西里小区,北京市,北京市,丰台区,南苑路,,116.404404,39.820984
31f9101bddba16b926e0a000,鸿业兴园,北京市,北京市,丰台区,北京市丰台区丰台南路84号,,116.313151,39.842315
fe1b6a45408b12f305fef559,晓月苑五里,北京市,北京市,丰台区,晓月中路25号附近,,116.246232,39.840011
0dc3d82d4b36b06c75e5b600,嘉园三里,北京市,北京市,丰台区,北京市丰台区嘉园三里公园(角门西地铁站西南),,116.372595,39.848236
d219bb1d5478458bf50e7704,富锦嘉园,北京市,北京市,丰台区,丰台世界公园北面300米,(010)83623741,116.292817,39.823133
73892ef03d711b3e84420ef9,星河苑,北京市,北京市,丰台区,北京市丰台区马家堡西路,,116.375478,39.844265
2cc3c8e8829645a84d2fdf3a,益辰欣园,北京市,北京市,丰台区,北京市丰台区樊羊路88号,,116.321398,39.829633
7bfa08fc51313e0125d2bbed,怡锦园,北京市,北京市,丰台区,丰台西南四环路交界处，邻枫路5号院,(010)63712888,116.296732,39.839933
37d60a4617688e1c1e1d1175,飞腾家园,北京市,北京市,丰台区,丰台区南苑镇五爱屯西街3号,,116.382187,39.809268
6557fddf7e09022d95f08c81,怡然家园,北京市,北京市,丰台区,丰台区大红门西路22号,,116.389275,39.849093
cb4fd146d0143c419d9d6804,城南嘉园益城园,北京市,北京市,丰台区,马家堡,,116.373152,39.839378
c65449eca588dc4617764359,康泽园,北京市,北京市,丰台区,大红门路72号,,116.416748,39.847582
a3f21eeea0da89442fb17e04,亿城天筑,北京市,北京市,丰台区,北京市丰台区樊羊路69号,,116.317316,39.827096
c1653405cd7b7579ab175af4,金华园,北京市,北京市,大兴区,"北京市大兴区黄亦路与团河路交口东北角,金大路附近",,116.389521,39.773133
55fa2c0bc4641c2d1ce99900,富丰园,北京市,北京市,丰台区,文体路2号,,116.289207,39.843422
a12baa40e128d956e856fa3d,三星庄园,,,,北京市丰台区马家堡东路(丰台区南三环洋桥十字路口向南2.5公里),,116.39061,39.841168
3faca798d9c3589e9222e0fc,西宏苑小区,北京市,北京市,丰台区,北京市丰台区西宏苑小区(五爱屯东街北),,116.386057,39.807113
101bc61bc9a41ea3c42ba100,恒富花园,北京市,北京市,丰台区,北京市丰台区恒富中街1号,,116.300939,39.842603
7c5e480b857190b4adb22a03,未来假日花园,北京市,北京市,丰台区,北京市丰台区枫林苑18号,,116.383114,39.840631
69f9a9fdd0361f67754ff149,阳光四季社区,北京市,北京市,丰台区,恒富街2号,,116.299805,39.841017
2772d00708a2231bdbeced16,韩庄子小区,北京市,北京市,丰台区,北京市丰台区韩庄子西里2号楼,,116.297006,39.844823
15e1e85e4661d4a35810935e,西马小区,北京市,北京市,丰台区,北京市丰台区大红门西路35号院,,116.388639,39.847125
aa524d4a9951b1e7d7851fd6,城市时尚家园,北京市,北京市,丰台区,南顶路281,,116.416241,39.849161
b0d056f22636367ecac3db00,彩虹街区,北京市,北京市,丰台区,丰台新村一里15号,,116.309179,39.846983
d146b3889b61a5de74026904,北京国际花园,北京市,北京市,丰台区,北京市丰台区丰葆路168号,,116.301454,39.819176
b682b5c65998e99fa8175a48,城市经典(帝京路),北京市,北京市,丰台区,帝京路5,,116.299728,39.839566
8bccc75a5284d6f1cac3db57,大溪地,北京市,北京市,丰台区,葆台北路6号院,,116.29572,39.810856
055ba19ee6071b75a3acc4e2,警备东路6号院（一区）,,,,丰台区警备东路6号1区,,116.424239,39.800074
33fbfa83bc41a6c10bf5eb3d,苗圃西里,北京市,北京市,丰台区,北京市丰台区南苑路47号,,116.406136,39.84862
63d19746a299cf7f28d7abd6,名都家苑,北京市,北京市,丰台区,北京市丰台区马家堡西路32号,,116.378983,39.845095
3846e29995042cae15c905e2,大红门西里,北京市,北京市,丰台区,北京市丰台区南苑路,,116.408807,39.846161
46e86fdd0f61ef6fd13ce304,世嘉丽晶,北京市,北京市,丰台区,北京市丰台区和义西里北街8号,(010)51031966,116.405211,39.824422
c7eca12b58e0d537e115f900,帝京花园,北京市,北京市,丰台区,北京市丰台区帝京路1号,,116.302201,39.83919
f9fd6062e9608b1f0f0e6b07,晓月苑三里,北京市,北京市,丰台区,晓月中路5号院,,116.247495,39.843032
b388f9fd01c34c41b35c6a03,南极星,北京市,北京市,丰台区,"丰台邻枫路3号院,西南四环边上",,116.296423,39.840882
7586c8927cdb5bf6cac3db64,瑞丽江畔-南区,北京市,北京市,丰台区,马家堡中路28号8号楼,,116.379853,39.848158
d7fd2ad3fa5f0d540bccdd04,三角地,北京市,北京市,丰台区,东高地,,116.420117,39.812537
f181a38a8d2ddcabeb56fa01,左右坊,北京市,北京市,丰台区,北京市丰台区马家堡西路26号,,116.377881,39.847369
a3031c39b486ed18047ce85a,四营门北路2号院,北京市,北京市,丰台区,四营门北路2号,,116.420959,39.815562
932b7e629de5bb102bd7abe0,马家楼路1号院西区24栋,北京市,北京市,丰台区,北京市丰台区青秀城西区24号楼,,116.344696,39.841202
3ea3be5373037ad9ac080fa5,7克拉-7号楼,北京市,北京市,丰台区,北京市马家堡东路121号七克拉小区,,116.390923,39.845681
480b878e6258994216a19076,和义东里一区,北京市,北京市,丰台区,丰台区南苑路大红门,,116.414303,39.820951
1f8f3e32378343ce1ce99909,东亚三环-1栋,北京市,北京市,丰台区,马家堡西路14号院公益西桥北200米,,116.37809,39.84359
703a4ef681ca6a1cd7851fb9,潘家庙518号,北京市,北京市,丰台区,新发地,,116.355088,39.833533
14aafb475900cce29d9d68d2,草桥东路 20 号院 4 号,北京市,北京市,丰台区,北京市丰台区草桥欣园小区20号院(草桥东路东),,116.366333,39.847799
4cff668a0171f057ea56fa0a,草桥欣园三区-23号楼,北京市,北京市,丰台区,草桥欣园三区23,,116.362933,39.847111
ba7b594c416ee57128201a7f,草桥欣园三区-21号楼,北京市,北京市,丰台区,草桥欣园三区21,,116.36369,39.847505
900a6d98f821457d465726c6,东亚・三环36号院2号楼,,,,马家堡西路36号院2号,,116.378058,39.84277
aecbe46ce6912a91ab0dd8e2,西马金润家园一区-12号楼,北京市,北京市,丰台区,西马场南里一区12号,,116.391002,39.843259
69468a66716a0cd116764352,草桥欣园四区风景CLUB小区-18号楼,北京市,北京市,丰台区,北京市丰台区草桥欣园四区风景CLub小区18号楼,,116.357369,39.847159
9db03e05afe89e7297ec8427,红华住宅区,北京市,北京市,大兴区,大兴西红门镇政府往东800米,,116.364597,39.797746
474674677b23d6273913fd7b,石榴园南里-28号楼,北京市,北京市,丰台区,北京市丰台区石榴园南里28号楼,,116.42766,39.849241
6b7eb7b94b644315167643b7,久敬佳园-二区,北京市,北京市,丰台区,久敬庄路甲2号,,116.41487,39.825776
5694c479ba4ff45af8f0cbdc,看丹苑,北京市,北京市,丰台区,北京市丰台区丰台南路116号,,116.29677,39.847149
58c8becbddc372afe91e97a0,明月嘉园2期27号楼,,,,北京市丰台区嘉园三里27号楼,,116.372885,39.847682
868f62aca8bcfc27bea24009,马家楼路1号院西区17号,北京市,北京市,丰台区,北京市丰台区青秀城西区17号楼,,116.345755,39.842849
545d990376392c3e7dc87638,石榴园南里-39号楼,北京市,北京市,丰台区,北京市丰台区大红门街道南顶路石榴园南里,,116.422125,39.848841
2757770032e72d24e856faaa,角门甲14号院1号楼,北京市,北京市,丰台区,北京市丰台区角门甲14号院1号楼,,116.380149,39.843743
de90f7c10eae0b3421f017d3,康泽园-14号楼,北京市,北京市,丰台区,大红门路72号,,116.414646,39.848149
e22b02067111d0011e580002,马家堡路65号院,北京市,北京市,丰台区,北京市丰台区和园居2号楼,,116.383182,39.849216
84f4dacbbdc27cfaa1d2305d,康泽园-16号楼,北京市,北京市,丰台区,北京市丰台区南顶路51号康泽园,,116.415534,39.847431
541a076a07f35fde16c9050d,大泡子四号楼,北京市,北京市,丰台区,北京市丰台区大泡子4号楼(南苑公园北),,116.386066,39.816779
39b3d370e2576a6d26d2bb51,大红门南里-13号楼,北京市,北京市,丰台区,北京市丰台区大红门南里13号楼,,116.408477,39.841046
94ec25efc7df0b2cf33cba4c,和义东里六区,北京市,北京市,丰台区,和义东里小区6区1号楼,,116.411573,39.819232
679a0c74207b00a685420edc,和义西里二区-25号楼,北京市,北京市,丰台区,和义西里二区25,,116.404732,39.821098
4adc439155c5d49cf72310f0,彩虹小区,北京市,北京市,丰台区,丰台光彩路66号院,,116.423465,39.845332
1686ee498e1cf319ab059d4c,万源西里-7号楼,北京市,北京市,丰台区,北京市丰台区万源西里7号楼,,116.425693,39.806128
6ecdc39cb98030b0cb291585,城南嘉园益星园-7号楼,北京市,北京市,丰台区,北京市丰台区城南嘉园益星园7,,116.375817,39.842586
6c269709834a1ccd79dbd225,光彩路72号院,北京市,北京市,丰台区,北京市丰台区光彩路72号,,116.423798,39.842378
22f6019b6b365d60b14c494b,南顶村 8 号楼,北京市,北京市,丰台区,北京市丰台区南顶路南顶小区(康泽园东北100米),,116.418214,39.849027
345c5c6d69c1d99909a8d40e,东前街28号院,北京市,北京市,丰台区,大红门东前街28号,,116.41092,39.841372
4c1e4ff0d23dfcf89503199e,益丰园小区-2号楼,北京市,北京市,丰台区,北京市丰台区益丰园小区2号楼,,116.423403,39.816177
ffe8f7e730e8c20c25d2bb68,南苑北里一区-2号楼,北京市,北京市,丰台区,北京市丰台区南苑路,,116.40738,39.81604
46338f873acf8964223bf2de,建欣苑六里-7号楼,北京市,北京市,丰台区,北京市丰台区建欣苑六里7号,,116.399211,39.848796
268a90104c95a1003586f415,西洼地-5号楼,北京市,北京市,丰台区,南苑东路5号,,116.414052,39.812118
432894a320d364a4e215f952,花乡银地家园1号楼,北京市,北京市,丰台区,北京市丰台区银地家园1号楼,,116.342095,39.828361
6062094279a1929149fd3f7d,草桥欣园-20号院,北京市,北京市,丰台区,北京市丰台区草桥东路20,,116.366437,39.848406
9a4a335f0d4ac0e84207c128,瑞丽江畔南区-8号楼,,,,马家堡西路30号院8号,,116.380191,39.847539
5cf57605b57c65b8ca291591,南大红门路19号院,北京市,北京市,丰台区,南大红门路19号,,116.425566,39.801415
d98c75c3c7b229cd8936eee9,万源西里-28号楼,北京市,北京市,丰台区,北京市丰台区东高地南大红门路万源西里,,116.428039,39.808458
cadc8aa66a2ec1b10869d9a3,青秀城东区-12号楼,北京市,北京市,丰台区,北京市丰台区青秀城东区12号楼,,116.34986,39.842309
50f7d1461e7b09c472210b04,紫光园,北京市,北京市,丰台区,丰台花乡桥南高丽庄937终点站对面,,116.310324,39.797088
f4e4e81945cde8d51d58005b,和义西里一区-10号楼,北京市,北京市,丰台区,北京市丰台区和义西里北街8号,,116.403042,39.824087
1db686983edc56f4ab175ab2,城南嘉园益明园-3号楼,北京市,北京市,丰台区,北京市丰台区马家堡嘉园路城南嘉园益明园,,116.372405,39.841678
974323d353b381d4badf8fa5,彩虹城四区-一号楼,北京市,北京市,丰台区,北京市丰台区光彩路65号院,,116.420905,39.845697
5211d219d681fd587dc87604,华英园,北京市,北京市,丰台区,北京市丰台区六圈南路,,116.29809,39.821355
05ce4b0e115ccbcd901fc94e,东高地-甲23号楼,北京市,北京市,丰台区,北京市丰台区东高地斜街2号,,116.425956,39.815088
1e433dc1e2f439c4a4c756d4,草桥欣园四区-21号楼,北京市,北京市,丰台区,北京市丰台区草桥欣园四区风景CLub小区21号楼,,116.357341,39.845956
a5a39993736b029185420e01,草桥欣园四区风景CLUB小区-19号楼,北京市,北京市,丰台区,北京市丰台区草桥欣园四区风景CLub小区19号楼,,116.357351,39.8465
c589317df9db1202fb22135d,嘉园三里-18号楼,北京市,北京市,丰台区,北京市丰台区嘉园三里18号楼,,116.372087,39.848847
1020060fe3f26aa61894c603,新村小区,北京市,北京市,丰台区,看丹桥新华街新村鸿业兴园,(010)63716689,116.316005,39.847972
0c0087a7c569d3981f3894ac,花乡银地家园28号楼,北京市,北京市,丰台区,银地家园(东南二门)附近,,116.340436,39.825718
170bf7102c9279aa6ca3ccac,大红门东前街1号楼,北京市,北京市,丰台区,大红门东前街1号,,116.409841,39.839832
fb4d80e5993ef44525e0a045,大红门南里-8号楼,北京市,北京市,丰台区,北京市丰台区丰台南苑乡政府旁,,116.408762,39.84003
ad97da5b55ba6ce7471a329b,嘉园三里-19号楼,北京市,北京市,丰台区,北京市丰台区嘉园三里19号楼,,116.373006,39.848852
67b59bc5b54813a15fbe8649,首经贸中街1号院9号楼,,,,北京市丰台区首经贸北路1号院9号楼,,116.330309,39.848218
0b61d98d34546fd359f6bead,南苑城苑小区,北京市,北京市,丰台区,北京市丰台区南苑西路,,116.379815,39.81054
fd9d5f7df57bbf4126d2bb52,怡然家园北区5号院1号楼,,,,西马场路5号院1,,116.390183,39.848965
df02656aa5dcee6004026f92,星河苑2号院23号楼,北京市,北京市,丰台区,星河苑2号院23号,,116.374806,39.843195
6db2358e79fcee0dc336445b,星河苑1号院-22号楼,北京市,北京市,丰台区,北京市丰台区嘉园路11号,,116.371911,39.843338
f4658dbd6683c7b92902e135,东高地万源西里14号楼,,,,北京市丰台区南大红门路,,116.426883,39.807434
94c7652f885a961b3362127f,嘉禾庄7号,北京市,北京市,丰台区,嘉禾庄路北100米,,116.403027,39.818757
e6ba70060bdae47e210262d9,南苑北里三区-13号楼,北京市,北京市,丰台区,北京市丰台区和义龙和路南苑北里(三区),,116.403089,39.8141
21ef8d702c600e2cb817e7f3,枫南世嘉3号楼,北京市,北京市,丰台区,北京市丰台区马家堡路154号院3,,116.38622,39.846939
175414762f7f1dc7a0acc412,彩虹城二区-5号楼,北京市,北京市,丰台区,光彩路68号,,116.423892,39.843924
247f332936d7282b725e80f1,大红门西里-4号楼,北京市,北京市,丰台区,南苑路,,116.409193,39.847171
c2aff5761abd77a9c9e33ccf,城南嘉园益城园-4号楼,北京市,北京市,丰台区,北京市丰台区城南嘉园益城园4号楼,,116.373867,39.838602
6e58cb516d4ac43dcc04ef65,光彩路67号院2号楼,,,,北京市丰台区大红门街道光彩路彩虹城五区2号楼,,116.420517,39.843913
1d031adea4af80d5940319c4,星河苑1号院-21号楼,北京市,北京市,丰台区,星河苑1号院21号,,116.373719,39.843558
51d9f2b478d2c674e812e483,嘉园三里-26号楼,北京市,北京市,丰台区,北京市丰台区嘉园三里26号楼,,116.371937,39.84826
81e6df8eca6fd2e349fd3f40,久敬佳园三区-9号楼,北京市,北京市,丰台区,北京市丰台区久敬佳园三区9号楼,,116.41296,39.825074
0cc4091aeec30cb4da2f282e,城南嘉园益嘉园-1号楼,北京市,北京市,丰台区,马家堡城南嘉园益嘉园(西门)附近,,116.378607,39.838415
357f0f609ae2b054c2f1cf9c,石榴园南里-35号楼,北京市,北京市,丰台区,北京市丰台区石榴园南里35号楼,,116.425696,39.849268
c05e1d79ab1e39de8bfc06d4,新新天第2号楼,北京市,北京市,丰台区,北京市丰台区三星庄2号院2号楼,,116.388035,39.840862
4a3def0675ae76211188244c,梅源里-11号楼,北京市,北京市,丰台区,北京市丰台区大红门路36号,,116.427317,39.803727
12c49e4d26c7070852e5c5e8,花乡银地家园-8号楼,北京市,北京市,丰台区,荣欣平价大药房附近,,116.342096,39.827306
3cacf6633f0c4817f6c59ce0,京天明天假日酒店公寓,,,,新村街道巴庄子路139号,,116.33395,39.840721
